objectid,noname,pinyin,simplified_chinese,tarditional_chinese,official_name,address,postal_code,new_address,x,y,long,lat,foundingdate,phone,maingods,origin,origindetail,foundinglocation,website,united,subtemples,photos
38,65,Chengbang Dabogong Gong,成邦大伯公宫,成邦大伯公宮,Seng Pang Tua Pek Kong Keng,475 Yishun Ring Road 768678,768678,475 YISHUN RING ROAD,27412.92613,46167.37219,103.8280432,1.4337958,,,大伯公,广东省,广东省 潮州市,,,1,"三巴旺成邦聯合廟

1. 三巴旺成邦聯合廟
2. 成邦大伯公
3. 何碧山宮
4. 南鳳善堂",65
217,332,Hainanshan Tiangong Tan,海南山天公坛,海南山天公壇,Hai Lam Sua Tee Kong Toa Temple,175 Upper Thomson Road 574426,574426,175 UPPER THOMSON ROAD,28252.70153,36949.47516,103.8355893,1.35043245,1904,6258 5411 ,"玉皇上帝, 大伯公",海南省,海南省,,,0,NA,332
286,436,Jiuxian Gong ,九仙宫 ,九仙宮 ,Jiuxian Gong ,7 Tampines Avenue 529786,529786,7 TAMPINES AVENUE,38497.2921,38759.74718,103.927644,1.36680204,1938,"6299 6588 
6282 743*",九天玄女娘娘,福建省,福建省 安溪县,Tampines Road 7th milestone,,0,NA,436
49,92,Chongyimiao Wanxinshan ,崇义庙  万兴山,崇義廟  萬興山,Chong Ghee Temple,"80 Rivervale Crescent, #01-01 545087",545087,80 RIVERVALE CRESCENT,36206.30472,41229.58551,103.9070586,1.38913908,1960,6429 4183,关帝圣君,福建省,福建省,Lorong Samak,http://www.chonggheetemple.com/,1,"盛港聯合廟

1. 盛港聯合廟
2. 天后宮（半港）
3. 崇義廟（萬興山）",92
290,440,Jushan Tang,聚善堂,聚善堂,Ju Shan Tang   Chu Siang Tong,569 Yishun Ring Road 768691,768691,569 YISHUN RING ROAD,28042.01009,46296.93599,103.8336961,1.43496753,1958,6257 3761,关圣帝君,福建省,福建省,Bah Soon Pah,,1,"聚善华山宫

1. 聚善華山宮
2. 華山宮（華山芭）
3. 聚善堂",440
293,443,Jueyin Jiangtang,觉音讲堂,覺音講堂,Jue Ying Buddhist Association,34 Boon Teck Road 329604,329604,34 BOON TECK ROAD,29892.91243,34357.83073,103.8503274,1.32699448,,6252 8885,,NA,NA,,,0,NA,443
294,444,Kaifu Tang,开福堂,開福堂,Kaifu Tang,56 / 58 / 60 Hougang Avenue 3 538842,538842,58 HOUGANG AVENUE 3,34580.58489,37875.8749,103.8924495,1.35880975,1919,,王爷：朱孙邢林四府大人,福建省,福建省,Hougang 4th milestone,,1,"紫雲開吉宮 

1. 紫雲開吉宮 
2. 朝雲宮
3. 吉山廟
4. 開福堂",444
295,445,Kaishan Miao ,开山庙,開山廟,Kai San Temple ,1300 Jalan Bukit Merah 169546,169546,1300 JALAN BUKIT MERAH,27414.41695,29078.11589,103.8280569,1.27924665,1904,,开山圣侯,福建省,福建省漳州市东山县坑北村,,,0,NA,445
71,127,Dabayao Xiude Shantang,大芭窑修德善堂,大芭窯修德善堂,Toa Payoh Seu Teck Sean Tong,2 Lorong 6 Toa Payoh 319377,319377,2 LORONG 6 TOA PAYOH,30009.78138,35625.19243,103.8513777,1.33845604,1942,,宋大峰祖师,广东省,广东省 潮州市,Hup Choon Hng (Balestier),,0,NA,127
302,458,Lide Chuanxin Tang ,立德传心堂,立德傳心堂,Li Teck Chuan Cin Tang temple ,8 Lorong 102 Changi 426603,426603,8 LORONG 102 CHANGI,35472.70281,33133.54045,103.9004646,1.31592158,,,,NA,NA,,,0,NA,458
303,459,Lijiang Miao,鲤江庙,鯉江廟,Lijiang Miao,68 Sing Avenue 217915,217915,68 SING AVENUE,30348.08536,33137.53038,103.8544173,1.31595848,1971,6294 9614,城隍老爷,福建省,福建省 莆田市,,,0,NA,459
304,462,Lianchige Si ,莲池阁寺,蓮池閣寺,Lian Chee Kek Temple ,36b Paya Lebar Crescent 536190,536190,36B PAYA LEBAR CRESCENT,33442.41094,36812.02855,103.8822221,1.34918894,,6288 5971 ,,NA,NA,,,0,NA,462
81,138,Dajue Si ,大觉寺,大覺寺,Tai Kak Seah Temple ,86 Lorong K Telok Kurau 425720,425720,86 LORONG K TELOK KURAU,36823.48008,32789.21959,103.9126019,1.31280731,1950,"6344 3091
6447 2414 ",释迦牟尼佛,福建,福建,,,0,NA,138
84,142,Dashibogong Gong,大士伯公宫,大士伯公宮,Tuas Pek Kong Keng,118 Boon Lay Drive 649923,649923,118 BOON LAY DRIVE,14642.59813,36341.91728,103.7132942,1.34493494,1944, 6268 4858,大伯公,众多方言,众多方言,Upper Jurong 18 miles ,http://www.tuaspekkong.com/_x000D_,0,NA,142
307,468,Lianhua Tan,莲花坛,蓮花壇,Lian Huay Temple,99 Sin Ming Industrial Estate Sector B  575660,575660,99 SECTOR B SIN MING INDUSTRIAL ESTATE,28783.25906,37773.98031,103.8403567,1.35788897,,,哪吒,NA,NA,Thomson 6th milestone,,1,"湯申廟（聯合廟）

1. 湯申廟（聯合廟）
2. 華光大帝廟
3. 蓮花壇
4. 金榜山亭天后會",468
308,469,Lianshan Shuanglin Si ,莲山双林寺,蓮山雙林寺,Lianshan Shuanglin Si ,184E Jalan Toa Payoh 319941,319941,184E JALAN TOA PAYOH,30668.08151,34718.03868,103.8572928,1.33025201,,,释迦牟尼佛,NA,NA,,,0,NA,469
89,148,Danbinni Lianhe Gong,淡滨尼联合宫,淡濱尼聯合宮,Tampines Chinese Temple  United Temple,25 Tampines Street 21 529394,529394,25 TAMPINES STREET 21,40970.459,37545.69215,103.9498665,1.3558216,,,朱邢李大人,NA,NA,,,1,"淡濱尼聯合宮

1. 淡濱尼聯合宮
2. 地萬大伯公
3. 福安殿
4. 慈靈宮
5. 九哩大伯公 aka 九哩福德正神
6. 濟陽堂
7. 吉星亭
8. 洛陽天宮壇
9 後池廳aka普庵古佛
10. 順興古廟
11. 新芭大伯公
12. 洛陽大伯公
13. 漢陽大伯公",148
315,484,Linshan Ting,麟山亭北极宫,麟山亭北極宮,Leng San Teng Temple   Bei Ji Gong,1 Leng Kee Road 159085,159085,1 LENG KEE ROAD,25977.97593,30274.07388,103.8151499,1.29006242,1879,,玄天上帝,福建省,福建省,cemetery hill known as Bukit Leng Kee,,0,NA,484
104,171,Dongtian Gong ,东天宫,東天宮,Tong Tien Kung Temple ,8 Bukit Batok Street 21 659631,659631,8 BUKIT BATOK STREET 21,18834.17178,36492.36296,103.750958,1.34629709,,6567 4673,太阳公,众多方言,众多方言,Bukit Timah 9th milestone,,1,"武吉巴督聯合宮

1. 武吉巴督聯合宮
2. 五雷宮
3. 東天宮",171
106,175,Doumu Gong  Caicuo Gang,斗母宫  蔡厝港,斗母宮  蔡厝港,Choa Chu Kang Dou Mu Gong,2 Teck Whye Lane  688799,688799,2 TECK WHYE LANE,19131.68787,40335.52523,103.7536302,1.38105333,1920,6762 1458,九皇大帝,福建省,福建省 安溪县 , Sungei Tenga,,1,"蔡厝港聯聖宮

1. 蔡厝港聯聖宮
2. 斗母宮（蔡厝港）
3. 三中宮
4. 水溝館聖德壇
5. 天雲殿
6. 九龍宮",175
110,180,Duchenghuang Miao,都城隍庙,都城隍廟,Seng Wong Beo Temple,113 Peck Seah Street 079332,79332,113 PECK SEAH STREET,29274.27331,28679.89892,103.8447684,1.2756453,1905,,都城隍爷,福建省,福建省 泉州市 、漳州市,,,0,NA,180
114,187,Falun She,法轮社 ,法輪社,Dharna Cakra Society,38 Jalan Eunos 419500,419500,38 JALAN EUNOS,36028.3841,33652.56824,103.9054578,1.32061534,,6841 3171 ,释迦牟尼佛,福建省,福建省,,,0,NA,187
119,197,Feilong Gong ,飞龙宫,飛龍宮,Feilong Gong ,15 Woodlands Industrial Park E4 757749,757749,15 WOODLANDS INDUSTRIAL PARK E4,23786.24183,48102.86113,103.7954537,1.45129934,1959,6368 4889,哪吒,广东省,广东省 潮州市,Lorong Malai (Bukit Panjang). ,,1,"風山壇飛龍宮聯合廟

1. 風山壇飛龍宮聯合廟
2. 飛龍宮（蓮花三太子）
3. 鳳山壇（德惠）",197
123,201,Fengshan Gong,凤山宫,鳳山宮,Hong Shan Guan Di Miao Xiang You Hui,BLK 431 Clementi Ave 3 #01-322 120431,120431,431 CLEMENTI AVENUE 3,20122.48459,32896.12599,103.7625352,1.31377439,,,,NA,NA,,,0,NA,201
132,211,Fengshan Tang Jinfa Dian Quansheng Gong,凤山堂进法殿全盛宫,鳳山堂進法殿全盛宮,Fengshan Tang Jinfa Dian Quansheng Gong,"4 \ 6 \ 8 Ang Mo Kio St 63 Avenue 9, Singapore 569112",569112,4 ANG MO KIO STREET 63,29709.88356,40834.47575,103.8486832,1.38556696,,6482 0040,,福建省,福建省,Lorong Hablor in Yio Chu Kang's Lak Xun (Liuxun) Village,,1,"1. 鳳山堂
2. 進法殿
3. 全盛宮",211
134,213,Fengtu Miao Lianhemiao,凤图庙 联合庙,風圖廟 聯合廟,Fengtu Miao Lianhemiao,31 Marsiling Industrial Estate Road 3 739255,739255,31 MARSILING INDUSTRIAL ESTATE ROAD 3,22369.94824,46822.91903,103.7827271,1.43972377,,,,NA,NA,,,1,"風圖廟聯合廟

1. 風圖廟聯合廟
2. 鳳圖廟
3. 觀音廟
4. 環圖廟
5. 花果山平安明德宮
6. 義星堂",213
136,217,Foguang Shan,佛光山 ,佛光山,Fo Guang Shan Buddiste Temple  Singapore,1 Punggol Place 828844,828844,1 PUNGGOL PLACE,36034.22449,43174.31796,103.9055128,1.40672658,,6842 3725,释迦牟尼佛,福建省,福建省,,http://www.blia.org.sg ,0,NA,217
146,229,Foya Si,佛牙寺 ,佛牙寺,Buddha Tooth Relic Temple,293 South Bridge Road  058837 ,58837,293 SOUTH BRIDGE ROAD,29302.09812,29313.7269,103.8450184,1.28137741,,6220 0220,弥勒佛,众多方言,众多方言,,http://www.singaporebuddhatooth.org.sg ,0,NA,229
329,506,Liuxun Sanhemiao,六巡三合庙,六巡三合廟,Liuxun Sanhemiao,"4-8, Ang Mo Kio Street 63 Avenue 9 569112",569112,4 ANG MO KIO STREET 63,29709.88356,40834.47575,103.8486832,1.38556696,,,,NA,NA,,,1,"1. 金水館
2. 三安府
3. 鳳山堂進法殿全盛宮",506
332,510,Longfengdong Yunnan Dabogong Lianhemiao,龙凤洞云南大伯公  联合庙,龍鳳洞雲南大伯公  聯合廟,Ling Hong Tong Hoon Lam Tua Pek Kong,10 Bukit Batok Street 21 659632,659632,10 BUKIT BATOK STREET 21,18831.53598,36469.11249,103.7509343,1.34608682,,,,NA,NA,,,1,"龍鳳洞及雲南大伯公廟（聯合廟）

1. 龍鳳洞及雲南大伯公廟（聯合廟）
2. 龍鳳洞
3. 雲南大伯公廟",510
105,174,Dongyue Miao,东岳庙,東岳廟,Tang Gah Beo,6 Bukit Purmei 099866,99866,6 BUKIT PURMEI,27395.73848,28488.67206,103.8278891,1.27391593,,,东岳大帝 ,NA,NA,,,0,NA,174
148,232,Fu'an Dian,福安殿,福安殿,Fu'an Dian,25 Tampines Street 21 529394,529394,25 TAMPINES STREET 21,40970.459,37545.69215,103.9498665,1.3558216,,6783 0655  ,朱、邢、李大人,福建省,福建省 安溪县,Tampines 11½ milestone（Jln Tiga Ratus. By Changi-10-mile）,,1,"淡濱尼聯合宮

1. 淡濱尼聯合宮
2. 地萬大伯公
3. 福安殿
4. 慈靈宮
5. 九哩大伯公 aka 九哩福德正神
6. 濟陽堂
7. 吉星亭
8. 洛陽天宮壇
9 後池廳aka普庵古佛
10. 順興古廟
11. 新芭大伯公
12. 洛陽大伯公
13. 漢陽大伯公",232
149,233,Fu'an Miao,福安庙,福安廟,Fu'an Miao,12 Jurong West Street 76 648349,648349,12 JURONG WEST STREET 76,13563.97126,36617.38701,103.703602,1.34742569,1940,6795 8135,王爷：代天巡狩七王府大人,福建省,福建省,,,1,"玉皇殿聯合宮

1. 玉皇殿聯合宮
2. 慈善壇
3. 福安廟
4. 玉皇殿",233
157,242,Fufa Gong,福发宫,福發宫,Hock Huat Keng Temple,523 Yishun Industrial Park A  768770,768770,523 YISHUN INDUSTRIAL PARK A,28296.62043,47222.27744,103.835984,1.44333598,1994,6753 8895 ,"大伯公   , 安西城隍伯主",福建省,福建省,,,1,"福發宮

1. 福發宮
2. 天福殿
3. 朝雲殿
4. 興都廟",242
158,243,Fuhai Chansi,福海禅寺,福海禪寺,Foo Hai Ch'an Monastery ,87 Geylang East Avenue 2 389753,389753,87 GEYLANG EAST AVENUE 2,34172.12587,33360.31297,103.8887783,1.31797272,1935,6748 6676 ,观世音菩萨,福建省,福建省,,http://www.foohai.org,0,NA,243
338,517,Long Lianhuashan Gong,龙莲花山宫,龍蓮花山宮,Dragon Lotus Hill Temple,5 Choa Chu Kang Street 51 689339,689339,5 CHOA CHU KANG STREET 51,17906.69741,41516.78269,103.7426224,1.39173579,,,释迦牟尼佛,广东省,广东省 潮州市,,,1,"蔡厝港油池村聯合廟

1. 蔡厝港油池村聯合廟
2. 順龍廟
3. 虞都庵
4. 順龍宮
5. 龍蓮花山宮
6. 五福廟",517
165,253,Futong Lianhe Miao,福通联合庙,福通聯合廟,Hock Thong Temple,551/553/555 Bukit Batok Street 23 659520,659520,551 BUKIT BATOK STREET 23,19517.51852,35827.45411,103.7570985,1.3402841,,,,NA,NA,,,1,"福通聯合廟

1. 福通聯合廟
2. 本元虛靈山總道堂
3. 鳳山寺（裕廊）
4. 天靈道堂",253
22,40,Benyuan Xulingshan Zongdaotang,本元虚灵山总道堂,本元虛靈山總道堂,Poon Guan Hui Leng Sun Chong Tao Tong,553 Bukit Batok Street 23 659521,659521,553 BUKIT BATOK STREET 23,19517.51849,35827.45411,103.7570985,1.3402841,1962,6561 7992,真空教主,福建省,福建省,,,1,"福通聯合廟

1. 福通聯合廟
2. 本元虛靈山總道堂
3. 鳳山寺（裕廊）
4. 天靈道堂",40
177,267,Guandi Miao Yishun,关帝庙 义顺,關帝廟 義順,Kwang Tee Temple,"561 Yishun Ring Road , #01-04 768682",768682,561 YISHUN RING ROAD,27916.28645,46272.49838,103.8325663,1.43474653,,6752 0767,关帝圣君,福建省,福建省,,,1,"忠邦聯合宮

1. 忠邦聯合宮
2. 汫水港鬥母宮鳳山寺
3. 關帝廟
4. 真空教復本堂
5. 華報善堂",267
178,268,Guandi Miao Caicuogang,关帝庙 蔡厝港,關帝廟 蔡厝港,Kuan Ti Temple,15  Choa Chu Kang Street 51 689336,689336,15 CHOA CHU KANG STREET 51,17934.13164,41508.87885,103.7428689,1.39166432,1979,6763 3372,关圣帝君,福建省,福建省,,,1,"蔡厝港聯聖殿

1. 蔡厝港聯聖殿
2. 關帝廟
3. 善興壇
4. 關雲殿
5. 齊神宮
6. 八巃（山正龍）元帥殿",268
186,280,Guanshan Tang ,观善堂,觀善堂,Kwan Siang Tng Temple ,70 Lowland Road 547460,547460,70 LOWLAND ROAD,33419.88481,38252.65709,103.8820199,1.36221747,,,,NA,NA,,,0,NA,280
339,518,Longnan Dian,龙南殿,龍南殿,Leong Nam Temple,70 Sengkang West Avenue 797651,797651,70 SENGKANG WEST AVENUE,32352.07078,41516.74904,103.8724254,1.39173692,1964,,"九皇大二爷, 九皇大帝, 关帝, 观音大士, 释迦牟尼佛",福建省,福建省,Jalan Pasar Baru,,1,"惹蘭加由聯合廟

1. 惹蘭加由聯合廟
2. 萬國山忠義廟
3. 包公廟
4. 龍南殿
5. 烏敏泰佛寺",518
343,523,Longshan Gong,龙山宫,龍山宮,Longshan Gong,55 Lorong Puntong 576442,576442,55 LORONG PUNTONG,27769.10517,38186.31835,103.8312438,1.36161802,1928,,"温府大人, 金府大人, 刘府大人",福建省,福建省 安溪县 龙门村,Thomson Road,,0,NA,523
26,51,Caicuogang Lianshenggong,蔡厝港联圣宫,蔡厝港聯聖宮, Chua Chu Kang Lian Sing Keng,2 Teck Whye Lane 688799,688799,2 TECK WHYE LANE,19131.68787,40335.52523,103.7536302,1.38105333,,,,NA,NA,,,1,"蔡厝港聯聖宮

1. 蔡厝港聯聖宮
2. 斗母宮（蔡厝港）
3. 三中宮
4. 水溝館聖德壇
5. 天雲殿
6. 九龍宮",51
345,525,Longshan Si ,龙山寺,龍山寺,Leong San See temple ,371 Race Course Road 218641,218641,371 RACE COURSE ROAD,30592.89978,33071.80696,103.8566171,1.31536408,,,"释迦牟尼佛, 观世音菩萨",福建省,福建省 南安市,,,0,NA,525
207,315,Guangfu Gumiao,广福古庙,廣福古廟,Guangfu Gumiao,2 Lavender St 338823,338823,2 LAVENDER STREET,31477.37951,32397.93338,103.8645645,1.30926972,,,,NA,NA,,,0,NA,315
62,113,Ciling Lianhemiao,慈灵联合庙,慈靈聫合廟,Ciling Lianhemiao,525 Yishun Industrial Park A 768769,768769,525 YISHUN INDUSTRIAL PARK A,28280.3197,47240.77293,103.8358375,1.44350325,,,,NA,NA,,,1,"慈靈聯合廟

1. 慈靈聯合廟
2. 慈雲山宮
3. 昭靈廟（莆田江兜）",113
211,321,Guangmingshan Pujue Chansi,光明山普觉禅寺,光明山普覺禪寺,Kong Meng San Phor Kark See temple ,88 Bright Hill Road 574117,574117,88 BRIGHT HILL ROAD,28360.40703,38057.915,103.8365571,1.36045678,1921,6849 5300,释迦牟尼佛,福建省,福建省 泉州市,,http://www.kmspks.org,0,NA,321
214,327,Guilin Lianhemiao,桂林联合庙,桂林聯合廟,Guilin Combined Temple,397 Bukit Batok West Avenue 8 658964,658964,397 BUKIT BATOK WEST AVENUE 8,17619.08358,36585.96803,103.7400397,1.34714322,,,,NA,NA,,,1,"1. 龍顯山宮
3. 石竹廟
4. 愛民宮
5. 金全法壇集聲宮
6. 金全法壇
7. 集聲宮
8. 臨江殿對山廟
9. 臨江殿
10. 對山廟",327
73,129,Dabei Yuan,大悲院,大悲院,Tai Pei Yuen Temple,7 Jalan Kemaman 329333,329333,7 JALAN KEMAMAN,29999.39096,34367.65835,103.8512842,1.32708335,1938,6256 4941 ,观世音菩萨,广东省,广东省,7 Jalan Kemaman,,0,NA,129
162,249,Fuquan Si,福泉寺,福泉寺,Chwee Bee Temple,1 Bedok North Street 5 486115,486115,1 BEDOK NORTH STREET 5,40895.77568,35302.16745,103.9491945,1.33553204,,,释迦牟尼佛,福建省,福建省,,,1,"水美宮福泉寺（聯合廟）
1. 水美宮福泉寺（聯合廟）
2. 水美宮
3. 福泉寺",249
219,334,Haiyin Si,海印寺,海印寺,Buddhist Colledge Hai Inn Temple,"33 Brickland Road S' 688254 aka
339 Choa Chu Kang Road, S' 689479 688254",688254,33 BRICKLAND ROAD,16996.90132,39786.30304,103.7344478,1.37608565,,"6769 1515
6769 4743 ",释迦牟尼佛,福建省,福建省,,http://www.haiinn.org ,0,NA,334
36,63,Chaoyun Gong,朝云宫,朝雲宮,Chaoyun Gong,56 / 58 / 60 Hougang Avenue 3  538841,538841,56 HOUGANG AVENUE 3,34608.9051,37887.31535,103.892704,1.35891321,,,"朱、邢、李三府大人  , 郑府仙公",福建省,福建省 泉州市,,,1,"紫雲開吉宮 

1. 紫雲開吉宮 
2. 朝雲宮
3. 吉山廟
4. 開福堂",63
46,88,Chongfu Tang,崇福堂,崇福堂,ChongfuTang,9 Wolskel Road 357961,357961,9 WOLSKEL ROAD,32171.53413,36478.04121,103.8708024,1.34616868,1964,,玄天上帝,福建省,福建省 莆田市 涵江区 梧塘镇 漏头村,,,0,NA,88
83,140,Dasheng Gong,大圣宫,大聖宮,Da Sheng Kong Chinese Temple,148 Paya Lebar Road 409018,409018,148 PAYA LEBAR ROAD,34421.56326,34527.20528,103.8910199,1.32852562,1947,,,NA,NA,River Valley Road,,1,"巴耶利峇聯合廟

1. 巴耶利峇聯合廟
2. 大聖宮
3. 風火院",140
225,341,Hengshan Miao Panshi Zongci,横山庙 潘氏宗祠,橫山廟  潘氏宗祠,Hwee San Temple ,527 Yishun Industrial Park A 768771,768771,527 YISHUN INDUSTRIAL PARK A,28270.33178,47263.76028,103.8357478,1.44371114,1907,,潘家祖师公,福建省,福建省 南安市,,,0,NA,341
236,358,Huayan Chansi,华严禅寺 ,華嚴禪寺,Huayan Chansi,37 Lorong 30 Geylang  398370,398370,37 LORONG 30 GEYLANG,33928.93194,32692.33792,103.886593,1.31193184,,6741 9625 ,,NA,NA,,,0,NA,358
360,542,Luoyang Dabogong Gong,洛阳大伯公宫,洛陽大伯公宮,Loyang Tua Pek Kong Temple,20 Loyang Way  508774,508774,20 LOYANG WAY,43190.68334,39234.176,103.9698175,1.37109056,,6363 6633,大伯公,福建省,福建省,,,0,NA,542
366,551,Miaoyinjue Yuan,妙音觉苑,妙音覺苑,Meow Im Kok Yuen Tp ,9 Jalan Lateh 359108,359108,9 JALAN LATEH,32061.87697,36439.6298,103.869817,1.34582132,,6288 7669,,NA,NA,,,0,NA,551
103,169,Dongshan Miao,东山庙,東山廟,Dongshan Miao,"358, Yishun Avenue 3 769058",769058,358 YISHUN AVENUE 3,27971.90641,44918.73011,103.8330661,1.42250354,1930,6755 5402,孙、谢、池三府大人,福建省,福建省 安溪县,Mandai Tekong Village ,,1,"長秀威靈東山聯合廟

1. 長秀威靈東山聯合廟
2. 長秀館
3. 威靈宮
4. 東山廟",169
227,346,Houchi Tin ,后池厅 ,後池廳 ,Hou Chi Tin aka Pu An Gu Fo ,25 Tampines Street 21 529394,529394,25 TAMPINES STREET 21,40970.459,37545.69215,103.9498665,1.3558216,1947,6783 0655,", 清水祖师",福建省,福建省 南安市 翔云镇 金安村,Tampines 8th milestone,,1,"淡濱尼聯合宮

1. 淡濱尼聯合宮
2. 地萬大伯公
3. 福安殿
4. 慈靈宮
5. 九哩大伯公 aka 九哩福德正神
6. 濟陽堂
7. 吉星亭
8. 洛陽天宮壇
9 後池廳aka普庵古佛
10. 順興古廟
11. 新芭大伯公
12. 洛陽大伯公
13. 漢陽大伯公",346
229,350,Huabao Shantang,华报善堂,華報善堂,Hwa Poh Siang Tng,"561 Yishun Ring Road,  #01-01 768682",768682,561 YISHUN RING ROAD,27916.28645,46272.49838,103.8325663,1.43474653,,6257 0839 ,宋大峰祖师,广东省,广东省 潮州市,Chong Pang Village (aka Xi Shan Yuan),,1,"忠邦聯合宮

1. 忠邦聯合宮
2. 汫水港鬥母宮鳳山寺
3. 關帝廟
4. 真空教復本堂
5. 華報善堂",350
231,352,Huaguangdadi Miao,华光大帝庙,華光大帝廟,Hwa Kwang Tai Tee Temple,99 Sin Ming Industrial Estate Sector B 575660,575660,99 SECTOR B SIN MING INDUSTRIAL ESTATE,28783.25906,37773.98031,103.8403567,1.35788897,1955,,华光大帝,海南省,海南省,Boon Teck Road,,1,"湯申廟（聯合廟）

1. 湯申廟（聯合廟）
2. 華光大帝廟
3. 蓮花壇
4. 金榜山亭天后會",352
234,356,Huashan Gong Huashanba,华山宫  华山芭,華山宮  華山芭,Hua Shan Gong,569 Yishun Ring Road 768691,768691,569 YISHUN RING ROAD,28042.01009,46296.93599,103.8336961,1.43496753,1987,6257 5964,大伯公,众多方言,众多方言,,,1,"聚善华山宫

1. 聚善華山宮
2. 華山宮（華山芭）
3. 聚善堂",356
372,563,Mushan Shengmu Gong,木山圣母宫,木山聖母宮,Bak Sua Siah Boo,21 Bangkit Road  679971,679971,21 BANGKIT ROAD,21365.9614,40018.4573,103.7737069,1.37818648,1976,67636085,"妈祖, 玄天上帝, 夫人妈, 三千岁, 齐天大圣",福建省,福建省 安溪县,Lim Chu Kang 19th milestone,,1,"正華慈聖宮

1. 正華慈聖宮
2. 慈蓮堂
3. 木山聖母宮
4. 木山宮
5. 忠義殿",563
374,567,Nan'an Shantang ,南安善堂,南安善堂,Nam Ann Siang Theon Tp ,36E Paya Lebar Crescent 536067,536067,36E PAYA LEBAR CRESCENT,33445.83137,36746.98835,103.8822528,1.34860074,1944,,宋大峰祖师,广东省,广东省 潮州市,Ah Hood Road,,0,NA,567
129,208,Fengshan Tan  Dehui,凤山坛  德惠,鳳山壇  德惠,Hong San Tan Temple ,17 Woodlands Industrial Park E4 757750,757750,17 WOODLANDS INDUSTRIAL PARK E4,23778.22814,48072.33281,103.7953817,1.45102326,,"6368 7168 
9191 1334","广泽尊王, 广泽尊妃",福建省,福建省,,,1,"風山壇飛龍宮聯合廟

1. 風山壇飛龍宮聯合廟
2. 飛龍宮（蓮花三太子）
3. 鳳山壇（德惠）",208
242,367,Jifang Ge,济芳阁,濟芳閣,Chee Hoon Kog Temple,67 Anchorvale Link 545071,545071,67 ANCHORVALE LINK,34336.42194,41748.69244,103.8902564,1.39383416,1965,,"济公活佛, 吕祖, 五教教主, 五方星君, 德德社诸佛仙尊",广东省,广东省 潮州市,3rd floor of a shophouse at 19 North Boat Quay,,0,NA,367
378,572,Nanfeng Shantang,南凤善堂,南鳳善堂,Nam Hong Siang Theon,561 Yishun Ring Road 768682,768682,561 YISHUN RING ROAD,27916.28645,46272.49838,103.8325663,1.43474653,1960,,宋大峰祖师,NA,NA,Chong Pang Village,,0,NA,572
135,214,Fengxuan Gong,凤玄宫,鳳玄宮,Fengxuan  Gong,15 Arumugam Rd 409960,409960,15 ARUMUGAM ROAD,34508.03847,34284.70073,103.8917968,1.32633248,1988,6747 8994,"哪吒, 广泽尊王",福建省,福建省,,,1,"城鳳聯合廟

1. 城鳳聯合廟
2. 韭菜芭城隍廟
3. 閬苑岩
4. 鳳玄宮",214
380,575,Nanhai Feilai Si ,南海飞来寺,南海飛來寺,Nan Hai Fei Lai Temple ,35 Lorong 27 Geylang 388170,388170,35 LORONG 27 GEYLANG,33587.56308,33024.52943,103.8835256,1.31493612,,6748 5625,观世音菩萨,福建省,福建省,,,0,NA,575
120,198,Feixia Jingshe,飞霞精舍,飛霞精舍 ,Phang Pheng Mei Temple,12 Jalan Ampas 329515,329515,12 JALAN AMPAS,30111.91648,34361.06359,103.8522953,1.3270237,,,,NA,NA,,,1,Nil,198
195,298,Guanyin Miao,观音庙,觀音廟,Guanyin Miao,31 Marsiling Industrial Estate Road 3 739255,739255,31 MARSILING INDUSTRIAL ESTATE ROAD 3,22369.94824,46822.91903,103.7827271,1.43972377,,,,NA,NA,,,1,"風圖廟聯合廟

1. 風圖廟聯合廟
2. 鳳圖廟
3. 觀音廟
4. 環圖廟
5. 花果山平安明德宮
6. 義星堂",298
383,582,Nanhai Si ,南海寺,南海寺,Nan Hai Temple ,11 Ava Road 329950,329950,11 AVA ROAD,30097.83694,33822.11081,103.8521688,1.3221496,,,,NA,NA,11，Albert street,,0,NA,582
389,604,Nanyang Tongfeng Shantang ,南洋同奉善堂,南洋同奉善堂,Nanyang Thong Hong Siang Thng Tp ,63 Anchorvale Walk 545060,545060,63 ANCHORVALE WALK,34312.46105,41738.8805,103.890041,1.39374543,1937,,宋大峰祖师,广东省,广东省 潮州市,Killiney Road.,,0,NA,604
128,206,Fengshan Si   Zhangyi,凤山寺  樟宜,鳳山寺  樟宜,Hong San Si   Changi ,17 Lorong Melayu 416912,416912,17 LORONG MELAYU,36588.05946,33570.24925,103.9104867,1.31987073,1900,6742 4318,广泽尊王,福建省,福建省,,,0,NA,206
212,322,Guangming Tang,广明堂,廣明堂,Kong Beng Tong Temple Association,23 Serangoon North Ave 3 555862,555862,21 SERANGOON NORTH AVENUE 3,32096.79969,39464.19785,103.8701313,1.37317442,,,张公圣君,福建省,福建省 安溪县 福林村,,,1,"忠義天明廟

1. 忠義天明廟
2. 廣明堂
3. 午峰岩/午峰岩宮
4. 忠義館",322
247,376,Jishan Miao,吉山庙,吉山廟,Jishan Miao,56 / 58 / 60 Hougang Avenue 3 538842,538842,58 HOUGANG AVENUE 3,34580.58489,37875.8749,103.8924495,1.35880975,1898,,萧池卓三王府大人,福建省,福建省 泉州市 安溪县 东洋村,Lorong Chuan,,1,"紫雲開吉宮 

1. 紫雲開吉宮 
2. 朝雲宮
3. 吉山廟
4. 開福堂",376
252,385,Jixing Ting,吉星亭,吉星亭,Kiat Sing Ting,25 Tampines Street 21 529394,529394,25 TAMPINES STREET 21,40970.459,37545.69215,103.9498665,1.3558216,1918,6783 0655 ,观世音菩萨,福建省,福建省, Jalan Ang Teng (off Paya Lebar Road),,1,"淡濱尼聯合宮

1. 淡濱尼聯合宮
2. 地萬大伯公
3. 福安殿
4. 慈靈宮
5. 九哩大伯公 aka 九哩福德正神
6. 濟陽堂
7. 吉星亭
8. 洛陽天宮壇
9 後池廳aka普庵古佛
10. 順興古廟
11. 新芭大伯公
12. 洛陽大伯公
13. 漢陽大伯公",385
63,115,Cishan Tan,慈善坛,慈善壇,Cishan Tan,12 Jurong West Street 76 648349,648349,12 JURONG WEST STREET 76,13563.97126,36617.38701,103.703602,1.34742569,,6795 8032 ,达摩祖师,福建省,福建省,Boon Lay,,1,"玉皇殿聯合宮

1. 玉皇殿聯合宮
2. 慈善壇
3. 福安廟
4. 玉皇殿",115
113,185,Fahua Si ,法华寺 ,法華寺,Fa Hua Monastery ,381 Upper Paya Lebar Road 534974,534974,381 UPPER PAYA LEBAR ROAD,33124.84679,36812.23731,103.8793685,1.34919088,,6288 7548 ,释迦牟尼佛,福建省,福建省,,,0,NA,185
399,618,Penglai Dian,蓬莱殿,蓬萊殿,Penglai Dian,26 Admiralty Street 757613,757613,26 ADMIRALTY STREET,25570.61054,49193.54235,103.811488,1.46116328,2006,6752 3675,清水祖师,福建省,福建省 安溪县,,,1,"三巴旺聯合宮 

1. 三巴旺聯合宮 
2. 蓬萊殿（清水祖師）
3. 三巴旺天后宮
4. 三巴旺天雲殿財神廟",618
400,619,Penglai Si,蓬莱寺,蓬萊寺,Hong Lai Sze Ltd,150 Hougang Avenue 1 538886,538886,150 HOUGANG AVENUE 1,34004.50889,36811.41732,103.8872729,1.3491833,,,清水祖师,福建省,福建省,,along Thomson Rd,0,NA,619
164,252,Fu Shan Ting,福山亭,福山亭,Hock San Teng,6 Chai Chee Lane 469020,469020,6 CHAI CHEE LANE,37548.38742,34523.38479,103.9191161,1.32849025,1900,6449 5029,大伯公,福建省,福建省,Changi 8th milestone,,1,"菜市聯合宮

1. 菜市聯合宮
2. 竹雲宮
3. 福山亭
4. 福靈宮",252
37,64,Chenzuo Miantang,陈佐勉堂 ,陳佐勉堂,Chan Chor Min Tong Temple,2 Jalan Kemaman 329318,329318,2 JALAN KEMAMAN,29845.72516,34286.33079,103.8499034,1.32634786,,,,NA,NA,2 Jalan Kemaman,,0,NA,64
65,118,Ciyitang Jiangjunmiao,慈义堂将军庙,慈義堂將軍廟,Ciyitang Jiangjunmiao,"3302 Clementi Service Rd / 
3302 Commonwealth Avenue West 129582",129582,3302 COMMONWEALTH AVENUE WEST,20027.29602,33839.83502,103.7616796,1.32230893,,,,NA,NA,,,1,"慈義堂將軍廟（聯合廟）

1. 慈義堂將軍廟（聯合廟）
2. 慈義堂
3. 將軍廟",118
403,622,Pilusi Tianzhushan,毗卢寺  天竺山,毗盧寺  天竺山,Bee Low See Temple   Thin Chof Sun,71b Jalan Jurong Kechil 598588,598588,71B JALAN JURONG KECHIL,21340.42367,35701.40736,103.7734784,1.33914463,,6466 2288 ,毗卢遮那如来,福建省,福建省,,,0,NA,622
408,632,Pujiu Shantang ,普救善堂,普救善堂,Phoh Kiu Siang Tng Tp,15 Simon Lane 546040,546040,15 SIMON LANE,33700.64784,38306.05892,103.8845428,1.36270036,1929,,宋大峰祖师,广东省,广东省 潮州市,,,0,NA,632
215,329,Haichun Fude Ci,海唇福德祠,海唇福德祠,Haichun Fude Ci,76 Telok Ayer St 048464,48464,76 TELOK AYER STREET,29708.08428,29496.8268,103.8486664,1.28303328,,,,NA,NA,,,0,NA,329
108,178,Doutian Gong ,斗天宫,斗天宮,Tao Tian Keng ,2 Jurong West Street 76 648370,648370,2 JURONG WEST STREET 76,13552.87103,36570.83824,103.7035023,1.34700471,,6791 2288,"师父公, 四斗星君, 太上老君, 观世音菩萨",福建省,福建省 安溪县,,,1,"斗天宮（聯合宮）

1. 斗天宮（聯合宮）
2. 斗天宮
3. 水廊頭大伯公宮",178
121,199,Fenghuo Yuan,风火院,風火院,Fung Huo Yuan Temple ,148 Paya Lebar Road 409018,409018,148 PAYA LEBAR ROAD,34421.56326,34527.20528,103.8910199,1.32852562,1963,6748 1773,"洪钧老祖, 太上老君, 元始天尊, 通天教主",海南省,海南省,Geylang Lorong 14,,1,"巴耶利峇聯合廟

1. 巴耶利峇聯合廟
2. 大聖宮
3. 風火院",199
161,247,Fuling Gong,福灵宫,福靈宮,Hock Leng Keng Temple,6 Chai Chee Lane 469020,469020,6 CHAI CHEE LANE,37548.38742,34523.38479,103.9191161,1.32849025,1995,6449 5029 ,玄天上帝,福建省,福建省,,,1,"菜市聯合宮

1. 菜市聯合宮
2. 竹雲宮
3. 福山亭
4. 福靈宮",247
264,403,Jinfu Gong Gongde Tang   Woodlands,金福宫功德堂   兀兰分行,金福宮功德堂  兀蘭分行,Jin Fu Gong Temple   Woodlands  Branch  Gong De Tang,9 Woodlands Industrial Park E8 757786,757786,8 WOODLANDS INDUSTRIAL PARK E3,24120.68389,48412.64771,103.7984589,1.45410099,2001,6362 7868,大伯公  ,福建省,福建省,,,0,NA,403
270,413,Jinping Si Shanlianshan Gong,晋平寺善莲山宫,晉平寺善蓮山宮,Chin Pin Tze Temple,"7 Bedok North Street 5, Ave 4.  485874",485874,7 BEDOK NORTH STREET 5,40873.87674,35283.11696,103.9489977,1.33535976,,6443 7873,,福建省,福建省,,,1,"石林晉山聯合宮

1. 石林晉山聯合宮
2. 檺林宮
3. 石霧洞 
4. 晉平寺善蓮山宮
5.  晉平寺
6. 善蓮山宮",413
266,407,Jinlan Miao,金兰庙,金蘭廟,Kim Lan Beo,119A Kim Tian Road 169263,169263,119A KIM TIAN ROAD,27333.57422,29428.27851,103.8273305,1.2824134,1830,,"大伯公, 观音娘娘, 玉皇上帝, 清水祖师",福建省,福建省 泉州市 永春县,Tanjong Pagar's Narcis Street,,0,NA,407
268,410,Jinmen Huiguan Fuji Miao,金门会馆孚济庙,金門會館孚濟廟,Jinmen Huiguan Fuji Miao,72 Keng Lee Rd 219248,219248,72 KENG LEE ROAD,29569.41403,32760.63248,103.8474205,1.31255,,,,NA,NA,,,0,NA,410
413,638,Puti Ge ,菩提阁,菩提閣,Phou Tai Kok Tp   MAHABODHI MONASTERY,8 Lorong Kilat 598114,598114,8 LORONG KILAT,21401.01445,35927.81969,103.7740228,1.34119224,,6466 4425 ,释迦牟尼佛,福建省,福建省,,,0,NA,638
273,416,Jinshan Si,金山寺,金山寺,Kim San Tze Temple Association,25 Jln Ulu Siglap 457182,457182,25 JALAN ULU SIGLAP,38459.29023,33044.62314,103.9273005,1.31511657,1948,,九皇大帝,福建省,福建省,,,0,NA,416
416,641,Putuo Si ,普陀寺,普陀寺,Poo Thor Jee Temple ,7 Yan Kit Road 088262,88262,7 YAN KIT ROAD,29014.72381,28837.07916,103.8424363,1.27706679,,,释迦牟尼佛,福建省,福建省,,,0,NA,641
8,14,Balong Yuanshuai Dian,八巃元帅殿,八巃元帅殿,Pak Leng Guard Seow Tian,11  Choa Chu Kang Street 51  689334,689334,11 CHOA CHU KANG STREET 51,17920.50418,41491.51598,103.7427464,1.39150729,1978,,哪吒,福建省,福建省,Choa Chu Kang Road 12th milestone (Nan Shan Cun),,1,"蔡厝港聯聖殿

1. 蔡厝港聯聖殿
2. 關帝廟
3. 善興壇
4. 關雲殿
5. 齊神宮
6. 八巃（山正龍）元帥殿",14
9,15,Bayeliba Lianhemiao,巴耶利峇联合庙,巴耶利峇聯合廟,Paya Lebar United Temple,148 Paya Lebar Road 409018,409018,148 PAYA LEBAR ROAD,34421.56326,34527.20528,103.8910199,1.32852562,,,,NA,NA,,,1,"巴耶利峇聯合廟

1. 巴耶利峇聯合廟
2. 大聖宮
3. 風火院",15
10,17,Bangang Tianhougong,半港天后宫,半港天后宮,Kampong Tengah Thian Hou Keng,"80 Rivervale Crescent, #01-01 545087",545087,80 RIVERVALE CRESCENT,36206.30472,41229.58551,103.9070586,1.38913908,1927,6386 5680    ,妈祖,福建省,福建省 泉州市,Kampong Tengah ,,1,"盛港聯合廟

1. 盛港聯合廟
2. 天后宮（半港）
3. 崇義廟（萬興山）",17
277,421,Jingshui Gang Doumu Gong Fengshan Si,汫水港斗母宫凤山寺,汫水港斗母宮鳳山寺,Jiazhuikang Kew Ong Yah Temple Hong San See Temple,561 Yishun Ring Road #01-03 768682,768682,561 YISHUN RING ROAD,27916.28645,46272.49838,103.8325663,1.43474653,1900,6755 7718,广泽尊王,福建省,福建省,"Chia Chwee Kang (Formerly Seletar 10th milestone, today's Upp Thomson Road) ",http://jiazhuikang.org.sg_x000D_,1,"忠邦聯合宮

1. 忠邦聯合宮
2. 汫水港鬥母宮鳳山寺
3. 關帝廟
4. 真空教復本堂
5. 華報善堂",421
27,52,Caicuogang Youchicun Lianhemiao,蔡厝港油池村联合庙,蔡厝港油池村聯合廟,Choa Chu Kang Yew Tee Chun Lian He Miow,3 Choa Chu Kang Street 51 689338,689338,3 CHOA CHU KANG STREET 51,17907.00278,41516.70954,103.7426251,1.39173513,1993,,,NA,NA,Choa Chu Kang Street 51,,1,"蔡厝港油池村聯合廟

1. 蔡厝港油池村聯合廟
2. 順龍廟
3. 虞都庵
4. 順龍宮
5. 龍蓮花山宮
6. 五福廟",52
32,59,Changtian Gong,长天宫,長天宮,Chang Tien Kong Temple,109b Hougang Avenue 5 538819,538819,109B HOUGANG AVENUE 5,34926.51938,38625.60293,103.8955581,1.36558994,1960,,善财童子,NA,NA,,,1,"天德圣廟

1. 天德圣廟
2. 報德善堂
3. 長天宮
4. 鐘頭宮
5. 後港水尾圣娘廟",59
33,60,Changxiu Guang,长秀馆,長秀館,Teong Siew Kuan,"362, Yishun Avenue 3 769060",769060,362 YISHUN AVENUE 3,27971.82529,44918.10511,103.8330654,1.42249788,,6752 5282,卓府三位大人,福建省,福建省 南安市翔云镇,Ang Mo Kio Ave 5,,1,"長秀威靈東山聯合廟

1. 長秀威靈東山聯合廟
2. 長秀館
3. 威靈宮
4. 東山廟",60
419,644,Puzhao Chansi,普照禅寺,普照禪寺,Pu Zhao Chan Si Temple,3 Lorong Marican 417204,417204,3 LORONG MARICAN,36380.64967,33450.32717,103.908623,1.31878625,,,,NA,NA,,,0,NA,644
422,647,Puzhong Miao,普忠庙 ,普忠廟,Poh Tiong Kiong Temple,48 Lorong 25a Geylang 388266,388266,48 LORONG 25A GEYLANG,33559.18652,33025.0458,103.8832707,1.3149408,,,,NA,NA,,,0,NA,647
423,649,Qifu Gong,七福宫,七福宮,Chi Hock Keng Temple,15 Fajar Road 679003,679003,15 FAJAR ROAD,20887.57353,40587.66196,103.7694081,1.38333405,,6769 1314,七星大帝,众多方言,众多方言,,,1,"七福宮（聯合宮）

1. 七福宮（聯合宮）
2. 七福宮
3. 天文壇",649
61,112,Ciling Gong,慈灵宫,慈靈宮,Ciling Gong,25 Tampines Street 21 529394,529394,25 TAMPINES STREET 21,40970.459,37545.69215,103.9498665,1.3558216,1972,6783 0655 ,张公圣君,福建省,福建省,Tampines 9th milestone.,tctemple@singnet.com.sg,1,"淡濱尼聯合宮

1. 淡濱尼聯合宮
2. 地萬大伯公
3. 福安殿
4. 慈靈宮
5. 九哩大伯公 aka 九哩福德正神
6. 濟陽堂
7. 吉星亭
8. 洛陽天宮壇
9 後池廳aka普庵古佛
10. 順興古廟
11. 新芭大伯公
12. 洛陽大伯公
13. 漢陽大伯公",112
426,654,Qishen Gong,齐神宫,齊神宮,Chee Seng Temple,17  Choa Chu Kang Street 51  689337,689337,17 CHOA CHU KANG STREET 51,17934.13161,41508.87879,103.7428689,1.39166432,1976,,莲花三太子,福建省,福建省,Jalan Murai (Lim Chu Kang Road 17th milestone).,,1,"蔡厝港聯聖殿

1. 蔡厝港聯聖殿
2. 關帝廟
3. 善興壇
4. 關雲殿
5. 齊神宮
6. 八巃（山正龍）元帥殿",654
433,663,Qizhai Longquanmiao Lianhemiao,七寨龙泉庙  联合庙,七寨龍泉廟   聯合廟,Chek Chai Long Chuen Temple,33 Kranji Loop 739565,739565,33 KRANJI LOOP,19144.12114,46409.73002,103.7537401,1.43598621,,,,NA,NA,,,1,"七寨龍泉廟（聯合廟）

1. 七寨龍泉廟（聯合廟）
2. 龍泉廟
3. 七寨廟",663
441,676,Qingde Tang ,清德堂,清德堂,Qing De Tang Temple,13 Lorong Ampas  328777,328777,13 LORONG AMPAS,30204.82887,34214.59167,103.8531302,1.32569905,,,,NA,NA,,,0,NA,676
445,681,Qingshuimiao Dongshengdian,清水庙东圣殿,清水廟東聖殿,Chin Chwee Temple ,"11 Woodlands Industrial Park E8, # 01 - 03 757701",757701,11 WOODLANDS INDUSTRIAL PARK E8,24350.95575,48222.04144,103.8005282,1.45237725,,,清水祖师,福建省,福建省 安溪县,Mandai Village,,1,"兀蘭聯聖廟

1. 兀蘭聯聖廟
2. 清水廟東聖殿
3. 天祖廟
4. 武當山廟（兀蘭）",681
278,423,Jiucaiba Chenghuang Miao,韭菜芭城隍庙,韭菜芭城隍廟,Lorong Koo Chye Sheng Hong Temple,15 Arumugam Rd 409960,409960,15 ARUMUGAM ROAD,34508.03847,34284.70073,103.8917968,1.32633248,,6744 3187 ,清溪显佑伯主,福建省,福建省 安溪县,,www.shtemple.org.sg,1,"城鳳聯合廟

1. 城鳳聯合廟
2. 韭菜芭城隍廟
3. 閬苑岩
4. 鳳玄宮",423
281,428,Jiuli Dong,九鲤洞,九鯉洞,Kiew Lee Tong Temple,5 Jalan Tambur 576778,576778,5 JALAN TAMBUR,27447.10092,38550.98996,103.8283504,1.36491597,,6453 8189,"庐士元仙长, 元晖谢仙师, 成光王仙师, 善德陈长者, 晚春卓氏真人",福建省,福建省 莆田市 涵江区 江口镇 石庭村,,,0,NA,428
448,687,Qiongyao Jiaodi,琼瑶教邸,瓊瑤教邸,Qiong Yao Jiao Di Temple   Jurong Temple,"741 Jurong West Street 42, #01-01 649369",649369,741 JURONG WEST STREET 42,15830.9311,37229.01943,103.7239718,1.35295807,,6560 3069,"教主   南巡天尊卢士元仙长, 护法   雷声普化天尊, 主教   元晖谢仙师, 护教   成光王仙师, 持教   善德陈仙师 , 扶教   晚春卓真人, 法主   欧氏仙妃, 何氏九仙翁暨文武列圣",福建省,福建省 莆田市 江口镇 石庭村,Jurong 10 Miles,,1,"裕廊總宮

1. 裕廊總宮
2. 觀山殿
3. 龍鬚岩
4. 瓊瑤教邸
5. 靈晉宮
6. 水溝館",687
450,689,Qiongzhou Tianhougong,琼州天后宫,瓊州天后宮,Qiongzhou Tianhougong,47 Beach Road 189683,189683,47 BEACH ROAD,30516.39315,30975.8115,103.8559295,1.29640865,1854,,妈祖,海南省,海南省,6 Malabar Street.,,0,NA,689
452,691,Relanjiayou Lianhemiao,惹兰加由联合庙,惹蘭加由聯合廟,Jalan Kayu Joint Temple,70 Sengkang West Avenue 797651,797651,70 SENGKANG WEST AVENUE,32352.07078,41516.74904,103.8724254,1.39173692,,,,NA,NA,,,1,"惹蘭加由聯合廟

1. 惹蘭加由聯合廟
2. 萬國山忠義廟
3. 包公廟
4. 龍南殿
5. 烏敏泰佛寺",691
282,429,Jiulong Gong,九龙宫,九龍宮,Chin Long Kong Temple,2 Teck Whye Lane  688799,688799,2 TECK WHYE LANE,19131.68787,40335.52523,103.7536302,1.38105333,,6762 1458,张公圣君,福建省,福建省,,,1,"蔡厝港聯聖宮

1. 蔡厝港聯聖宮
2. 斗母宮（蔡厝港）
3. 三中宮
4. 水溝館聖德壇
5. 天雲殿
6. 九龍宮",429
458,697,Sanan Fu,三安府,叁安府,Sanan Fu,4 \ 6 \ 8 Ang Mo Kio St 63 569112,569112,4 ANG MO KIO STREET 63,29709.88356,40834.47575,103.8486832,1.38556696,1958,6482 0040, 陈府三位大人,NA,NA,Yio Chu Kang's Lak Xun (Liuxun) Village,,0,NA,697
459,698,Sanbawang Caishenmiao,三巴旺财神庙,叁巴旺財神廟,Sembawang God of Wealth Temple,28 Admiralty Street 757611,757611,28 ADMIRALTY STREET,25527.90587,49153.72872,103.8111042,1.46080322,,,"正财神纣王叔比干, 中路财神赵公明元帅, 文财神陶朱公范蠡",NA,NA,,,0,NA,698
462,701,Sanbawang Tianhougong,三巴旺天后宫,叁巴旺天后宮,Sembawang Tian Ho Keng,24 Admiralty Street 757612,757612,24 ADMIRALTY STREET,25566.85871,49172.26889,103.8114542,1.46097089,1947,6257 6938 ,妈祖,福建省,福建省,Yishun village & Sembawang Village,http://sbwthk.blogspot.com,1,"三巴旺聯合宮 

1. 三巴旺聯合宮 
2. 蓬萊殿（清水祖師）
3. 三巴旺天后宮
4. 三巴旺天雲殿財神廟",701
464,703,Sanbao Foguang Si,三宝佛光寺,叁寶佛光寺,Lord Buddha Temple ,24 Arumugam Road 409963,409963,24 ARUMUGAM ROAD,34520.48043,34214.0173,103.8919086,1.32569324,,,,NA,NA,,,1,"金鳳廟三寶佛光寺（聯合廟）

1. 金鳳廟三寶佛光寺（聯合廟）
2. 三寶佛光寺
2. 金鳳廟",703
471,724,Sanzhong Gong,三中宫,叁中宮,Sanzhong Gong,2 Teck Whye Lane  688799,688799,2 TECK WHYE LANE,19131.68787,40335.52523,103.7536302,1.38105333,,6762 1458,关帝圣君,福建省,福建省 安溪县,"Choa Chu Kang 12½ milestone, Nei Dong Cheng",,1,"蔡厝港聯聖宮

1. 蔡厝港聯聖宮
2. 斗母宮（蔡厝港）
3. 三中宮
4. 水溝館聖德壇
5. 天雲殿
6. 九龍宮",724
480,742,Shanxing Tang,善兴坛,善興壇,Shanxing Tang,13 Choa Chu Kang Street 51  689335,689335,13 CHOA CHU KANG STREET 51,17934.13164,41508.87885,103.7428689,1.39166432,1988,6763 5769,"善财童子, 药师佛, 观世音菩萨",福建省,福建省,"131, Zhenghua  village",,1,"蔡厝港聯聖殿

1. 蔡厝港聯聖殿
2. 關帝廟
3. 善興壇
4. 關雲殿
5. 齊神宮
6. 八巃（山正龍）元帥殿",742
5,7,An'ji Shengwang Miao,安济圣王庙,安濟圣王廟,Ang Chee Sia Ong Temple,131 West Coast Drive  128014,128014,131 WEST COAST DRIVE,19893.88688,32653.71582,103.7604812,1.31158206,1925,,安济圣王,广东省,广东省 潮州市,Westcoast / Tao Yuan village,http://www.acsotemple.org.sg/,0,NA,7
7,13,Balilai Fotang ,巴利莱佛堂,巴利萊佛堂,Palelai Buddhist Temple,49 Bedok Walk 469145,469145,49 BEDOK WALK,40562.93301,34826.90635,103.9462035,1.33123409,,6443 3324 ,释迦牟尼佛,泰国,泰国,,,0,NA,13
502,784,Shuanglin Chenghuang Miao ,双林城隍庙,雙林城隍廟,Shuang Lin Cheng Huang Tp,184 Jalan Toa Payoh 319944,319944,184 JALAN TOA PAYOH,30577.19078,34683.95757,103.8564761,1.3299438,,6259 6924 ,城隍爷,福建省,福建省 漳州市 、泉州市,,,0,NA,784
503,785,Shuanglongshan Jiaying Wushu Yici,双龙山嘉应五属义祠,雙龍山嘉應五屬義祠,Shuanglongshan Jiaying Wushu Yici,9 Commonwealth Lane 149551 ,149551,9 COMMONWEALTH LANE,23839.90101,32006.36247,103.7959381,1.30572841,,,,NA,NA,,,0,NA,785
505,787,Shuigoufuan Geanguan Lianheguan,水沟馆葛岸馆  聯合館,水溝館葛岸館  聯合館,Swee Kow Kuan Kueh Hua Kwan ,46 Ang Mo Kio Street 61 569161,569161,46 ANG MO KIO STREET 61,28925.01586,40303.93732,103.8416305,1.38076899,,,,福建省,福建省 南安市,,,1,"水溝館葛岸館（聯合館）

1. 水溝館葛岸館（聯合館）
2. 水溝館
3. 葛岸館",787
508,790,Shuigouguan Shengde Tan,水沟馆圣德坛,水溝館聖德壇,Shuigouguan Shengde Tan,2 Teck Whye Lane  688799,688799,2 TECK WHYE LANE,19131.68787,40335.52523,103.7536302,1.38105333,,6762 1458,"华光大帝, 齐天大圣",福建省,福建省,,,1,"蔡厝港聯聖宮

1. 蔡厝港聯聖宮
2. 斗母宮（蔡厝港）
3. 三中宮
4. 水溝館聖德壇
5. 天雲殿
6. 九龍宮",790
510,792,Shuilangtou Dabogong Gong,水廊头大伯公宫,水廊頭大伯公宮,Chwee Long Tow Tua Pek Kong Temple,2 Jurong West Street 76 648370,648370,2 JURONG WEST STREET 76,13552.87103,36570.83824,103.7035023,1.34700471,,,,NA,NA,,,1,"斗天宮（聯合宮）

1. 斗天宮聯合宮
2. 斗天宮
3. 水廊頭大伯公宮",792
517,801,Shunlong Gong,顺龙宫,順龍宮,Soon Leng Temple,5A  Choa Chu Kang Street 51  689339,689339,5 CHOA CHU KANG STREET 51,17906.69741,41516.78269,103.7426224,1.39173579,,"6764 3816 
9743 163*",哪吒,福建省,福建省,Bukit Timah 8th milestone,,1,"蔡厝港油池村聯合廟

1. 蔡厝港油池村聯合廟
2. 順龍廟
3. 虞都庵
4. 順龍宮
5. 龍蓮花山宮
6. 五福廟",801
518,802,Shunlong Miao ,顺龙庙,順龍廟,Soon Leng Temple,9 Choa Chu Kang Street 51 689341,689341,9 CHOA CHU KANG STREET 51,17906.69741,41516.78269,103.7426224,1.39173579,,,关圣帝君,NA,NA,,,1,"蔡厝港油池村聯合廟

1. 蔡厝港油池村聯合廟
2. 順龍廟
3. 虞都庵
4. 順龍宮
5. 龍蓮花山宮
6. 五福廟",802
520,805,Shunshan Ting RongsShu Dabogong Gong,顺山亭榕树大伯公宫,順山亭榕樹大伯公宮,Soon San Teng Temple,42 Jalan Senang 418331,418331,42 JALAN SENANG,37282.37468,33962.84322,103.9167256,1.323421,,,大伯公,福建省,福建省,,,0,NA,805
521,807,Shuntian Gong,顺天宫,順天宮,Soon Thian Keing Temple,19 Lorong 29 Geylang 388070,388070,19 LORONG 29 GEYLANG,33829.37879,33008.05687,103.8856985,1.31478711,1812,6742 8566,大伯公,福建省,福建省,Malabar Street,,0,NA,807
523,809,Shunxi Gong Shuichi Lin,顺西宫水池林,順西宮水池林,Shunxi Gong Shuichi Lin,19 Yishun Avenue 9 768891,768891,19 YISHUN AVENUE 9,28910.94176,46211.69838,103.8415043,1.43419666,,,,福建省,福建省,Soon Say Keng: Bukit Merah，Reservoir Tua Pek Kong Temple: Lornie Road,,1,"義順鎮聯合廟

1. 義順鎮聯合廟
2. 鎮南廟廣壽堂
3. 鎮南廟
4. 廣壽堂
5. 元龍聖廟
6. 元壽堂
7. 新勝壇
8. 龍霞館
9. 順西宮水池林
10. 順西宮
11. 水池林",809
529,816,Sililanka Fosi,斯里兰卡佛寺,斯里蘭卡佛寺,Sri Lankaramaya Buddhist Temple,30c St. Michael's Road 328002,328002,30C SAINT MICHAEL'S ROAD,31290.33666,34399.85225,103.8628841,1.32737439,,6391 0031 ,,NA,NA,,,0,NA,816
538,832,Tiande Shengmiao,天德圣庙,天德圣廟,Tian De Temple,109 Hougang Avenue 5 538817,538817,109 HOUGANG AVENUE 5,34926.51314,38625.60114,103.8955581,1.36558993,,,,NA,NA,,,1,"天德圣廟

1. 天德圣廟
2. 報德善堂
3. 長天宮
4. 鐘頭宮
5. 後港水尾圣娘廟",832
541,837,Tianfu Gong,天福宫,天福宮,Thian Hock Keng,158 Telok Ayer St 068613,68613,158 TELOK AYER STREET,29579.05741,29281.27275,103.847507,1.2810839,1840,,妈祖,福建省,福建省,158 Telok Ayer St,,0,NA,837
542,838,Tiangong Miao  Zhiluobulanya,天公庙  直落布兰雅,天公廟  直落布蘭雅,Tin Kong Beo Temple  Telok Blangah Ting Kong Beo,578 Telok Blangah Road 109024,109024,578 TELOK BLANGAH ROAD,25295.13621,28208.26256,103.8090144,1.27137989,,, 玉皇上帝,NA,NA,,,0,NA,838
545,841,Tiangong Tan Zhaoling Gong,天公坛 昭灵宫 ,天公壇 昭靈宮,Tiangong Tan Zhaoling Gong,62 Jurong West Street 41 649408,649408,62 JURONG WEST STREET 41,15402.4515,36834.73239,103.7201218,1.34939211,,,,NA,NA,,,1,"
裕廊西聯合宮

1. 裕廊西聯合宮
2. 顯龍宮
3. 西海岸福德祠
4. 天公壇昭靈宮 
5. 天公壇
6. 昭靈宮 ",841
549,847,Tianjiang Fotang ,天降佛堂,天降佛堂,Tian Kong Buddhist Tp ,51 Bedok North Avenue 4  469695,469695,51 BEDOK NORTH AVENUE 4,40871.87145,35346.97272,103.9489797,1.33593725,,,"太阳星君, 太上老君, 南海观音, 千手千眼观音, 缎伯公, 三师爷",福建省,福建省,,,0,NA,847
553,852,Tianling Daotang ,天灵道堂,天靈道堂,Thian Ling Toh Thong,551 Bukit Batok Street 23 659522,659522,555 BUKIT BATOK STREET 23,19517.51849,35827.45411,103.7570985,1.3402841,1950,"6569 2801
6569 2802*",真空教主,福建省,福建省,Changi,,1,"福通聯合廟

1. 福通聯合廟
2. 本元虛靈山總道堂
3. 鳳山寺（裕廊）
4. 天靈道堂",852
555,856,Tianlong Gong ,天龙宫,天龍宮,Tian Leong Keng Temple ,101 / a / b Sector B Sin Ming Industrial Estate 575662,575662,101 SECTOR B SIN MING INDUSTRIAL ESTATE,28816.76962,37762.46982,103.8406578,1.35778487,1990,,,NA,NA,Kaki Bukit,,0,NA,856
562,869,Tianxian Miao,天显庙,天顯廟,Tianxian Miao,"19, 21 Woodlands Industrial Park E4 757721",757721,19 WOODLANDS INDUSTRIAL PARK E4,23782.59385,48062.50147,103.7954209,1.45093435,1998,,,NA,NA,,,1,"天顯廟

1. 天顯廟
2. 萬禮蓮合殿
3. 玄山廟救世壇
4. 玄山廟
5. 救世壇",869
565,874,Tianyun Dian,天云殿,天雲殿,Tianyun Dian,2 Teck Whye Lane  688799,688799,2 TECK WHYE LANE,19131.68787,40335.52523,103.7536302,1.38105333,,6762 1458,关帝圣君,福建省,福建省,Choa Chu Kang 12½ milestone,,1,"蔡厝港聯聖宮

1. 蔡厝港聯聖宮
2. 斗母宮（蔡厝港）
3. 三中宮
4. 水溝館聖德壇
5. 天雲殿
6. 九龍宮",874
566,877,Tianzhu Miao ,天祖庙,天祖廟,Tain Chor Temple ,"11 Woodlands Industrial Park E8, # 01 - 01 757701",757701,11 WOODLANDS INDUSTRIAL PARK E8,24350.95575,48222.04144,103.8005282,1.45237725,1950,9815 2743,张天师,福建省,福建省,,,1,"兀蘭聯聖廟

1. 兀蘭聯聖廟
2. 清水廟東聖殿
3. 天祖廟
4. 武當山廟（兀蘭）",877
578,889,Wanfo Ling,万佛林,萬佛林,Man Fatt Lam Budh Tp ,211 Bedok Road 469416,469416,211 BEDOK ROAD,40995.67032,34313.03344,103.9500917,1.32658663,1960,6241 1122,释迦牟尼佛,广东省,广东省,,,0,NA,889
583,895,Wanshan Fude Ci,万山福德祠 土地庙,萬山福德祠  土地廟,Man San Fook Tuck Chee Temple,124 Sims Drive 387379,387379,124 SIMS DRIVE,32978.52821,33398.48329,103.8780532,1.31831813,1862,"6747 4957 
6749 691*",大伯公,广东省,广东省,Jalan Kayu Man Kok Sua,,0,NA,895
584,896,Wanshou Shan Guanyin Tang,万寿山观音堂,萬壽山觀音堂,Ban Siew San Temple,2 Telok Blangah Drive 109256,109256,2 TELOK BLANGAH DRIVE,25596.22119,28415.1695,103.8117198,1.27325111,1880,,观世音菩萨,广东省,广东省,,,0,NA,896
585,897,Wanshou Shan Kuncheng Tang,万寿山堃成堂,萬壽山堃成堂,Kong Seng Ting Temple,4 Telok Blangah Drive 109257,109257,4 TELOK BLANGAH DRIVE,25575.42945,28384.46045,103.811533,1.27297339,,,观世音菩萨,广东省,广东省,,,0,NA,897
586,899,Wanxian Miao,万仙庙,萬仙廟,Ban Sien Temple,98T Redhill Close 158900,158900,98T REDHILL CLOSE,26111.97592,29852.18676,103.8163539,1.28624702,1964,,万天主帅,福建省,福建省 安溪县,Alexandra Road,,1,"真龍宮（联合宫）

1 真龍宮（联合宫）
2. 介穀殿
3. 真人宮
4. 龍山亭
5. 萬仙廟",899
588,901,Wanghai Dabogong Miao,望海大伯公庙,望海大伯公廟,Wanghai Dabogong Miao,50H Palmer Rd 079903,79903,10 ANSON ROAD,29402.84823,28706.59331,103.8459237,1.27588671,,,,NA,NA,,,0,NA,901
594,910,Wucao Dabogong Miao,梧槽大伯公庙,梧槽大伯公廟,Wucao Dabogong Miao,249 Balestier Road Singapore 329708 ,329708,249 BALESTIER ROAD,30146.85884,33780.06546,103.8526092,1.32176936,,,,NA,NA,,,0,NA,910
598,916,Wufengyan Gong,午峰岩  午峰岩宮,午峰岩  午峰岩宮,Wu Hong Yan Kong Temple,Serangoon North Avenue 3 555862,555862,21 SERANGOON NORTH AVENUE 3,32096.79969,39464.19785,103.8701313,1.37317442,,,伽蓝尊王,福建省,福建省 安溪县,,,1,"忠義天明廟

1. 忠義天明廟
2. 廣明堂
3. 午峰岩/午峰岩宮
4. 忠義館",916
599,918,Wufu Miao,五福庙,五福廟,Wufu Miao,3 Choa Chu Kang Street 51 689338,689338,3 CHOA CHU KANG STREET 51,17907.00278,41516.70954,103.7426251,1.39173513,,,华光祖师,众多方言,众多方言,Upper Bukit Timah ,,1,"蔡厝港油池村聯合廟

1. 蔡厝港油池村聯合廟
2. 順龍廟
3. 虞都庵
4. 順龍宮
5. 龍蓮花山宮
6. 五福廟",918
603,923,Wulan Lianshengmiao,兀兰联圣庙,兀蘭聯聖廟,Woodlands Lian Sheng Miao,11 Woodlands Industrial Park E8 757701,757701,11 WOODLANDS INDUSTRIAL PARK E8,24350.95575,48222.04144,103.8005282,1.45237725,,,,NA,NA,,,1,"兀蘭聯聖廟

1. 兀蘭聯聖廟
2. 清水廟東聖殿
3. 天祖廟
4. 武當山廟（兀蘭）",923
604,924,Wulei Gong,五雷宮,五雷宮,Wu Lui Sien Sze Temple ,6 Bukit Batok Street 21 659630,659630,6 BUKIT BATOK STREET 21,18834.17178,36492.36293,103.750958,1.34629709,,6562 3531,五雷公,福建省,福建省,"Bukit Batok, near Little Guilin",,1,"武吉巴督聯合宮

1. 武吉巴督聯合宮
2. 五雷宮
3. 東天宮",924
606,927,Wumin Dao Fushan Ting Dabogong Miao,乌敏岛佛山亭大伯公庙,烏敏島佛山亭大伯公廟,Wu Min Dao Fu Shan Ting Da Bo Gong Miao,"46, Changi Point, Pulau Ubin 508422",508422,46 PULAU UBIN,43226.51809,42764.70421,103.9701413,1.40301928,,,,NA,NA,,,0,NA,927
607,928,Wumintaifo Si,乌敏泰佛寺,烏敏泰佛寺,Ubin Thai Buddhist Temple,72 Sengkang West Avenue 797651,797651,70 SENGKANG WEST AVENUE,32352.07078,41516.74904,103.8724254,1.39173692,,,,NA,NA,,,1,"惹蘭加由聯合廟

1. 惹蘭加由聯合廟
2. 萬國山忠義廟
3. 包公廟
4. 龍南殿
5. 烏敏泰佛寺",928
612,938,Xi Hai An Fu De Ci,西海岸福德祠,西海岸福德祠,West Coast Hock Teck Si,64 Jurong West Street 41 649332,649332,8 JURONG WEST STREET 51,15558.46386,36642.43592,103.7215237,1.34765311,,6566 2846,大伯公,广东省,广东省 潮州市,West Coast Park,,1,"
裕廊西聯合宮

1. 裕廊西聯合宮
2. 顯龍宮
3. 西海岸福德祠
4. 天公壇昭靈宮 
5. 天公壇
6. 昭靈宮 ",938
621,950,Xiyun Dian,西云殿,西雲殿,Xiyun Dian,722 Woodlands Ave 6  730722,730722,722 WOODLANDS AVENUE 6,24225.89804,47466.94696,103.7994045,1.44554843,,,,NA,NA,,,0,NA,950
623,954,Xian Gong Tang  Xing Hua Ren,仙宫堂,仙宮堂,Sian Keng Tong Temple ( Heng Hwa temple),216 Changi Road 419736,419736,216 CHANGI ROAD,35873.27721,33271.96472,103.904064,1.31717334,1955,,"保生大帝, 太乙仙姑",福建省,福建省 莆田市 涵江区 后郭村 四社车轲境,,,0,NA,954
627,959,Xianzu Gong ,仙祖宫,仙祖宮,Siang Cho Keong Temple ,66 Amoy Street 069886,69886,66 AMOY STREET,29469.51879,29157.76079,103.8465228,1.2799669,,,呂府仙祖,福建省,福建省 福州市,,,0,NA,959
628,960,Xianglian Si ,香莲寺,香蓮寺,Sim Poh Seng Temple ,110 Koon Seng Road 427045,427045,110 KOON SENG ROAD,36045.00216,32743.86165,103.9056069,1.31239732,,6344 3729,,NA,NA,,,0,NA,960
630,968,Xieyuan Shan,协源山,協源山,Xieyuan Shan,2 Telok Blangah Street 31 108942,108942,2 TELOK BLANGAH STREET 31,24985.96446,28298.34952,103.8062364,1.27219458,,,,NA,NA,,,0,NA,968
654,1005,Xiude Shantang  Wujizhima,武吉知馬修德善堂,武吉知馬修德善堂,Bukit Timah Seu Teck Sean Tong,"160 Jurong East Avenue 1, Street 24 609559",609559,160 JURONG EAST STREET 24,17736.28255,35995.01979,103.741093,1.34179895,1959,6562 3430  ,宋大峰祖师,广东省,广东省 潮州市,"Bukit Timah 7 miles, 
opposite Bukit Timah Shopping Centre",,0,NA,1005
656,1007,Xuanfuxian Miao,玄夫仙庙,玄夫仙廟,Hiang Foo Siang Temple,485 Serangoon North Avenue 1 555890,555890,485 SERANGOON NORTH AVENUE 1,32407.06287,38988.58237,103.8729191,1.36887308,,,,NA,NA,,,1,"玄夫仙廟

1.玄夫仙廟
2 順興古廟
3. 七寨庙（静山路 / 甘榜山亭）
4. 龍山廟",1007
660,1017,Xuanshan Miao Jiushi Tan,玄山庙救世坛,玄山廟救世壇,Siang San Temple,19 Woodlands Industrial Park E7 757722,757722,21 WOODLANDS INDUSTRIAL PARK E4,23805.42559,48059.13019,103.7956261,1.45090386,,,,NA,NA,,,1,"天顯廟

1. 天顯廟
2. 萬禮蓮合殿
3. 玄山廟救世壇
4. 玄山廟
5. 救世壇",1017
670,1037,Yangtaoyuanchenghuang Miao,杨桃园城隍庙,楊桃園城隍廟,Sheng Hong Temple,300 Pandan Gardens 609341,609341,300 PANDAN GARDENS,18801.28428,33689.0799,103.7506633,1.32094521,,,,NA,NA,,,1," 楊桃園城隍廟

1. 楊桃園城隍廟
2. 城隍廟萬壽寺
3. 城隍廟楊桃園",1037
673,1046,Yishunzhen Lian He Miao,义顺镇联合庙,義順鎮聫合廟,Yi Shun Town United Temple,17 Yishun Avenue 9 768890,768890,17 YISHUN AVENUE 9,28910.94179,46211.69841,103.8415043,1.43419666,1986,,,NA,NA,,,1,"義順鎮聯合廟

1. 義順鎮聯合廟
2. 鎮南廟廣壽堂
3. 鎮南廟
4. 廣壽堂
5. 元龍聖廟
6. 元壽堂
7. 新勝壇
8. 龍霞館
9. 順西宮水池林
10. 順西宮
11. 水池林",1046
684,1068,Yudu An,虞都庵,虞都庵,Yi Do An Chinese Temple,7 Choa Chu Kang Street 51 689340,689340,7 CHOA CHU KANG STREET 51,17906.69741,41516.78269,103.7426224,1.39173579,1996,,保生大帝,福建省,福建省 安溪县,Kranji,,1,"蔡厝港油池村聯合廟

1. 蔡厝港油池村聯合廟
2. 順龍廟
3. 虞都庵
4. 順龍宮
5. 龍蓮花山宮
6. 五福廟",1068
690,1088,Yuhuang Dian,玉皇殿,玉皇殿,Yuhuang Dian,12 Jurong West Street 76 648349,648349,12 JURONG WEST STREET 76,13563.97126,36617.38701,103.703602,1.34742569,,,"玉皇上帝  , 七王府大人, 达摩祖师",福建省,福建省,,,1,"玉皇殿聯合宮

1. 玉皇殿聯合宮
2. 慈善壇
3. 福安廟
4. 玉皇殿",1088
692,1090,Yuhuangdian Lian He Gong,玉皇殿联合宫,玉皇殿聯合宮,Yu Huang Combined Temple,13 Jurong West Street 76 648349,648349,12 JURONG WEST STREET 76,13563.97126,36617.38701,103.703602,1.34742569,,,,NA,NA,,,1,"玉皇殿聯合宮

1. 玉皇殿聯合宮
2. 慈善壇
3. 福安廟
4. 玉皇殿",1090
696,1097,Yu Lang Xi Lian He Gong,裕廊西联合宫,裕廊西聯合宮,Jurong West United Temple,64 Jurong West Street 41 649369,649369,741 JURONG WEST STREET 42,15830.9311,37229.01943,103.7239718,1.35295807,,,,NA,NA,,,1,"
裕廊西聯合宮

1. 裕廊西聯合宮
2. 顯龍宮
3. 西海岸福德祠
4. 天公壇昭靈宮 
5. 天公壇
6. 昭靈宮 ",1097
697,1099,Yulangzong Gong,裕廊总宫,裕廊總宮,Jurong Combined Temple,741 Jurong West Street 42 649369,649369,741 JURONG WEST STREET 42,15830.9311,37229.01943,103.7239718,1.35295807,1980,,,NA,NA,Jurong Road 10th milestone,,1,"裕廊總宮

1. 裕廊總宮
2. 觀山殿
3. 龍鬚岩
4. 瓊瑤教邸
5. 靈晉宮
6. 水溝館",1099
698,1102,Yuan Fu Dian,圆福殿,圓福殿,Tan Kong Tian Temple ,14 Jalan Kebaya 278319,278319,14 JALAN KEBAYA,21991.14827,33045.53711,103.779326,1.31512603,1904,,"董公真人, 伏羲先帝, 五谷仙帝, 关帝圣君, 范侯先师",福建省,福建省 安溪县,Tua Kan Lai,,0,NA,1102
700,1104,Yuanming Shi ,圆明寺,圓明寺,Yuanming Si ,631 Upper East Coast Road 466596,466596,631 UPPER EAST COAST ROAD,40841.61639,33385.54896,103.948707,1.31819888,1960,6241 0896,释迦牟尼佛,福建省,福建省,,,0,NA,1104
705,1116,Yunshan Gong,云山宫,雲山宮,Hoon San Keng Temple,27 Jln Lim Tai See 268360,268360,27 JALAN LIM TAI SEE,23664.69932,33786.10586,103.7943636,1.32182375,,,林府太师,福建省,福建省,,,0,NA,1116
710,1126,Zhantan Lin,旃檀林 ,旃檀林,Tsan Tan Lim Temple,20 Jalan Yasin 417992,417992,20 JALAN YASIN,36217.47073,33728.31181,103.9071569,1.32130029,1948,6742 7985,观世音菩萨,NA,NA,,,0,NA,1126
716,1134,Zhenkong Jiao Fuben Tang,真空教复本堂,真空教複本堂,Chin Kong Religion Fook Poon Tong,"561 Yishun Ring Road , #01-05 768682",768682,561 YISHUN RING ROAD,27916.28645,46272.49838,103.8325663,1.43474653,1953,"6753 3007
9853 1994 ",真空教主,客家,客家,Old Chong Pang,,1,"忠邦聯合宮

1. 忠邦聯合宮
2. 汫水港鬥母宮鳳山寺
3. 關帝廟
4. 真空教復本堂
5. 華報善堂",1134
719,1137,Zhennanmiaoguangshou Tang ,镇南庙广寿堂,鎮南廟廣壽堂,Chern Nam Kong Siew Temple,15 Yishun Avenue 9  768889,768889,15 YISHUN AVENUE 9,28910.94179,46211.69841,103.8415043,1.43419666,,"6758 5350 
6257 800*",,福建省,福建省,"Chern Nam Beo： Thomson Road's 6.5th milestone
  Kong Siew Tern：Thomson Road's 5th milestone",,1,"義順鎮聯合廟

1. 義順鎮聯合廟
2. 鎮南廟廣壽堂
3. 鎮南廟
4. 廣壽堂
5. 元龍聖廟
6. 元壽堂
7. 新勝壇
8. 龍霞館
9. 順西宮水池林
10. 順西宮
11. 水池林",1137
721,1139,Zhenshantianfu Gong ,镇山天福宫,鎮山天福宮,Teng San Tian Hock Temple,489 Serangoon North Avenue 1 555891,555891,489 SERANGOON NORTH AVENUE 1,32376.69125,38979.59009,103.8726462,1.36879176,,,,福建省,福建省,,,1,"镇山天福宫

1. 镇山天福宫
2. 安山廟
3. 萬福宮
4. 石竹廟
5. 吉龍山廟
6. 龍鎮宮",1139
723,1142,Zheng Hua Ci Sheng Gong,正华慈圣宫,正華慈聖宮,Cheng Hwa Cher Siah Temple,23 Bangkit Road  679972,679972,23 BANGKIT ROAD,21365.93849,40017.9899,103.7737067,1.37818225,1999,,,NA,NA,,,1,"正華慈聖宮

1. 正華慈聖宮
2. 慈蓮堂
3. 木山聖母宮
4. 木山宮
5. 忠義殿",1142
725,1148,Zhenglong'gongxuanjiang Dian,正龙宫玄江殿,正龍宮玄江殿,Chia Leng Kong Heng Kang Tian,85A Silat Road  168851,168851,85A SILAT ROAD,27503.33284,28892.39596,103.8288558,1.27756707,,,玄天上帝,NA,NA,,,0,NA,1148
726,1155,Zhigui Fo She ,知归佛社,知歸佛社,Tee Kwee Hood Sia Temple   Chih Kuei Fu Ser ,15 Sennett Road 466793,466793,15 SENNETT ROAD,39687.94218,33268.14542,103.9383407,1.31713758,1960,6243 1380,释迦牟尼佛,福建省,福建省,,,0,NA,1155
728,1158,Zhongbang Lian He Gong,忠邦联合宫,忠邦聯合宮,Chong Pang Combined Temple,561 Yishun Ring Road 768682,768682,561 YISHUN RING ROAD,27916.28645,46272.49838,103.8325663,1.43474653,,,,NA,NA,,,1,"忠邦聯合宮

1. 忠邦聯合宮
2. 汫水港鬥母宮鳳山寺
3. 關帝廟
4. 真空教復本堂
5. 華報善堂",1158
731,1163,Zhonghongshan Tang,众弘善堂,眾弘善堂,Cheng Hong Siang Tng,30 Arumugam Road 409966,409966,30 ARUMUGAM ROAD,34548.38687,34220.72769,103.8921594,1.32575392,,,,NA,NA,,,1,"眾弘善堂九皇宮（聯合宮）

1. 眾弘善堂九皇宮（聯合宮）
2. 眾弘善堂
3. 蔥茅園九皇宮",1163
735,1171,Zhongtou Gong,钟头宫,鐘頭宮,Zhongtou Gong,109c Hougang Avenue 5 538820,538820,109C HOUGANG AVENUE 5,34926.51941,38625.6029,103.8955581,1.36558994,,,妈祖,NA,NA,,,1,"天德圣廟

1. 天德圣廟
2. 報德善堂
3. 長天宮
4. 鐘頭宮
5. 後港水尾圣娘廟",1171
746,1190,Zhunti Gong,准提宫,準提宫,Cundhi Gong,601 Sin Ming Drive  575719,575719,601 SIN MING DRIVE,28555.20197,38215.64289,103.8383074,1.36188322,1941,6454 7666 ,释迦牟尼佛,广东省,广东省,"261A, Changi 7 3/4 miles ",,0,NA,1190
482,749,Shangdimiao Jigongtan Lianhemiao,上帝庙济公坛  联合庙,上帝廟濟公壇  聯合廟,Shang Di Chai Kong Temple,10 Marsiling Industrial Estate Road 3 739254,739254,10 MARSILING INDUSTRIAL ESTATE ROAD 3,22378.53336,46788.27081,103.7828043,1.43941042,,,,NA,NA,,,1,"上帝廟濟公壇（聯合廟）

1. 上帝廟濟公壇（聯合廟）
2. 濟公壇
3. 上帝廟",749
702,1107,Yue Hai Qing Miao,粤海清庙,粵海清廟,Yuen Hai Ching aka,30B Phillip Street 048696,48696,30B PHILLIP STREET,29774.89508,29666.44129,103.8492667,1.28456721,1826,,"妈祖, 玄天上帝",广东省,广东省 潮州市,30B Phillip Street,,0,NA,1107
739,1177,Zhongyitianming Miao,忠义天明庙,忠義天明廟,Zhongyitianming Miao,21 Serangoon North Avenue 3 555862,555862,21 SERANGOON NORTH AVENUE 3,32096.79969,39464.19785,103.8701313,1.37317442,,,,NA,NA,,,1,"忠義天明廟

1. 忠義天明廟
2. 廣明堂
3. 午峰岩/午峰岩宮
4. 忠義館",1177
741,1179,Zhufu Si,祝福寺 惹兰友诺士路,祝福寺,Buddha Vihara Society,30 Jalan Eunos 419495,419495,30 JALAN EUNOS,36026.23519,33553.01896,103.9054385,1.31971505,,6744 4285,释迦牟尼佛,锡兰,锡兰,,http://www.mangalavihara.org.sg,0,NA,1179
742,1182,Zhulin Si,竹林寺,竹林寺,Zhulin Si,817 Bukit Batok West Avenue 5 659086,659086,817 BUKIT BATOK WEST AVENUE 5,18700.26132,38872.29811,103.749754,1.36782031,,6665 7566 ,,NA,NA,,,0,NA,1182
744,1186,Zhuyun Gong,竹云宫,竹雲宮,Zhuyun Gong,7 Chai Chee Lane 469020,469020,6 CHAI CHEE LANE,37548.38742,34523.38479,103.9191161,1.32849025,1960,"6449 5029
6448 2180",齐天大圣,福建省,福建省,"1.Lorong33, Geylang",,1,"菜市聯合宮

1. 菜市聯合宮
2. 竹雲宮
3. 福山亭
4. 福靈宮",1186
493,773,Shijia Shi ,释迦寺,释迦寺,Sakya Tenphel Ling Temple ,5 Pasir Ris Drive 4 519455,519455,5 PASIR RIS DRIVE 4,42006.48977,39007.55689,103.9591766,1.36904168,,6581 3902 ,,NA,NA,,http://www.sakyatenphelling.org ,0,NA,773
159,244,Fuhui Jiangtang,福慧讲堂,福慧講堂,Fuhui Jiangtang,105 Punggol Road 546636,546636,105 PUNGGOL ROAD,34987.15214,40249.54097,103.8961033,1.38027623,,,释迦牟尼佛,福建省,福建省,,,0,NA,
412,637,Puti Foyuan ,菩提佛院,菩提佛院,Pu Ti Buddhist Temple ,121C Punggol Road 546637,546637,121C PUNGGOL ROAD,35011.089,40289.78005,103.8963184,1.38064014,,6386 3392  ,释迦牟尼佛,广东省,广东省 潮州市,,,0,NA,
94,155,Dejiaohui Zixin Ge,德教会紫新阁,德教會紫新閣,"Che Sen Khor Moral Uplifting Society, Singapore",90 Cuscaden Road 249725,249725,90 CUSCADEN ROAD,27431.14543,31951.27071,103.8282072,1.30523045,1952,6737 1972,"济公活佛, 吕祖, 儒释道耶回五教教主, 五方星君, 德德社诸佛仙尊, 太上老君",广东省,广东省 潮州市,River Valley Road,,1,"南洋德教總會紫新閣（聯合廟）

1. 南洋德教總會紫新閣（聯合廟）
1. 南洋德教總會
2. 紫新閣（星洲德教會）",
747,1191,Zidu An,自度庵,自度庵,Tse Tho Aum Temple,247-249B South Bridge Road 058796,58796,247 SOUTH BRIDGE ROAD,29362.89173,29422.01957,103.8455647,1.28235677,1981,6224 6990 ,"济公活佛 , 太上老君 ",广东省,广东省 潮州市,,,0,NA,
513,796,Hou Gang Shuiwei Shengniang Miao  ,后港水尾圣娘庙,後港水尾聖娘廟,Hougang Twee Boey Teng Niang Temple,109a Hougang Avenue 5 538818,538818,109A HOUGANG AVENUE 5,34926.51941,38625.6029,103.8955581,1.36558994,1939,,水尾圣娘,海南省,海南省,Lorong Ah Soo,,1,"天德圣廟

1. 天德圣廟
2. 報德善堂
3. 長天宮
4. 鐘頭宮
5. 後港水尾圣娘廟",
602,922,Wuji Gong,无极宫,無極宮,Wuji Gong,177 Lorong 7 Toa Payoh 319318,319318,177L LORONG 7 TOA PAYOH,30577.16948,35642.10469,103.856476,1.33860895,,,李英娘娘,海南省,海南省,,,1,"大巴窑五合廟 

1. 大巴窑五合廟
2. 通興港亞佛律甘榜神會  
3. 聚天宮（飛天宮/潮閩人）
4. 山竹圓福德祠（潮人）
5. 昭應祠（瓊人）
6 華德善堂（合租昭應祠）
7. 李娘娘無極宮（瓊，退出）
   聚天宮接收，用為太歲殿）",
357,539,Luojia Shanzhuang Foxuehui,洛伽山庄  佛学会,洛伽山莊  佛學會,Luojia Shanzhuang Foxuehui,"305, River Valley Road  238346",238346,305 RIVER VALLEY ROAD,28633.77762,30876.86141,103.8390134,1.29551387,,6235 0517,,NA,NA,,,0,NA,
358,540,Luokou Qizhong Tan,洛口齐忠坛,洛口齊忠壇,Luokou Qizhong Tan,BLK 38 Tanglin Halt Road #01-119 140038,140038,38 TANGLIN HALT ROAD,24149.80088,31097.39878,103.7987228,1.2975081,,,,NA,NA,,,0,NA,
481,748,Shanzhuyuan Fudeci,山竹园福德祠,山竹园福德祠,Shanzhuyuan Fudeci,177N Lorong 7 Toa Payoh 319318,319318,177L LORONG 7 TOA PAYOH,30577.16948,35642.10469,103.856476,1.33860895,,,"土地公, 土地婆",广东省,广东省,,,1,"大巴窑五合廟 

1. 大巴窑五合廟
2. 通興港亞佛律甘榜神會  
3. 聚天宮（飛天宮/潮閩人）
4. 山竹圓福德祠（粵人）
5. 昭應祠（瓊人）
6 華德善堂（合租昭應祠）
7. 李娘娘無極宮（瓊，退出）
   聚天宮接收，用為太歲殿）",
28,54,Caishi Lianhegong,菜市联合宫,菜市聯合宮,Chai Chee United Temple,6 Chai Chee Lane 469020,469020,6 CHAI CHEE LANE,37548.38742,34523.38479,103.9191161,1.32849025,,,,NA,NA,,,1,"菜市聯合宮

1. 菜市聯合宮
2. 竹雲宮
3. 福山亭
4. 福靈宮",
17,29,Baoxing Tan,宝兴坛,寶興壇,Baoxing Tan,139 Bedok Reservoir Road #02-1489 470139,470139,139 BEDOK RESERVOIR ROAD,36954.25554,35201.66294,103.9137777,1.33462453,1930,,,广东省,广东省 潮州市,,,0,NA,
127,205,Fengshan Si   Si Hua,凤山寺,鳳山寺,Si Hua Feng Shan Si,"247A, Jalan Kayu 799471",799471,247 JALAN KAYU,32399.64061,42040.46697,103.8728529,1.39647323,,,,NA,NA,,,0,NA,
130,209,Fengshan Tan Feilong Gong Lianhemiao,风山坛飞龙宫 联合庙,風山壇飛龍宮 聯合廟,Hong Sun Tan Fei Loong Gong Combined Temple,15 Woodlands Industrial Park E4 757749,757749,15 WOODLANDS INDUSTRIAL PARK E4,23786.24183,48102.86113,103.7954537,1.45129934,,,,NA,NA,,,1,"風山壇飛龍宮聯合廟

1. 風山壇飛龍宮聯合廟
2. 飛龍宮（蓮花三太子）
3. 鳳山壇（德惠）",
15,27,Baoguang Fotang ,宝光佛堂,寶光佛堂,Pao Kwan Foh TangTp,21 Shunfu Road 575741,575741,21 SHUNFU ROAD,28359.92719,37108.16049,103.8365528,1.35186754,1993,,,广东省,广东省 潮州市,,,0,NA,
14,25,Baogong Miao,包公庙,包公廟,Bao Gong Temple,72 Sengkang West Avenue 797651,797651,70 SENGKANG WEST AVENUE,32352.07078,41516.74904,103.8724254,1.39173692,,,,NA,NA,,,1,"惹蘭加由聯合廟

1. 惹蘭加由聯合廟
2. 萬國山忠義廟
3. 包公廟
4. 龍南殿
5. 烏敏泰佛寺",
45,87,Chongfeng Shantang,崇峰善堂,崇峰善堂,Chung Hong Siang Tng,106 Pasir Panjang Road 118534,118534,106 PASIR PANJANG ROAD,23653.82867,28684.40173,103.7942667,1.27568574,1973,,宋大峰祖师,NA,NA,Punggol's Jalan Kampong Tengah,,1,"中華善堂藍十字總會

1. 中華善堂藍十字總會
2. 普德善堂
3. 崇峰善堂",
55,101,Ci'en Ge,慈恩阁  大树下,慈恩閣  大樹下,Ci Ern Ge,177 Toa Payoh Central 310177,310177,177 TOA PAYOH CENTRAL,29729.02074,35121.44446,103.8488548,1.33390034,,,观世音菩萨,NA,NA,,,0,NA,
167,255,Fushou Tang ,福寿堂,福壽堂,Hock Siew Tong Temple ,357 Race Course Road 218633,218633,357 RACE COURSE ROAD,30580.61001,33019.24171,103.8565067,1.3148887,,,观世音菩萨,NA,NA,,,0,NA,
232,354,Huaguo Shan Pingan Mingde Gong,花果山平安明德宫,花果山平安明德宮,Hua Guo Shan Ping An Ming De Gong,31 Marsiling Industrial Estate Road 3 739255,739255,31 MARSILING INDUSTRIAL ESTATE ROAD 3,22369.94824,46822.91903,103.7827271,1.43972377,,,,NA,NA,,,1,"風圖廟聯合廟

1. 風圖廟聯合廟
2. 鳳圖廟
3. 觀音廟
4. 環圖廟
5. 花果山平安明德宮
6. 義星堂",
183,277,Guanshan Miao,关善庙,關善廟,Guanshan Miao,"31, Cantonment Road    089747",89747,31 CANTONMENT ROAD,28777.07864,29036.65369,103.8403009,1.27887168,,,,NA,NA,,,0,NA,
672,1043,Yishan Tang,,,Eit San Tong Temple,582 Lorong 3 Geylang 388992,388992,582 LORONG 3 GEYLANG,32480.72406,33348.26447,103.8735802,1.31786405,,,,NA,NA,,,0,NA,
421,646,Puzhao Miao ,普照庙,普照廟,,44 Lorong 25A Geylang 388244,388244,44 LORONG 25A GEYLANG,33559.6175,33013.4374,103.8832745,1.31483582,,,,NA,NA,,,0,NA,
48,91,Chongxing Zumiao ,重兴祖庙,重興祖廟,Tioh Hin Cho Temple,121A Langsat Road 426774,426774,121A LANGSAT ROAD,35984.37524,33148.88472,103.9050622,1.31606022,1961,,张公圣君,福建省,福建省 莆田市 涵江区 梧塘镇 漏头村,,,0,NA,
173,262,Gaolin Gong  Ounan Shan,檺林宫  欧南山,檺林宮  歐南山,Outram Hill Ho Lim Keng Temple,20 Outram Hil 169115,169115,20 OUTRAM HILL,28346.32179,29631.49733,103.8364304,1.28425124,,,"朱邢李三王府大人, 许真人",福建省,福建省 南安市 玉湖村,,,0,NA,
385,585,Nanlai Dian,南莱殿,南萊殿,Nanlai Dian,Blk 119 Chua Chu Kang Road #07-782 680119,680119,119 TECK WHYE LANE,18772.13504,40132.32506,103.7503994,1.37921556,,,,NA,NA,,,0,NA,
576,887,Tongxing Gang Chaoren,通兴港  潮人,通興港  潮人,Tongxing Gang,177Q Lorong 7 Toa Payoh 319318,319318,177L LORONG 7 TOA PAYOH,30577.16948,35642.10469,103.856476,1.33860895,1864,6356 3116,感天大帝,广东省,广东省 潮州市,Ah Hood Road,,1,"大巴窑五合廟 

1. 大巴窑五合廟
2. 通興港亞佛律甘榜神會  
3. 聚天宮（飛天宮/潮閩人）
4. 山竹圓福德祠（粵人）
5. 昭應祠（瓊人）
6 華德善堂（合租昭應祠）
7. 李娘娘無極宮（瓊，退出）
   聚天宮接收，用為太歲殿）",
68,123,Cizhenggong Shiniudong,赐正宫石牛洞,賜正宮石牛洞,Sze Cheng Keng Shi Niu Dong,16 Ubi Road 4  #02-01 408624,408624,16 UBI ROAD 4,35357.34069,34983.52797,103.8994284,1.33265223,,,,NA,NA,,,1,"賜正宮石牛洞（聯合宮）

1. 賜正宮石牛洞（聯合宮）
2. 賜正宮
3. 石牛洞",
88,147,Danbinni Jiuli Dabogong Miao,淡滨尼九哩大伯公  ,淡濱尼九哩大伯公  ,Danbinni Jiuli Dabogong Miao,25 Tampines Street 21 529394,529394,25 TAMPINES STREET 21,40970.459,37545.69215,103.9498665,1.3558216,,67830655,大伯公,福建省,福建省,,,1,"淡濱尼聯合宮

1. 淡濱尼聯合宮
2. 地萬大伯公
3. 福安殿
4. 慈靈宮
5. 九哩大伯公 aka 九哩福德正神
6. 濟陽堂
7. 吉星亭
8. 洛陽天宮壇
9 後池廳aka普庵古佛
10. 順興古廟
11. 新芭大伯公
12. 洛陽大伯公
13. 漢陽大伯公",
70,125,Congmaoyuan Jiuhuanggong,葱茅园九皇宫,葱茅园九皇宫,Charn Mao Hern Kew Huang Keng,28 Arumugam Road 409965,409965,28 ARUMUGAM ROAD,34548.3869,34220.72769,103.8921594,1.32575392,1943,6746 5290,九皇大帝,福建省,福建省,Paya Lebar Airport Rd / Geylang Serai ,,1,"眾弘善堂九皇宮（聯合宮）

1. 眾弘善堂九皇宮（聯合宮）
2. 眾弘善堂
3. 蔥茅園九皇宮",
64,117,CiyiTang,慈义堂,慈義堂,Chee Ghee Deang,"3302 Clementi Service Rd / 
3302 Commonwealth Avenue West 129582",129582,3302 COMMONWEALTH AVENUE WEST,20027.29602,33839.83502,103.7616796,1.32230893,1984,"6777 0369
9620 7893*","黄老仙师, 齐天大圣, 太上老君",广东省,广东省 潮州市,Toh Tuck Road,,1,"慈義堂將軍廟（聯合廟）

1. 慈義堂將軍廟（聯合廟）
2. 慈義堂
3. 將軍廟",
60,110,Cilian Tang,慈莲堂,慈蓮堂,Cher Lian Tong Buddhist Temple ,23 Bangkit Road  679972,679972,23 BANGKIT ROAD,21365.93849,40017.9899,103.7737067,1.37818225,,6765 5596,"千手千眼观世音菩萨, 观世音菩萨",广东省,广东省 潮州市,,,1,"正華慈聖宮

1. 正華慈聖宮
2. 慈蓮堂
3. 木山聖母宮
4. 木山宮
5. 忠義殿",110
137,218,Fohai Jiushi Tang ,佛海救世堂,佛海救世堂,Fohai Jiushi Tang ,74 Lorong 19 Geylang Road  388510,388510,72 LORONG 19 GEYLANG,33107.13415,33062.5663,103.8792088,1.3152802,,,,NA,NA,,,0,NA,
133,212,Fengtu Miao ,凤图庙,鳳圖廟,Hong Tho Bilw Temple ,31 Marsiling Industrial Estate Road 3 739255,739255,31 MARSILING INDUSTRIAL ESTATE ROAD 3,22369.94824,46822.91903,103.7827271,1.43972377,,6368 2301,关帝圣君,福建省,福建省 泉州市 安溪县,,,1,"風圖廟聯合廟

1. 鳳圖廟聯合廟
2. 鳳圖廟
3. 觀音廟
4. 環圖廟
5. 花果山平安明德宮
6. 義星堂",
659,1016,Xuanshan Miao,玄山庙,玄山廟,Siang San Temple,21 Woodlands Industrial Park E7 757722,757722,21 WOODLANDS INDUSTRIAL PARK E4,23805.42559,48059.13019,103.7956261,1.45090386,1956,6365 2275,"玄天上帝, 关圣帝君",福建省,福建省,"Siang San Temple：Mandai Road Track 16 (13½ milestone)
Jiu Shi Tan：Mandai Road",,1,"天顯廟

1. 天顯廟
2. 萬禮蓮合殿
3. 玄山廟救世壇
4. 玄山廟
5. 救世壇",
485,753,Shenggong Gong ,圣公宫,聖公宮,Shenggong Gong ,BLK 122 Sengkang East Way #01-03 540122,540122,122 SENGKANG EAST WAY,36171.02578,40943.46099,103.9067415,1.38655149,,,,NA,NA,,,0,NA,
206,312,Guanzhong Shancai Tan ,观中善财坛,觀中善財壇,Guanzhong Shancai Tan ,BLK62 Telok Blangah Height #05-205 100062,100062,62 TELOK BLANGAH HEIGHTS,25527.98902,28635.69183,103.8111067,1.27524543,,,,NA,NA,,,0,NA,
608,929,Wusheng Gong,五圣宫,五聖宫,Wu Sheng Gong Society,"Blk 9002 Tampines St 93, #02-72 528836",528836,9002 TAMPINES STREET 93,40049.01616,35889.50563,103.9415861,1.34084405,,,,NA,NA,,,0,NA,
330,508,Longde Fotang,龙德佛堂,龍德佛堂,Leng Teck Hood Yee Temple,36 Jalan Kembangan 419110,419110,36 JALAN KEMBANGAN,36978.47171,33793.99279,103.9139949,1.32189407,,,,NA,NA,,,0,NA,
141,222,Fojiaohui ,佛教会,佛教會,Buddhist Union,28 Jalan Senyum 418152,418152,28 JALAN SENYUM,37056.07032,33778.79466,103.9146921,1.3217566,,6241 9419 ,释迦牟尼佛,福建省,福建省,,,0,NA,
95,156,Dejiaohui Ziying Ge,德教会紫盈阁,德教會紫盈閣,"Che Wein Khor Moral Uplifting Society, Singapore",39 Jurong West Avenue 1 649518,649518,39 JURONG WEST AVENUE 1,15569.86175,36986.42269,103.721626,1.35076401,1953,6560 1369,"济公活佛, 吕祖, 儒释道耶回五教教主, 五方星君, 德德社诸佛仙尊",广东省,广东省 潮州市,Chee Hwan Kog,,0,NA,
139,220,Fojiao Guji Zhongxin,佛教古蹟中心,佛教古蹟中心,Buddhist Heritage Centre,27 Jalan Senyum 418151,418151,27 JALAN SENYUM,37011.92313,33764.02504,103.9142954,1.32162304,,,,NA,NA,,,0,NA,
116,190,Fashi Lin,法施林,法施林,Fa Shi Lin Temple ,1 Lengkong Satu 417474,417474,1 LENGKONG SATU,36838.75246,34197.13016,103.9127395,1.32553994,,,释迦牟尼佛,广东省,广东省,,,0,NA,
74,130,Lantouxiang Dabogong,篮投巷大伯公,藍投巷大伯公,Lan Tou Xiang Tua Pek Kong Temple,36 Joo Avenue 219331,219331,36 JOO AVENUE,30383.61958,33111.35575,103.8547366,1.31572177,1967,,大伯公,NA,NA,,,0,NA,
50,94,Chuangjia Xiehui Zhongxin Yalong,创价协会中心 芽龙,創價協會中心  芽龍,Singapore Soka Centre Geylang,57 Lorong 18 Geylang 398827,398827,57 LORONG 18 GEYLANG,33306.2769,32555.18376,103.8809981,1.31069158,,,,NA,NA,,,0,NA,
66,121,Ciyunshan Gong,慈云山宮,慈雲山宮,Chee Hoon Sun Kong,525 Yishun Industrial Park A 768769,768769,525 YISHUN INDUSTRIAL PARK A,28280.3197,47240.77293,103.8358375,1.44350325,1973,,"黄老仙师, 齐天大圣, 太上老君",福建省,福建省 莆田市,,,1,"慈靈聯合廟

1. 慈靈聯合廟
2. 慈雲山宮
3. 昭靈廟（莆田江兜）",
30,57,Chan Zhi Yuan,禅之园 ,禪之園,Chan Zhi Yuan,98 Jalan Pintan  577140,577140,98 JALAN PINTAU,28775.28254,37422.57858,103.840285,1.35471102,,6346 5010,,NA,NA,,,0,NA,
4,6,Aimin Gong,爱民宫,愛民宮,Aik Beng Keng,397 Bt Batok West Ave 8 658964,658964,397 BUKIT BATOK WEST AVENUE 8,17619.08358,36585.96803,103.7400397,1.34714322,1937,,"感应尊王, 麻府相公",福建省,福建省 泉州市 安溪县大阪村,Lorong Kapong (off Jalan Bahar),,0,NA,
138,219,Fojiao Ciji Jijinui,佛教慈济基金会   新加坡,佛教慈濟基金會,Buddhist Tzu Chi Foundation  Singapore,9 Elias Road 519937,519937,9 ELIAS ROAD,39796.0724,39412.77061,103.9393147,1.37270725,,6582 9958 ,释迦牟尼佛,福建省,福建省,,http://www.tzuchi.org.sg  ,0,NA,
124,202,Fengshan Gong Congmao Yuan Jiu Huang Da Di,凤山宫  葱茅园,鳳山宮  蔥茅園,Hong San Temple,49 Defu Lane 12 ( off Airport Road) 539142,539142,49 DEFU LANE 12,35076.06794,35825.75874,103.8969012,1.34026913,,6280 6519,九皇大帝,福建省,福建省,,,0,NA,
29,56,Chanding Foxuehui,禅定佛学会,禪定佛學會,Samadhi Buddhist Society,34 Tembeling Road  423643,423643,134 TEMBELING ROAD,35694.08651,32566.07218,103.9024537,1.31078955,,6247 9361    ,,NA,NA,,http://web.singnet.com.sg/~samadhi ,0,NA,
93,154,Dehai Gong ,德海宫,德海宮,Dehai Gong ,30-32 Bedok Reservoir Road 479231,479231,32 BEDOK RESERVOIR ROAD,36312.29061,34827.4861,103.9080092,1.3312408,,,,NA,NA,,,1,"德海宫

1. 德海宮
2. 玉海棠觀音救苦會
3. 崇德善堂",
19,31,Beihai She,北海社,北海社,Pei Hai Seventh Moon Scoiety,282-A Bedok Shopping Complex 469439,469439,282A BEDOK ROAD,40799.82611,34899.36279,103.9483322,1.33188926,,6441 2725,四海龙王,NA,NA,,,0,NA,
72,128,Dabei Fojiao Zhongxin,大悲佛教中心 ,大悲佛教中心,Tai Pei Buddhist Centre,2 Lavender Street  338823,338823,2 LAVENDER STREET,31477.37951,32397.93338,103.8645645,1.30926972,,6298 3343 ,观世音菩萨,广东省,广东省,,,0,NA,
97,158,Dejiao Taihe Guan Xinqiao Lu,德教太和观  新桥路,德教太和觀  新橋路,Thye Hua Kwan Moral Society  New Bridge Road,"1 North Bridge Road #23-03
High Street Centre 179094",179094,1 NORTH BRIDGE ROAD,29769.37299,30265.92062,103.8492171,1.2899887,1978,"6338 0281 
6338 567*","太上道祖, 五教圣人",广东省,广东省 潮州市,,,0,NA,
143,224,Fojiao Mantuluo Xuehui,佛教曼荼罗学会,佛教曼荼羅學會,BUDDHA DHAMMA MANDALA SOCIETY ,567-A Balestier Road  329884,329884,567 BALESTIER ROAD,29224.93644,34292.52546,103.8443253,1.32640392,,6352 2859,,NA,NA,,,0,NA,
51,95,Chuangjia Xuehui Zhiluobulanya,创价学会 直落布蘭雅,創價學會 直落布蘭雅,Telok Blangah Soka Centre,91 Wishart Road 098728,98728,91 WISHART ROAD,25685.34445,28129.87717,103.8125206,1.27067103,,,,NA,NA,,,0,NA,
92,152,Deguangdao Tianjiang Fotang Taiyanggong,德光岛天降佛堂太阳宫,德光島天降佛堂太陽宮,Pulau Tekong Joint Temple,51 Bedok North Ave 4 469695,469695,51 BEDOK NORTH AVENUE 4,40871.87145,35346.97272,103.9489797,1.33593725,1960,,"太阳公, 三师爷, 緞伯公",NA,NA, a village on Pulau Tekong known as Pasir Merah,,0,NA,
2,2,Amituofo Fojiao Zhongxin,阿弥陀佛佛教中心,阿彌陀佛佛教中心,Amitabha Buddhist Centre,44 Lorong 25A Geylang 388244,388244,44 LORONG 25A GEYLANG,33559.6175,33013.4374,103.8832745,1.31483582,1989,6745 8547 ,阿弥陀佛,福建省,福建省,3 Lorong 15 Geylang ,http://www.fpmtabc.org,0,NA,
21,36,Beishan Tan ,北善坛,北善壇,Beishan Tan ,BLK 758 Jurong West Street74 #01-96 640758,640758,758 JURONG WEST STREET 74,13201.7596,36919.1948,103.7003472,1.35015495,,,,NA,NA,,,0,NA,
57,105,Ciguan Tan ,慈观坛,慈觀壇,Ciguan Tan ,BLK 22 Jalan Tenteram #04-557 320022,320022,22 JALAN TENTERAM,30919.88069,34293.24033,103.8595553,1.32641027,,,,NA,NA,,,0,NA,
112,184,Enqing Si ,恩庆寺,恩慶寺,Ean Keng Si Buddhist Tp ,48 Frankel Avenue 458176,458176,48 FRANKEL AVENUE,37493.95363,33033.23345,103.9186265,1.31501388,,,释迦牟尼佛,福建省,福建省,,,0,NA,
145,227,Fotuo Fojiao Zhongxin,佛陀佛教中心,佛教佛教中心,Dhamma Duta Buddhist Centre,"11, Lorong Bachok Geylang  387785",387785,11 LORONG BACHOK,33138.16679,32925.85862,103.8794876,1.31404386,,6742 5053 ,,NA,NA,,,0,NA,
54,98,Chuangjia Xuehui Danbinni,创价学会  淡濱尼,創價學會  淡濱尼,Tampines Soka Centre,5 Tampines Street 92 528890,528890,5 TAMPINES STREET 92,40212.95028,36283.65444,103.9430593,1.34440852,,,日莲,众多方言,众多方言,,,0,NA,
53,97,Chuangjia Xuehui Baxibanrang,创价学会 巴西班让,創價學會 巴西班讓,Soka Youth Centre (SSA)Pasir Panjang,156 Pasir Panjang Road 118554,118554,156 PASIR PANJANG ROAD,23282.46608,28833.09381,103.7909298,1.27703041,,,,NA,NA,,,0,NA,
98,163,Dijun Tan,帝君坛,帝君壇,The Kun Association,Blk 13 Upper Boon Keng #01-658 380013,380013,13 UPPER BOON KENG ROAD,32133.26205,32974.18939,103.870458,1.3144811,,6749 5833,"保生大帝, 康王元帅",福建省,福建省,,,0,NA,
122,200,Fengkuo Fenyang Gonghui,凤廓汾阳公会,鳳廓汾陽公會,Hong Kuak Hoon Yang Kong See,21 Lor 26 Geylang 398491,398491,21 LORONG 26 GEYLANG,33758.33792,32690.6466,103.8850601,1.31191658,,,三夫人妈,广东省,广东省 潮州市 潮安区 凤廓、陇坑、溜陇、后廓四乡,,,0,NA,
6,10,An'shan Miao,安山庙,安山廟,Ann San Temple,488 Serangoon North Avenue 1 555894,555894,17 SERANGOON NORTH AVENUE 1,32067.01451,38941.16188,103.8698635,1.36844428,,,正顺尊王,NA,NA,,,1,"镇山天福宫

1. 镇山天福宫
2. 安山廟
3. 萬福宮
4. 石竹廟
5. 吉龍山廟
6. 龍鎮宮",
56,102,Cifugong Dabogong Lianyihui,赐福宫大伯公联谊会,賜福宮大伯公聯誼會,Sze Hock Keng Tua Peh Kong Association,146D Paya Lebar Road 409041,409041,146D PAYA LEBAR ROAD,34427.4042,34470.70551,103.8910723,1.32801466,1911,6741 0890,大伯公,福建省,福建省,Kim Chuan Road,,1,"天聖賜福聯合廟

1. 天聖賜福聯合廟
2. 天聖壇
3. 賜福宮",
40,69,Chenghuang Miao Wanshou Si,城隍庙万寿寺,城隍廟萬壽寺,Sheng Hong Temple Wan Shou Si ,300 Pandan Gardens 609341,609341,300 PANDAN GARDENS,18801.28428,33689.0799,103.7506633,1.32094521,1926,"6560 4760 
6560 971*","弥勒佛, 释迦牟尼佛, 观世音菩萨",福建省,福建省 安溪县,300 Pandan Gardens,,1," 楊桃園城隍廟

1. 楊桃園城隍廟
2. 城隍廟萬壽寺
3. 城隍廟楊桃園",
117,192,Faxi Chansi,法溪禅寺 ,法溪禪寺,Faxi Zen Centre   Singapore  Society,67A Tessensohn Road  217667,217667,67 TESSENSOHN ROAD,30567.58061,33054.81891,103.8563896,1.31521045,,"6297 5683 
9107 0015",,NA,NA,,,0,NA,
144,225,Fojiao Tushuguan ,佛教图书馆,佛教圖書館,Buddhist Library,2 Lorong 24A Geylang 398526,398526,2 LORONG 24A GEYLANG,33616.94285,32808.30301,103.8837896,1.31298064,,6746 8435 ,,NA,NA,,http://www.buddhlib.org.sg,0,NA,
118,193,Fayin Tan ,法阴坛,法陰壇,Fayin Tan ,BLK 164 Pasir Ris Drive 4 520164,520164,164 SIMEI ROAD,41923.78704,36467.7892,103.9584323,1.34607302,,,,NA,NA,,,0,NA,
13,23,Baode Shantang,报德善堂,報德善堂,Poh Teck Siang Tng,109 Hougang Ave 5     538817,538817,109 HOUGANG AVENUE 5,34926.51314,38625.60114,103.8955581,1.36558993,,,,NA,NA,,,1,"天德圣廟

1. 天德圣廟
2. 報德善堂
3. 長天宮
4. 鐘頭宮
5. 後港水尾圣娘廟",
44,86,Chongde Shantang,崇德善堂,崇德善堂,Chongde Shantang,30 - 32 Bedok Reservoir Road 479231,479231,32 BEDOK RESERVOIR ROAD,36312.29061,34827.4861,103.9080092,1.3312408,,,宋大峰祖师,广东省,广东省 潮州市,,,1,"德海宫

1. 德海宮
2. 玉海棠觀音救苦會
3. 崇德善堂",
131,210,Fengshan Tang,凤山堂,鳳山堂,Fengshan Tang,"4 \ 6 \ 8 Ang Mo Kio St 63 Avenue 9, Singapore 569112",569112,4 ANG MO KIO STREET 63,29709.88356,40834.47575,103.8486832,1.38556696,,6482 0040,钟府大人,福建省,福建省,Lorong Hablor in Yio Chu Kang's Lak Xun (Liuxun) Village,,0,NA,
24,48,Caicuogang Qitiangong ,蔡厝港齐天宫,蔡厝港齊天宮,Caicuogang Qitiangong ,BLK 329 Bukit Batok St 33 #08-89 650329,650329,329 BUKIT BATOK STREET 33,18440.33437,38353.27089,103.7474185,1.36312634,,,,NA,NA,,,0,NA,
91,151,Daojiao Xinjiapo Qingsongguan,道教新加坡青松观,道教新加坡青松觀,Ching Chung Taoist Association  Singapore,"9, Lorong 35, Geylang #04-01 387941",387941,9 LORONG 35 GEYLANG,34129.69025,33044.98169,103.8883969,1.31512098,,6741 2696,吕纯阳祖师,NA,NA,,,0,NA,
125,203,Fengshan Si  Yulang ,凤山寺  裕廊,鳳山寺  裕廊,Jurong Hong San See Association,555 Bukit Batok Street 23 659522,659522,555 BUKIT BATOK STREET 23,19517.51849,35827.45411,103.7570985,1.3402841,,6100 0555,"广泽尊王, 广泽尊妃",福建省,福建省,,,1,"福通聯合廟

1. 福通聯合廟
2. 本元虛靈山總道堂
3. 鳳山寺（裕廊）
4. 天靈道堂",
67,122,Cizheng Gong,赐正宫,賜正宮,Sze Cheng Keng Temple,16 Ubi Road 4  #02-01 408624,408624,16 UBI ROAD 4,35357.34069,34983.52797,103.8994284,1.33265223,,,大伯公,NA,NA,,,1,"賜正宮石牛洞（聯合宮）

1. 賜正宮石牛洞（聯合宮）
2. 賜正宮
3. 石牛洞",
87,145,Dazhong Xuefo Yanjiuhui,大众学佛研究会 ,大眾學佛研究會,People's Buddhism Study Society,25 Lorong 22 Geylang  398682,398682,25 LORONG 22 GEYLANG,33467.62311,32693.93192,103.8824479,1.31194634,,6746 9352 ,,NA,NA,,http://www.dazhong.org,0,NA,
140,221,Fojiao Huayan Xuehui,佛教华严学会 ,佛教華嚴學會,Hwa Yen Buddhist Society,"219 Henderson Road #03-04 
Henderson Industrial Park  159556",159556,219 HENDERSON ROAD,26505.39839,29188.95129,103.819889,1.28024898,,6271 0710 ,,NA,NA,,,0,NA,
75,131,Wucao Dabogong  Gong ,梧槽大伯公宫,梧槽大伯公宫,Goh Cho Tua Peh Kong Temple Rochor,249 Balestier Rd 329708,329708,249 BALESTIER ROAD,30146.85884,33780.06546,103.8526092,1.32176936,1847,6256 7908,大伯公,福建省,福建省,249 Balestier Rd,,0,NA,
86,144,Dayuan Gongxiuhui,大愿共修会,大願共修會,Dayuan Gongxiuhui,11 Lorong 30 Geylang Road 398348,398348,11 LORONG 30 GEYLANG,33912.58932,32836.25982,103.8864461,1.31323342,,6547 1823 ,,NA,NA,,,0,NA,
35,62,Chaoyun  Dian,朝云殿,朝云殿, Tiow Hoon Tien ,523 Yishun Industrial Park A  768770,768770,523 YISHUN INDUSTRIAL PARK A,28296.62043,47222.27744,103.835984,1.44333598,1923,,,福建省,福建省 南安市,,,1,"福發宮

1. 福發宮
2. 天福殿
3. 朝雲殿
4. 興都廟",
31,58,Chanzong Si,禅宗寺,禪宗寺,Chanzong Si,39 Lorong 20 Geylang 398755,398755,39 LORONG 20 GEYLANG,33368.02537,32605.2717,103.8815529,1.31114455,1995,6841 7728,"释迦牟尼佛, 弥勒佛, 观世音菩萨",NA,NA,Bukit Timah 9 miles,www.chanzongsi.com_x000D_,0,NA,
41,70,Chenghuang Miao Yangtaoyuan,城隍庙杨桃园,城隍廟楊桃園,Sheng Hong Temple,300 Pandan Gardens 609341,609341,300 PANDAN GARDENS,18801.28428,33689.0799,103.7506633,1.32094521,,,清溪显佑伯主,福建省,福建省 安溪县,Bukit Panjang 10 miles ,,1," 楊桃園城隍廟

1. 楊桃園城隍廟
2. 城隍廟萬壽寺
3. 城隍廟楊桃園",
23,44,Bi Shan Shanshi Tan ,碧山善世坛,碧山善世壇,Bi Shan Shanshi Tan,BLK 631 Woodlands Ring Road #02-204 730631,730631,631 WOODLANDS RING ROAD,24447.83155,46336.08829,103.801399,1.43532139,,,,NA,NA,,,0,NA,
69,124,Xinjiapo Cizhongmiao,新加坡慈忠庙,新加坡慈忠廟,Singapore Chee Chung Huay,"364D Macpherson Road 
(378 Macpherson Road , 368113) 368112",368112,364D MACPHERSON ROAD,33158.7516,34804.97284,103.8796729,1.33103789,1960,6745 0338,黄老仙师,福建省,福建省,Lorong 16 Geylang,,0,NA,
20,34,Beilian Tan ,北莲坛,北蓮壇,Beilian Tan ,119B Kim Tian Road #21-240 162119,162119,119B KIM TIAN ROAD,27326.45955,29289.19615,103.8272666,1.28115558,,,,NA,NA,,,0,NA,
96,157,Dejiao Taihe Guan ,德教太和观,德教太和觀,Thye Hua Kwan Moral Society   Moral Home for The Disabled,20 Jalan Eunos 419494,419494,20 JALAN EUNOS,36037.40208,33472.78913,103.9055388,1.31898948,,,,NA,NA,,,0,NA,
52,96,Chuangjia Xuehui Yulangxi,创价学会 裕廊西,創價學會 裕廊西,Soka Culture Centre Jurong West,8 Jurong West Street 76 648369,648369,8 JURONG WEST STREET 76,13618.82345,36662.9117,103.7040949,1.34783742,,,,NA,NA,,,0,NA,
76,132,Dabogong Miao   Guiyu ,大伯公庙  龟屿,大伯公廟  龜嶼,Da Bogong Temple   Kusu Island,10 Kusu Island 098586,98586,10 KUSU ISLAND,30961.48585,22893.30823,103.8599281,1.22331328,,,大伯公,福建省,福建省,Kusu Island,,0,NA,
115,189,Fasheng Dian,法圣殿,法聖殿,Fasheng Dian,112 Joo Chiat Place 427837,427837,112 JOO CHIAT PLACE,35795.10872,32876.4847,103.9033615,1.31359678,,,,NA,NA,,,0,NA,
58,106,Cihang Nianfoshe,慈航念佛社 ,慈航念佛社,HE BUDDHA VOYAGE SOCIETY,29 Eng Kong Terrace  599002,599002,29 ENG KONG TERRACE,20778.95974,35372.25091,103.7684334,1.33616773,,6844 2306,,NA,NA,,,0,NA,
12,22,Baochi Gong,保赤宫,保赤宮,Po Chiak Keng,15 Magazine Rd 059568,59568,15 MAGAZINE ROAD,29061.43593,30188.78581,103.842856,1.28929115,1878,6533 2880,开漳圣王陈元光,福建省,福建省,15 Magazine Rd,,0,NA,
142,223,Fojiaohui ,佛教会,佛教會,Buddhist Union,3 Jalan Angin Laut 489176,489176,3 JALAN ANGIN LAUT,41594.38136,35524.73801,103.955472,1.33754458,,6542 2683,释迦牟尼佛,福建省,福建省,,,0,NA,
79,136,Wujizhima Qiyingli Dabogong Gong,武吉知马七英里大伯公宫,武吉知馬七英里大伯公宮,Bukit Timah Tua Pek Kong Temple,10 Jalan Seh Chuan 598416,598416,10 JALAN SEH CHUAN,21455.5698,35939.95764,103.774513,1.34130202,,6468 0589,大伯公 ,广东省,广东省 潮州市,Lorong Kilat,,0,NA,
1,1,Alejia Fojiao Zhongxin,阿乐佳佛教中心 ,阿樂佳佛教中心,Aloka Buddhist Centre,"11 Lorong 22 Geylang, #02-00 398670 ",398670,11 LORONG 22 GEYLANG,33465.65917,32751.69383,103.8824302,1.31246872,2008,6748 9459 ,释迦牟尼佛,NA,NA,"11 Lorong 22 Geylang, #02-00",www.AalokaBuddhistCenter.org_x000D_,0,NA,
43,73,Chifeng Guanling Tan,敕封观灵坛,敕封觀靈壇,Chifeng Guanling Tan,BLK 212 Hougang St 21 #01-335 530212,530212,212 HOUGANG STREET 21,34123.2481,37954.49632,103.88834,1.35952087,,,,NA,NA,,,0,NA,
34,61,Changxiu Weiling Dongshan Lianhemiao,长秀威灵东山联合庙,長秀威靈東山聯合廟,Teong Siew Wei Ling Dong Shan Temple,"362, Yishun Avenue 3 769060",769060,362 YISHUN AVENUE 3,27971.82529,44918.10511,103.8330654,1.42249788,,,,NA,NA,Kampong Kembangan (also known as Bee Hoon Sua/Hill),,1,"長秀威靈東山聯合廟

1. 長秀威靈東山聯合廟
2. 長秀館
3. 威靈宮
4. 東山廟",
82,139,Daputi Xuefohui,大菩提学佛会,大菩提學佛會,Bodhiraja Buddhist Society,"9, Lorong 30. Geylang Road. 398347",398347,9 LORONG 30 GEYLANG,33923.1092,32842.80264,103.8865407,1.31329259,,6747 8066,,NA,NA,,Email: bodhiraj@singnet.com.sg,0,NA,
85,143,Dashu Gong,大树宫,大樹宮,Dashu Gong,322G Changi Road 419797,419797,322B CHANGI ROAD,36266.29956,33345.76848,103.9075955,1.31784069,,,,NA,NA,,,0,NA,
25,50,Caicuogang Lianshengdian,蔡厝港联圣殿,蔡厝港聯聖殿,Choa Chu Kang Lian He Temple.,11  Choa Chu Kang Street 51  689334,689334,11 CHOA CHU KANG STREET 51,17920.50418,41491.51598,103.7427464,1.39150729,,,,NA,NA,,,1,"蔡厝港聯聖殿

1. 蔡厝港聯聖殿
2. 關帝廟
3. 善興壇
4. 關雲殿
5. 齊神宮
6. 八巃（山正龍）元帥殿",
78,135,Dabogong Tan  Qiaobei Lu,大伯公坛  桥北路,大伯公壇  橋北路,North Bridge Road Tua Pek Kong,861 North Bridge Road 198783,198783,861 NORTH BRIDGE ROAD,31404.4695,31995.95013,103.8639093,1.30563434,,,大伯公,NA,NA,,,0,NA,
59,107,Cijigong Shengguoyuan,慈济宫圣果园,慈濟宮圣果園,Cijigong Shengguoyuan,"Blk 262, Waterloo Street #07-221 180262",180262,262 WATERLOO STREET,30063.05131,31211.38922,103.851856,1.29853916,,9862 4322 ,保生大帝,福建省,福建省,,,0,NA,
39,67,Chengfeng Lianhemiao,城凤联合庙,城鳳聯合廟,Cheng Feng Lianhemiao,15 Arumugam Road 409960,409960,15 ARUMUGAM ROAD,34508.03847,34284.70073,103.8917968,1.32633248,,,,NA,NA,,,1,"城鳳聯合廟

1. 城鳳聯合廟
2. 韭菜芭城隍廟
3. 閬苑岩
4. 鳳玄宮",
126,204,Fengshan Si   Shuilangtou,凤山寺  水廊头,鳳山寺  水廊頭,Hong San See Temple  Mohamed Sultan,30 Mohamed Sultan Road 238974,238974,30 MOHAMED SULTAN ROAD,28838.36964,30631.85603,103.8408517,1.29329813,1907,"6737 3866 
6737 4711",广泽尊王 ,福建省,福建省,No. 30 Mohamed Sultan Road,"www.lamann.org_x000D_
www.sfcca.org.sg/lamannclan_x000D_",0,NA,
102,167,Dizang Xingyuanhui,地藏行愿会,地藏行願會,Kshitigarbha Buddhist Society,55 Lorong 4 Geylang 399295,399295,55 LORONG 4 GEYLANG,32791.04669,32403.39751,103.8763684,1.30931896,,6747 4434,,NA,NA,,,0,NA,
99,164,Diwan Dabogong Danbinni,地万大伯公  淡滨尼,地萬大伯公  淡濱尼,Diwan Dabogong  Tampines,25 Tampines Street 21 529394,529394,25 TAMPINES STREET 21,40970.459,37545.69215,103.9498665,1.3558216,,6783 0655 ,大伯公,福建省,福建省,,,1,"淡濱尼聯合宮

1. 淡濱尼聯合宮
2. 地萬大伯公
3. 福安殿
4. 慈靈宮
5. 九哩大伯公 aka 九哩福德正神
6. 濟陽堂
7. 吉星亭
8. 洛陽天宮壇
9 後池廳aka普庵古佛
10. 順興古廟
11. 新芭大伯公
12. 洛陽大伯公
13. 漢陽大伯公",
77,134,Dabogong Miao  Yunnan ,大伯公庙  云南,大伯公廟  雲南,Hoon Lam Tua Peh Kong Temple,10 Bukit Batok Street 21 659632,659632,10 BUKIT BATOK STREET 21,18831.53598,36469.11249,103.7509343,1.34608682,1946,6567 7382,大伯公,福建省,福建省 安溪县,Yunnan Garden (Jurong Road ),,1,"龍鳳洞及雲南大伯公廟（聯合廟）

1. 龍鳳洞及雲南大伯公廟（聯合廟）
2. 龍鳳洞
3. 雲南大伯公廟",
101,166,Dizang Lin,地藏林 ,地藏林 ,Dizang Lin,3F Geylang Lorong 12  398984,398984,3C LORONG 12 GEYLANG,33019.93048,32690.19398,103.8784251,1.31191261,,6846 1961,,NA,NA,,,0,NA,
100,165,Diwan Dabogong Baiti Lu,地万大伯公  柏提路,地萬大伯公  柏提路,Diwan Dabogong  Petir,BLK 209 Petir  Road #01-487 670209,670209,209 PETIR ROAD,21603.38229,39573.41899,103.7758404,1.37416177,,,大伯公,福建省,福建省,,,0,NA,
16,28,Baosheng Miao,保生庙,保生廟,Baosheng Miao,"Blk 3, 400 Geylang Lor 3  560557",560557,557 ANG MO KIO AVENUE 10,30717.37332,39292.93073,103.8577361,1.3716257,,,"保生大帝 , 吳夲, 许逊, 孫思邈 ",NA,NA,,,0,NA,
11,18,Bang'e Lianhemiao,榜鹅联合庙,榜鵝聯合廟,Punggol Joint Temple, 3 Tebing Lane 828849,828849,3 TEBING LANE,37147.07258,41577.24233,103.9155122,1.39228288,2007,,,NA,NA,,,1,"榜鵝聯合廟

1. 榜鵝聯合廟
2. 聖家廟
3. 天君府
4. 天慈宮",
42,72,Chifeng Chuan'gong Dian,敕封川弓殿,敕封川弓殿,Chifeng Chuan'gong Dian,BLK 5 Bandan Street #05-64 050005,50005,5 BANDA STREET,29126.13341,29293.81798,103.8434373,1.28119737,,,,NA,NA,,,0,NA,
18,30,Beichen Gong,北辰宫,北辰宮,Beichen Gong,526A Geylang Road 389482,389482,526 GEYLANG ROAD,33861.91466,32886.71346,103.8859908,1.31368971,,,,NA,NA,,,1,"凌雲殿北辰宫（莆田）

1. 凌雲殿北辰宫
2. 凌雲殿
3. 北辰宫",
80,137,Dacheng Chansi ,大乘禅寺,大乘禪寺,Thekchen Cho-Ling ,6 Hindhede Road  589242,589242,6 HINDHEDE ROAD,21571.50283,36347.37187,103.7755546,1.34498655,,,释迦牟尼佛,混杂,混杂,,,0,NA,
90,149,Danxia Jingshe,丹霞精舍,丹霞精舍,Danxia Jingshe,Blk 419 Bedok North St 1 #10-164  460419,460419,419 BEDOK NORTH STREET 1,38552.19475,34354.901,103.9281358,1.32696621,,"6443 1557 
9817 4058",,NA,NA,,,0,NA,
111,182,Duishan Miao,对山庙,對山廟,Duishan Miao,398 Bt Batok West Ave 8 658964,658964,397 BUKIT BATOK WEST AVENUE 8,17619.08358,36585.96803,103.7400397,1.34714322,,,苏妈夫人,NA,NA,,,1,"桂林聯合廟

1. 桂林聯合廟
2. 龍顯山宮
3. 石竹廟
4. 愛民宮
5. 金全法壇集聲宮
6. 金全法壇
7. 集聲宮
8. 臨江殿對山廟
9. 臨江殿
10. 對山廟",
47,90,Chongwen Ge,崇文阁,崇文閣,Chongwen Ge,168 Telok Ayer St 068619,68619,168 TELOK AYER STREET,29570.8184,29254.47212,103.847433,1.28084152,,,,NA,NA,,,0,NA,
682,1063,Yinzhendiangong Miao Hong Shan,阴阵殿公庙 红山区,陰陣殿公廟,Yinzhendiangong Miao,"Blk.11 Jalan Bukit Merah , #01-440 150011",150011,11 JALAN BUKIT MERAH,25289.4668,29893.64564,103.8089634,1.2866219,,6278 7200,,NA,NA,,,0,NA,
107,177,Doumu Xingjun Shenggong Lianyihui,斗母星君圣宫联谊会  ,斗母星君聖宮聯誼會  ,Doumu Xingjun Shenggong Lianyihui,No.14 Geylang Lorong 25 388295,388295,14 LORONG 25 GEYLANG,33494.21202,32939.19705,103.8826868,1.31416443,,,,NA,NA,,,1,Nil,
109,179,Doutian Gong Lianhegong,斗天宫 联合宫,斗天宮  聯合宮,Tao Tian Keng   United Temple,3 Jurong West Street 76 648370,648370,2 JURONG WEST STREET 76,13552.87103,36570.83824,103.7035023,1.34700471,,,,NA,NA,,,1,"斗天宮（聯合宮）

1. 斗天宮（聯合宮）
2. 斗天宮
3. 水廊頭大伯公宮",
3,5,Aidao Xiaoyuan,爱道小苑,愛道小苑,Aidao Xiaoyuan,66 Lorong J Telok Kurau 425864,425864,66 LORONG J TELOK KURAU,36474.83201,32875.15724,103.9094692,1.3135846,1971,,,广东省,广东省,,,0,NA,
528,814,Si Dao Feng Jiao,,,Si Dao Feng Jiao Temple,638 Lorong 3 Geylang 389020,389020,638 LORONG 3 GEYLANG,32485.33554,33367.98851,103.8736216,1.31804243,,,,NA,NA,,,0,NA,
676,1050,Yixing Tang,义星堂,義星堂,Yixing Tang,31 Marsiling Industrial Estate Road 3 739255,739255,31 MARSILING INDUSTRIAL ESTATE ROAD 3,22369.94824,46822.91903,103.7827271,1.43972377,,,,NA,NA,,,1,"風圖廟聯合廟

1. 風圖廟聯合廟
2. 鳳圖廟
3. 觀音廟
4. 環圖廟
5. 花果山平安明德宮
6. 義星堂",
300,455,Langyuan Yan,阆苑岩,閬苑岩,Langyuan Yan,15 Arumugam Road 409960,409960,15 ARUMUGAM ROAD,34508.03847,34284.70073,103.8917968,1.32633248,,,,NA,NA,,,1,"城鳳聯合廟

1. 城鳳聯合廟
2. 韭菜芭城隍廟
3. 閬苑岩
4. 鳳玄宮",
671,1040,Yifulong Tan ,义福龙坛,儀福龍壇,Yifulong Tan ,BLK 407 Choa Chu Kang Ave 3 #02-287 680407,680407,407 CHOA CHU KANG AVENUE 3,17707.00605,40265.28026,103.7408284,1.3804176,,,,NA,NA,,,0,NA,
532,823,Tangshen Miao Lianhemiao,汤申庙  联合庙,湯申廟  聯合廟,Thomson Temple,99 Sector B Sin Ming Industrial Estate 575660,575660,99 SECTOR B SIN MING INDUSTRIAL ESTATE,28783.25906,37773.98031,103.8403567,1.35788897,1986,,,NA,NA,,,1,"湯申廟（聯合廟）

1. 湯申廟（聯合廟）
2. 華光大帝廟
3. 蓮花壇
4. 金榜山亭天后會",
449,688,Qiongyao Xianjiao ,琼瑶仙教,瓊瑤仙教,Qiongyao Xianjiao ,10 C Lorong 22 Geylang 398669,398669,10 LORONG 22 GEYLANG,33394.29711,32742.55111,103.881789,1.31238605,1952,,"卢士元仙长, 上阳卓真人",福建省,福建省 莆田市,hill at Jurong Road 10th milestone,,0,NA,
283,431,Jiushi Tan,救世坛,救世壇,Siang San Temple,19 Woodlands Industrial Park E7 757722,757722,21 WOODLANDS INDUSTRIAL PARK E4,23805.42559,48059.13019,103.7956261,1.45090386,1956,,,NA,NA,Mandai Road Track 16,,1,"天顯廟

1. 天顯廟
2. 萬禮蓮合殿
3. 玄山廟救世壇
4. 玄山廟
5. 救世壇",
667,1033,Ya Long Lian He Gong,芽笼联合宫,芽籠聯合宮,Geylang United Temple,103 Eunos Road 5 409352,409352,103 EUNOS ROAD 5,34984.2926,33542.62136,103.8960761,1.31962128,1980,,大伯公,NA,NA,,,1,"芽籠聯合宮

1. 芽籠聯合宮
2. 乾坤廟
3. 福德宮
4. 龍山亭",
540,836,Tianfu Dian,天福殿,天福殿,Tian Hock Dian,523 Yishun Industrial Park A  768770,768770,523 YISHUN INDUSTRIAL PARK A,28296.62043,47222.27744,103.835984,1.44333598,,,,NA,NA,,,1,"福發宮

1. 福發宮
2. 天福殿
3. 朝雲殿
4. 興都廟",
409,633,Puming Si,普明寺,普明寺,Poh Ming Tse Temple,438 Dunearn Road 289613,289613,438 DUNEARN ROAD,25376.4173,34172.73998,103.8097443,1.32532053,,6466 0785 ,释迦牟尼佛,福建省,福建省,,,0,NA,
398,617,Pengfeng Gong,鹏峰宫,鵬峰宮,Peng Hong Temple,432 Geylang Lor 3 388903,388903,432 LORONG 3 GEYLANG,32527.60793,33277.42658,103.8740015,1.31722341,,6846 4310,"保生大帝, 清水祖师",福建省,福建省南安市鹏峰村,,www.penghong.org.sg,0,NA,
589,902,Wangxiang Tang Tongshan,旺相堂铜山,旺相堂銅山,Ong Siong Tong Tong San aka ,25 Merpati Rd 379302,379302,25 MERPATI ROAD,33344.087,34443.25875,103.8813381,1.32776665,1967,6251 7661,"茅山法主, 金英祖师, 潮源洞师",NA,NA,Lorong Tai Seng,,0,NA,
564,873,Tianyou Tong,天佑堂,天佑堂,The Thian Yew Tong Temple,108 Rangoon Road 218389,218389,108 RANGOON ROAD,30299.03591,33025.95745,103.8539766,1.31494946,,,,NA,NA,,,0,NA,
453,692,Reyamanjia Foshi ,惹亚曼加佛寺,惹亞曼加佛寺,"Jayamangal Buddhist Temple, The ",24 Sirat Road  545782,545782,24 SIRAT ROAD,32826.69974,37650.07157,103.8766896,1.356768,,,,NA,NA,,,0,NA,
341,520,Longquan Si,龙泉寺,龍泉寺,Long Quan Si Temple,36 / 38 Carpmael Road. 429965,429965,36 CARPMAEL ROAD,35169.5392,32826.05821,103.8977404,1.31314089,,,,NA,NA,,,0,NA,
263,401,Jinfu Gong   Yulangxi  Zhenghuacun,金福宫  裕廊西  总行 ,金福宮  裕廊西  總行,Jin Fu Gong Temple   Jurong West  Main,20 Jurong West St 92 649000,649000,20 JURONG WEST STREET 92,12102.47955,35884.06302,103.69047,1.34079305,,6792 6263,大伯公,福建省,福建省 安溪县,,,0,NA,
536,830,Tiande Tong,天德堂,天德堂,Tian De Gong Temple,95 Tampines Link #01-03 528745,528745,95 TAMPINES LINK,38599.06968,38808.29128,103.9285585,1.36724102,,,,NA,NA,Confirmed in ROS d/b -  778 Tampines Rd #01-03.,,0,NA,
475,733,Shanfu Tang ,善福堂,善福堂,Shan Fook Tong Temple ,5 - 7 Lorong 7 Geylang  388789,388789,5 LORONG 7 GEYLANG,32717.20721,32746.54101,103.875705,1.31242224,,6747 5957 ,,NA,NA,,,0,NA,
626,957,Xianshan Tang,,,Siang San Temple Association,100 Jalan Sultan 199001,199001,100 JALAN SULTAN,31175.48649,31698.60042,103.8618518,1.30294524,,,,NA,NA,,,0,NA,
706,1119,Yunwushannianfo Tang,云雾山念佛堂,雲霧山念佛堂,Yunwushannianfo Tang,Blk 51 Chin Swee Road #03-87  160051,160051,51 CHIN SWEE ROAD,28969.48316,29980.00477,103.8420298,1.28740301,,6534 3889,,NA,NA,,,0,NA,
197,300,Guanyin Si,观音寺,觀音寺,Kwan Imm Sze ,39 Lorong 31 Geylang  388035,388035,39 LORONG 31 GEYLANG,33936.05022,33099.25521,103.886657,1.31561185,,6748 2524 ,,NA,NA,,,0,NA,
202,307,Guanyin Tang Fozu Miao   Sima Lu,观音堂佛祖庙  四马路,觀音佛堂佛祖廟  四馬路,Kwan Im Tong Hood Che Temple ,"178, Waterloo Street 187964",187964,178 WATERLOO STREET,30187.13836,31477.33974,103.852971,1.30094432,,,准提观音,广东省,广东省,,,0,NA,
570,881,Tongde Shantang Nianxin She,同德善堂念心社,同德善堂念心社,Thong Teck Sian Thong Lian Sin Sia Temple,1A Boon Teck Road 329578,329578,1A BOON TECK ROAD,29788.50387,34287.61294,103.8493893,1.32635946,1940,,宋大峰祖师,NA,NA,Kim Keat Road,,0,NA,
205,311,Guanyun Dian,关云殿,關云殿,Guanyun Dian,19 Choa Chu Kang Street 51  689342,689342,19 CHOA CHU KANG STREET 51,17934.13164,41508.87885,103.7428689,1.39166432,1975,6763 6530,关圣帝君,福建省,福建省,Choa Chu Kang Road 14th milestone,,1,"蔡厝港聯聖殿

1. 蔡厝港聯聖殿
2. 關帝廟
3. 善興壇
4. 關雲殿
5. 齊神宮
6. 八巃（山正龍）元帥殿",
152,236,Fude Ci Wanli Gang,福德祠 万里港,福德祠 萬里港,Sin Choon Huat Temple,17D Moonstone Lane 328459,328459,17D MOONSTONE LANE,31648.17726,34313.24571,103.8660994,1.32659111,,,大伯公,NA,NA,,,0,NA,
668,1034,Yanluo Dian,阎罗殿,閻羅殿,Giam Loh Tian Temple,3 Beng Wan Road 339835,339835,3 BENG WAN ROAD,31584.34886,34017.70673,103.8655259,1.32391837,,9839 8285,,NA,NA,,,0,NA,
382,580,Nanhai Putuoshan Si,南海普陀山寺,南海普陀山寺,Lam Hai Poh Toh San Temple,825B Chuan Hoe Avenue 549853,549853,825B CHUAN HOE AVENUE,32742.08704,38570.25695,103.8759295,1.36508984,,,,NA,NA,,,0,NA,
256,393,Jiangjun Miao,将军庙,將軍廟,Chiang Chin Meow ,"3302 Clementi Service Rd / 
3302 Commonwealth Avenue West 129582",129582,3302 COMMONWEALTH AVENUE WEST,20027.29602,33839.83502,103.7616796,1.32230893,,6777 0369,"将军爷, 大伯公",广东省,广东省 潮州市,,,1,"慈義堂將軍廟（聯合廟）

1. 慈義堂將軍廟（聯合廟）
2. 慈義堂
3. 將軍廟",
267,408,Jinlong Si,金龙寺,金龍寺,Jinlong Si,32 Tai Seng Avenue 534084,534084,32 TAI SENG AVENUE,34241.288,35647.4025,103.8894002,1.33865632,1941,6288 3232,"释迦牟尼佛, 太上老君",福建省,福建省,Lorong Tai Seng,http://www.sanjiao.org.sg/,0,NA,
597,915,Wudangshan Zhenwu Guan ,武当山真武观,武當山真武觀,Wuluobei Fu'an Dian,BLK 158 Yung Loh Road #03-56 610158,610158,158 YUNG LOH ROAD,15642.4869,34575.53044,103.7222796,1.32896082,,,,NA,NA,,,0,NA,
203,308,Guanyin Tang Fozu Miao ( Sima Lu ） ,观音堂佛祖庙  四马路,觀音堂佛祖廟 四馬路,"Duplicated, cancelled",178 Waterloo St 187964,187964,178 WATERLOO STREET,30187.13836,31477.33974,103.852971,1.30094432,,,,NA,NA,,,0,NA,
466,708,Sanhuang Wudi,三皇五帝,叁皇五帝,San Wang Wu Ti Religious Society,151 Braddell Rd 359934,359934,151 BRADDELL ROAD,31204.37041,36150.03003,103.8621118,1.34320238,,,三皇五帝,福建省,福建省 福州市,151 Braddell Rd,,0,NA,
443,678,Qingliang Jingshe,清凉精舍,清涼精舍,Qingliang Jingshe,84-B Lorong 25A Geylang 388262,388262,84 LORONG 25A GEYLANG,33570.02754,33159.28925,103.8833681,1.31615485,,9839 6899,,广东省,广东省,,,0,NA,
243,369,Jifu Gong,集福宫,集福宮,Jifu Gong ,48 Ang Mo Kio Street 61 569162,569162,48 ANG MO KIO STREET 61,28916.55254,40324.89027,103.8415545,1.38095849,1981,6457 7757,"施府王爷, 林府大人, 萧府大人, 朱府大人, 董公真人, 清水祖师, 法祖圣君",众多方言,众多方言,,,1,"聚聖廟

1. 聚聖廟
2. 集福宮
3. 華堂府
4. 龍泉岩",
190,290,Guanyin Chanlin,观音禅林,觀音禪林,KWAN YIN CHAN LIN,203D Lavender St  338763,338763,203 LAVENDER STREET,30956.19809,32939.87064,103.8598815,1.31417087,,6392 0265,,NA,NA,,http://www.kyclzen.org ,0,NA,
683,1065,Yongyi Gong,勇义宫,勇義宫,Yongyi Gong,504A Dunman Rd 439197,439197,504A DUNMAN ROAD,34886.04996,32394.72409,103.8951931,1.30924013,,,"金钱伯, 齐天大圣, 池府王爷, 张公圣君, 关帝圣君, 金王财神",福建省,福建省,,,0,NA,
648,995,Xinxing Tan ,新兴坛,新興壇,Xinxing Tan ,BLK 52 Toa Payoh Lor 6 #02-04 310052,310052,52 LORONG 6 TOA PAYOH,30132.68196,35602.31567,103.852482,1.33824914,,,,NA,NA,,,0,NA,
285,434,Jiutianxuannv Gong Sima Lu,九天玄女宫 四马路,九天玄女宮 四馬路,Jiu Tian Xuan Nv Gong Si Ma Lu,BLK 269 Queen  St #02-250  180269,180269,269 QUEEN STREET,30292.05034,31426.01392,103.8539137,1.30048014,,,,NA,NA,,,0,NA,
707,1120,Yunxian Gong,云仙宫,雲仙宮,Hoon Sian Keng,82 Changi Road 419716,419716,82 CHANGI ROAD,35529.07545,33206.8779,103.9009711,1.3165848,1947,,准提菩萨 ,NA,NA,,,0,NA,
681,1062,Yinzhendiangong Miao Ya Long,阴阵殿公庙 芽笼,廕陣殿公廟,Yin Zhen Dian Temple Association ,21 Lorong 34 Geylang 398218,398218,21 LORONG 34 GEYLANG,34080.83173,32853.70517,103.8879579,1.31339116,,6844 4134,齐天大圣,福建省,福建省,123，bukit merah view,,0,NA,
337,516,Longhua Zangyuan,龙华藏院 ,龍華藏院,Leong Wah Si Temple,67 Shrewsbury Road 307834,307834,67 SHREWSBURY ROAD,29662.61036,33409.92428,103.848258,1.31842196,,"6253 3532
6253 1432*",,NA,NA,, http://www.lhm.org.sg ,0,NA,
251,381,Jisheng Gong,集声宫,集聲宮,Jisheng Gong,397 Bt Batok West Ave 8 658964,658964,397 BUKIT BATOK WEST AVENUE 8,17619.08358,36585.96803,103.7400397,1.34714322,,,"董公真人, 朱林萧府大人公",NA,NA,Jurong 16th milestone,,1,"桂林聯合廟

1. 桂林聯合廟
2. 龍顯山宮
3. 石竹廟
4. 愛民宮
5. 金全法壇集聲宮
6. 金全法壇
7. 集聲宮
8. 臨江殿對山廟
9. 臨江殿
10. 對山廟",
539,833,Tiandi Dian,天地殿,天地殿,Tiandi Dian,BLK 672 Jalan Damai #09-23 410672,410672,672 JALAN DAMAI,36395.52599,34920.18728,103.9087571,1.33207913,,,,NA,NA,,,0,NA,
402,621,Pilitan Ayuni,霹雳坛  阿裕尼,霹靂壇  阿裕尼,Pili Tan  Aljunied,BLK 105 Aljunied Crescent #10-221 380105,380105,105 ALJUNIED CRESCENT,33501.39813,33525.7081,103.8827515,1.31946862,,,,NA,NA,,,0,NA,
543,839,Tiangong Tan Jinwentai Yuan,天公坛 金文泰园,天公壇 金文泰園,Tiangong Tan Jinwentai Yuan,62 Jurong West Street 41 649408,649408,62 JURONG WEST STREET 41,15402.4515,36834.73239,103.7201218,1.34939211,1980,"6569 4100
6569 4349",玉皇上帝,福建省,福建省 安溪县,"Tian Gong Tan: Clementi Park (Sunset Grove)
 Zhao Ling Gong： Jurong 10th milestone",,1,"
裕廊西聯合宮

1. 裕廊西聯合宮
2. 顯龍宮
3. 西海岸福德祠
4. 天公壇昭靈宮 
5. 天公壇
6. 昭靈宮 ",
622,953,Xian Dang Gong Da Bo Gong,贤当宫大伯公,賢當宮大伯公,Hiang Tong Keng Tua Pek Kong,93 Tampines Link 528744,528744,93 TAMPINES LINK,38636.58491,38823.15177,103.9288956,1.3673754,1911,6583 4908,感天大帝,潮州,潮州,Frankel Avenue in Siglap,,0,NA,
467,709,Sanjiang Gongci,三江公祠,叁江公祠,San Jiang Gong Ci Tp ,96 Depot Road 109668,109668,96 DEPOT ROAD,25917.26586,29337.55867,103.8146044,1.2815929,,,,NA,NA,,,0,NA,
346,526,Longshan Tang ,龙山堂,龍山堂,Long Shan Tang Temple ,9 / 11 Tessensohn Road  217647,217647,9 TESSENSOHN ROAD,30698.07675,33177.35269,103.8575622,1.31631859,,,,NA,NA,,,0,NA,
415,640,Puti Xiehui,菩提协会,菩提協會,The Bodhi Association,15 Lorong 10 Geylang 399046,399046,13 LORONG 10 GEYLANG,32955.08033,32631.9127,103.8778424,1.31138555,,6223 1566,,NA,NA,,,0,NA,
632,972,Xin Jia Po Dejiao Lian He Zong Hui,新加坡德教联合总会,新加坡德教聯合總會,The Singapore Federation of Moral Missions,17 Jalan Rajah 329138,329138,23 JALAN RAJAH,29649.17304,34438.26172,103.8481373,1.32772188,,"6251 5229 
6253 1037","太上道祖, 五教教主",广东省,广东省 潮州市,,,1,"靈隱寺新加坡德教聯合總會

1. 靈隱寺新加坡德教聯合總會
2. 新加坡德教聯合總會
3. 靈隱寺",
610,932,Wutian Si,武天寺,武天寺,Bo Tien Temple,6 Fourth Chin Bee Road 619708,619708,6 FOURTH CHIN BEE ROAD,15298.26895,34829.59312,103.7191865,1.33125833,,6262 6020,"武天佛祖, 释迦牟尼佛, 观世音菩萨",福建省,福建省,Jalan Gali Batu,"email: botiensg@singnet.com.sg
website: www.botien.org.sg",0,NA,
629,965,Xietian Gong Lingbao Dian,协天宫灵宝殿,協天宮靈寶殿,Hiap Tien Keng Leng Poh Tian,81 Tampines Link 528739,528739,81 TAMPINES LINK,38797.50244,38949.26487,103.9303416,1.36851586,1933,,关帝,NA,NA,Loyang,,0,NA,
605,926,Wuluobei Fu'an Dian,勿洛北福安殿,勿洛北福安殿,Wuluobei Fu'an Dian,"Blk 428, Bedok North Road #06-623 460428",460428,428 BEDOK NORTH ROAD,38498.13174,34639.4889,103.9276501,1.32953994,,6446 0245,关圣帝君,福建省,福建省,,,0,NA,
663,1028,Xuanyun Tan ,玄云坛,玄雲壇,Xuanyun Tan ,BLK 505 Jelapang Road #06-436 670505,670505,505 JELAPANG ROAD,20695.69867,40721.26617,103.7676839,1.38454227,,,,NA,NA,,,0,NA,
595,912,Wudamayan Mounifo Si,呼达嘛严牟尼佛寺,呼達嘛嚴牟尼佛寺,Uttamayanmuni Buddhist Temple ,32B Hong San Terrace 688785,688785,32B HONG SAN TERRACE,18263.81467,40068.37813,103.7458318,1.37863708,1962,6769 1751,释迦牟尼佛,泰国,泰国,32B Hong San Terrace,www.uttamayamuni.org,0,NA,
342,521,Longquan Yan,龙泉岩,龍泉岩,Longquan Yan,48 Ang Mo Kio Street 61 569162,569162,48 ANG MO KIO STREET 61,28916.55254,40324.89027,103.8415545,1.38095849,,6457 7757,"张公圣君, 清水祖师",福建省,福建省,,,1,"聚聖廟

1. 聚聖廟
2. 集福宮
3. 華堂府
4. 龍泉岩",
470,721,San Tong Zi Xing Tan ,三童子兴坛,叁童子興壇,San Tong Zi Xing Tan ,BLK 525 Bedok North St 3 #10-106 460525,460525,525 BEDOK NORTH STREET 3,38697.8961,35199.13872,103.9294453,1.33460114,,,,NA,NA,,,0,NA,
574,885,Tongshangong Shan Xifuzi,铜山宫山西夫子,銅山宮山西夫子,Tang Suahn Kiong San Soh Hoo Chu Temple,87A Henderson Rd 159543,159543,98 HENDERSON ROAD,26584.27354,29778.37184,103.8205977,1.28557949,,,关帝,福建省,福建省,,,0,NA,
689,1087,Yuhaitang Guanyin Jiuku Hui,玉海棠观音救苦会,玉海棠觀音救苦會,Jee Hai Tung Kwan Imm Welfare Society,30-32 Bedok Reservoir Road 479231,479231,32 BEDOK RESERVOIR ROAD,36312.29061,34827.4861,103.9080092,1.3312408,,9818 8018,观世音菩萨,福建省,福建省,Bukit Timah,,1,"德海宫

1. 德海宮
2. 玉海棠觀音救苦會
3. 崇德善堂",
727,1156,Zhi Yuan Fo Jiao Tu Xie Hui,志愿佛教徒协会 ,志願佛教徒協會,Society Of Buddhist Volunteers,26B Kim Keat Road 328844,328844,10 KIM KEAT ROAD,30167.97052,34016.344,103.852799,1.32390618,,6254 6737 ,,NA,NA,,,0,NA,
680,1058,Yinshan Dian,阴善殿,陰善殿,Yinshan Dian,BLK 3 Jalan Bukit Merah #11-5100 150003,150003,3 JALAN BUKIT MERAH,25071.02086,29950.22349,103.8070005,1.28713355,,,,NA,NA,Choa Chu Kang Avenue 3 (Opposite Haiinn Temple),,0,NA,
348,528,Longshanting Younuoshi,龙山亭 友诺士,龍山亭  友諾士,Longshanting Eunos,103 Eunos Road 5 409352,409352,103 EUNOS ROAD 5,34984.2926,33542.62136,103.8960761,1.31962128,,6747 2720,大伯公,福建省,福建省,,,1,"芽籠聯合宮

1. 芽籠聯合宮
2. 乾坤廟
3. 福德宮
4. 龍山亭",
454,693,Renci Guan,壬慈观,壬慈觀,Renci Guan,BLK 557 Ang Mo Kio Ave 10 #02-1874 560557,560557,557 ANG MO KIO AVENUE 10,30717.37332,39292.93073,103.8577361,1.3716257,,,,NA,NA,,,0,NA,
613,939,Xi He Bie Shu,西河别墅,西河別墅,Sai Ho Piat Su,777 Upper Serangoon Road 534645,534645,777 UPPER SERANGOON ROAD,33033.51182,37452.01998,103.8785479,1.35497686,1937,,妈祖,NA,NA,,,0,NA,
310,478,Lianxian Gong,莲显宫 ,蓮顯宫 ,Lian Xian Gong Temple,37 Geylang Lor 30 398370,398370,37 LORONG 30 GEYLANG,33928.93194,32692.33792,103.886593,1.31193184,,,莲花三太子,NA,NA,,,0,NA,
180,272,Guanlian Tan,观莲坛,關莲壇,Guanlian Tan,3 Geylang Lor 33 387973,387973,3 LORONG 33 GEYLANG,34050.92893,32996.27727,103.8876892,1.31468053,,,,NA,NA,,,0,NA,
222,337,Hanyang Dabogong,汉阳大伯公,漢陽大伯公,Hanyang Dabogong,25 Tampines Street 21 529394,529394,25 TAMPINES STREET 21,40970.459,37545.69215,103.9498665,1.3558216,,6783 0655,大伯公,福建省,福建省,,,1,"淡濱尼聯合宮

1. 淡濱尼聯合宮
2. 地萬大伯公
3. 福安殿
4. 慈靈宮
5. 九哩大伯公 aka 九哩福德正神
6. 濟陽堂
7. 吉星亭
8. 洛陽天宮壇
9 後池廳aka普庵古佛
10. 順興古廟
11. 新芭大伯公
12. 洛陽大伯公
13. 漢陽大伯公",
299,454,Kwan Sai Tuah Taoism Association,,,Kwan Sai Tuah Taoism Association,478 Sims Ave 387550,387550,478 SIMS AVENUE,34040.42409,33125.60231,103.8875948,1.31585011,,,,NA,NA,,,0,NA,
176,265,Gongtiandadi Si ,宫天大地寺,宮天大地寺,Gang Tian Da Di Temple ,26 Lorong 30 Geylang 398359,398359,26 LORONG 30 GEYLANG,33875.38419,32796.49401,103.8861118,1.3128738,,,,NA,NA,,,0,NA,
171,260,Gaolin Gong Hongmao Qiao,檺林宫 宏茂桥,檺林宮 宏茂橋,Kong Lim Kong Temple,791 Ang Mo Kio Ave 1 569974,569974,791 ANG MO KIO AVENUE 1,28604.47219,38704.97996,103.8387502,1.3663086,,,"朱、邢、李三王府大人, 杨府元帅",福建省,福建省 南安市 玉湖村,,,1,"宏茂橋聯合廟

1. 宏茂橋聯合廟
2. 龍山岩斗母宮
3. 檺林宮
4. 金英堂",
483,750,Shangfa Gongtan,上法公坛,上法公壇,Shangfa Gongtan,BLK540 Jurong West Ave 1 #01-1098 640540,640540,540 JURONG WEST AVENUE 1,14871.26143,36967.45138,103.7153486,1.35059214,,,玄天上帝,福建省,福建省,,,0,NA,
170,258,Gantiandadi Miao  Jialengqiaotou,加冷桥头感天大帝庙,加冷橋頭感天大帝廟,Kallang River Bridgehead Gan Tian Da Di Temple,17 Loongr Bachok 387787,387787,17 LORONG BACHOK,33148.21374,32928.08704,103.8795779,1.31406401,,,,NA,NA,,,0,NA,
501,783,Shutou Bogong Ji Guangjindian Lianhedian,树头伯公暨广进殿 联合殿,樹頭伯公暨廣進殿  聯合殿,Shutou Bogong Ji Guangjindian Lianhedian,"Blk 860A, Tampines Ave 5 #01-624 521859",521859,859A TAMPINES AVENUE 5,39656.21355,37461.75776,103.9380572,1.35506307,,,,NA,NA,,,1,"樹頭伯公暨廣进殿（聯合殿）

1. 樹頭伯公暨廣进殿（聯合殿）
2. 樹頭伯公
3. 廣進殿",
456,695,Rushi Wowen,如是我闻,如是我聞,Rushi Wowen,34 Lorong Kilat 598133,598133,34 LORONG KILAT,21257.78962,35962.57514,103.7727358,1.34150652,,,释迦牟尼佛,福建省,福建省,,,0,NA,
240,364,Huiyan Jingshe,慧严精舍,慧嚴精舍,The Maharajna Vihara,11 Lor 35 Geylang 387943,387943,11 LORONG 35 GEYLANG,34120.48194,33068.80305,103.8883142,1.31533642,,6440 4162,,NA,NA,,,0,NA,
223,338,Hangshan Gong,航善宫,航善宮,Hangshan Gong,35 Geylang Lor 24 398232,398232,35 LORONG 34 GEYLANG,34092.9977,32784.61725,103.8880672,1.31276635,,6748 2210,善才童子,福建省,福建省,,,0,NA,
220,335,Haiyin Xuefo Hui,海印学佛会,海印學佛會,Sagaramudra Buddhist Society,No 5 Lorong 29 Geylang 388060,388060,5 LORONG 29 GEYLANG,33801.02265,32945.4556,103.8854437,1.31422097,,6746 7582 ,释迦牟尼佛,众多方言,众多方言,,http://www.sagaramudra.org.sg ,0,NA,
156,241,Fude Tang Hele Lu,福德堂 合乐路,福德堂  合樂路,Hock Teck Tong  Havelock Road,534 Havelock Road 169636,169636,534 HAVELOCK ROAD,27929.62258,30236.56019,103.8326862,1.28972322,1932,,龟嶼大伯公 ,福建省,福建省,,,0,NA,
514,797,Yin Ji Cun Shui Wei Sheng Niang Miao,寅吉村水尾圣娘庙 ,寅吉村水尾聖娘廟,Yan Kit Village Chinese Temple,130 Mariam Way / 980 Upper Changi Road North 507078,507078,130 MARIAM WAY,43035.35432,37941.35702,103.9684211,1.35939887,,,水尾圣娘,海南省,海南省,,,0,NA,
590,905,Weisuda Chanxiu Zhongxin,伟苏达禅修中心,偉蘇達禪修中心, VISUDDHA MEDITATION CENTRE,107 Jalan Langgar Bedok  468559,468559,107 JALAN LANGGAR BEDOK,40886.49718,34189.42133,103.9491107,1.32546878,,9010 1663,,NA,NA,,,0,NA,
579,890,Wanfo Xianxi Tang,卍佛暹喜堂,卍佛暹喜堂,Wanfo Xianxi Tang,"BLK 326, Tah Ching Road #12-94  610329",610329,329 TAH CHING ROAD,15816.7497,35515.41753,103.723845,1.33746089,,,,NA,NA,,,0,NA,
620,947,Xitianfo Miao Lian He Miao,西天佛庙  联合庙,西天佛廟  聯合廟,See Thian Foh Temple  United Temple,557 Bukit Batok Street 23 659523,659523,557 BUKIT BATOK STREET 23,19533.67533,35809.82447,103.7572436,1.34012467,,,,NA,NA,,,1,"西天佛廟（聯合廟）

1. 西天佛廟（聯合廟）
2. 西天佛廟
3. 西天道廟",
437,670,Qiankun Miao ,乾坤庙,乾坤廟,Qiankun Miao ,103 Eunos Road 5 409352,409352,103 EUNOS ROAD 5,34984.2926,33542.62136,103.8960761,1.31962128,,6747 2720 ,"铁大元师, 玄天上帝, 哪吒",福建省,福建省,,,1,"芽籠聯合宮

1.芽籠聯合宮
2. 乾坤廟
3. 福德宮
4. 龍山亭",
729,1160,Zhongbao Tan Yinshi Fu,中宝坛阴世府,中寶壇陰世府,Tiong Poh Tuang Yim Say Hu ,BLK 702 West Coast Road #05-357 120702,120702,702 WEST COAST ROAD,19963.60322,32176.56833,103.7611078,1.30726693,,,,NA,NA,,,0,NA,
722,1141,Zhen Zhu Fang Shen Tan,珍珠坊神壇,珍珠坊神壇,People's Park Shrine,1 Park Road  059108,59108,1 PARK ROAD,29023.99341,29618.52495,103.8425196,1.28413391,,,"齐天大圣, 济公, 大伯公",NA,NA,,,0,NA,
713,1130,Zhaolingzu Miao,昭灵祖庙,昭靈祖廟,Cheow Leng Zhu Beo ,125 Owen Road 218929,218929,125B OWEN ROAD,30149.6856,32911.18261,103.8526346,1.31391149,1961,,三殿真君,福建省,福建省 莆田市 涵江区 鳌山七境,,,0,NA,
720,1138,Zhenren Gong,真人宫,真人宮,Chin Leng Keng Chinese Temple,98T Redhill Close 158900,158900,98T REDHILL CLOSE,26111.97592,29852.18676,103.8163539,1.28624702,1913,6473 7673,"保生大帝, 吴、许、孙真人",福建省,福建省,Henderson Road,,1,"真龍宮（联合宫）

1 真龍宮（联合宫）
2. 介穀殿
3. 真人宮
4. 龍山亭
5. 萬仙廟",
724,1147,Zhengjue Si ,正觉寺 ,正覺寺,Zheng Jue Si Temple,98 Lorong 23 Geylang 388397,388397,98 LORONG 23 GEYLANG,33348.34401,33315.59121,103.8813762,1.31756843,1951,6748 3279 ,释迦牟尼佛,福建省,福建省,,,0,NA,
714,1131,Zhaoling Gong,昭灵宫 ,昭靈宮 ,Zhaoling Gong,60 Jurong West Street 41 649407,649407,60 JURONG WEST STREET 41,15421.25128,36824.93591,103.7202907,1.34930352,,,,NA,NA,,,1,"
裕廊西聯合宮

1. 裕廊西聯合宮
2. 顯龍宮
3. 西海岸福德祠
4. 天公壇昭靈宮 
5. 天公壇
6. 昭靈宮 ",
715,1132,Zhaoying Ci  Qiong Ren,昭应祠  琼人,昭應祠  瓊人,Chow Eng Chee,177L Lorong 7 Toa Payoh 319318,319318,177L LORONG 7 TOA PAYOH,30577.16948,35642.10469,103.856476,1.33860895,1940,,一百零八兄弟,海南,海南,Jalan Rajah,,1,"大巴窑五合廟 

1. 大巴窑五合廟
2. 通興港亞佛律甘榜神會  
3. 聚天宮（飛天宮/潮閩人）
4. 山竹圓福德祠（潮人）
5. 昭應祠（瓊人）
6 華德善堂（合租昭應祠）
7. 李娘娘無極宮（瓊，退出）
   聚天宮接收，用為太歲殿）",
662,1024,Xuanwu Shan ,玄武山,玄武山,Xuanwu Shan ,BLK 236 Jurong East St 21 #08-344 600236,600236,236 JURONG EAST STREET 21,17851.52774,35841.09126,103.7421286,1.34040691,,,,NA,NA,,,0,NA,
431,660,Qixuan Tan ,齐玄坛,齊玄壇,Qixuan Tan ,BLK 128 Bukit Merah View #04-36 150128,150128,128 BUKIT MERAH VIEW,26888.03171,29454.08308,103.8233271,1.28264675,,,,NA,NA,,,0,NA,
351,532,Longxia Guan,龙霞馆,龍霞館,Longxia Guan,17 Yishun Avenue 9 768890,768890,17 YISHUN AVENUE 9,28910.94179,46211.69841,103.8415043,1.43419666,,,朱邢李三府大人,NA,NA,,,1,"義順鎮聯合廟

1. 義順鎮聯合廟
2. 鎮南廟廣壽堂
3. 鎮南廟
4. 廣壽堂
5. 元龍聖廟
6. 元壽堂
7. 新勝壇
8. 龍霞館
9. 順西宮水池林
10. 順西宮
11. 水池林",
166,254,Fuxing Dian ,福星殿,福星殿,Fo Xin Dian ,Blk 11 Upper Boon Keng Road #10-919 380011,380011,11 UPPER BOON KENG ROAD,32184.01334,32947.46127,103.870914,1.31423937,,,,NA,NA,,,0,NA,
392,607,Nanyun Gong,南云宫,南雲宮,Nanyun Gong,Blk 4 Ghin Moh Road #11-250 270004,270004,4 GHIM MOH ROAD,22977.86859,32831.8499,103.7881922,1.3131937,,,,NA,NA,,,0,NA,
269,412,Jinping Si  ,晋平寺,晉平寺,Chin Pin Tze Temple,"7 Bedok North Street 5, Ave 4 485874",485874,7 BEDOK NORTH STREET 5,40873.87674,35283.11696,103.9489977,1.33535976,,,泗川文佛,NA,NA,,,1,"石林晉山聯合宮

1. 石林晉山聯合宮
2. 檺林宮
3. 石霧洞 
4. 晉平寺善蓮山宮
5.  晉平寺
6. 善蓮山宮",
288,438,Jiuyingshengtian Gong ,九阴圣天宫,九陰圣天宮,Jiuyingshengtian Gong ,Blk 674A Jurong West St 65 #03-68 641674,641674,674A JURONG WEST STREET 65,13420.75424,36289.61111,103.7023153,1.34446134,,,,NA,NA,,,0,NA,
334,513,Longheshan Qizhaimiao Lianhemiao,龙合山七寨庙  联合庙,龍合山七寨廟  聯合廟,Leng Hup San Chee Chea Temple   United Temple,4 Teck Whye Lane 688800,688800,4 TECK WHYE LANE,19129.52946,40290.90929,103.7536108,1.38064984,1988,,,福建省,福建省 安溪县,,,1,"龍合山七寨廟（聯合廟）

1. 龍合山七寨廟（聯合廟）
1. 七寨廟（林厝港阿媽宮路）
2. 龍合山宮（萬禮路）",
440,675,Qingde Lou,庆德楼,慶德樓,Keng Teck Whay,32 Lorong 104 Changi Road 426576,426576,32 LORONG 104 CHANGI,35654.59187,33082.5284,103.9020989,1.3154602,1831,,,NA,NA,Keng Teck Whay Building,,0,NA,
254,388,Jiyun Ge Xingzhou Dejiao,济云阁 星洲德教,濟雲閣 星洲德教,"Chee Hoon Kog Moral Promotion Society, Singapore ",1 Jalan Bilai (off Bedok Road) 468854,468854,1 JALAN BILAL,41431.10965,33816.04828,103.9540041,1.3220919,,6441 0619,"济公活佛, 吕祖, 五教教主, 五方星君, 德德社诸佛仙尊",广东省,广东省 潮州市,,,0,NA,
625,956,Xianlong Gong,显龙宫,縣龍宮,Xianlong Gong,60 Jurong West Street 41 649407,649407,60 JURONG WEST STREET 41,15421.25128,36824.93591,103.7202907,1.34930352,,,感天大帝,福建省,福建省, Bukit Timah 10th milestone,,1,"
裕廊西聯合宮

1. 裕廊西聯合宮
2. 顯龍宮
3. 西海岸福德祠
4. 天公壇昭靈宮 
5. 天公壇
6. 昭靈宮 ",
559,861,Tianshengcifu Lianhemiao,天圣赐福联合庙,天聖賜福聯合廟,Tien Sen Sze Hock Combined Temple,146C Paya Lebar Road 409040,409040,146C PAYA LEBAR ROAD,34414.24413,34480.80322,103.8909541,1.32810598,1993,,,NA,NA,,,1,"天聖賜福聯合廟

1. 天聖賜福聯合廟
2. 天聖壇
3. 賜福宮",
645,989,Xin Jia Po Jinduandian Dao Jiao Xie Hui,新加坡金锻殿道教协会,新加坡金鍛殿道教協會,Jin Duan Dian Taoist Asscoiation,"Blk 681, Race Course Road #07-289 210681",210681,681 RACE COURSE ROAD,30443.28725,32890.08574,103.8552727,1.31372067,,6299 3079 ,洪钧老祖,NA,NA,,,0,NA,
336,515,Longhua Si,龙华寺,龍華寺,Longhua Si,67 Shrewbury Road (Off Moulmein Road) 307834,307834,67 SHREWSBURY ROAD,29662.61036,33409.92428,103.848258,1.31842196,,,,NA,NA,,,0,NA,
291,441,Jusheng Miao,聚圣庙,聚圣廟,Chu Sheng Temple,48 Ang Mo Kio Street 61 569162,569162,48 ANG MO KIO STREET 61,28916.55254,40324.89027,103.8415545,1.38095849,,,,NA,NA,,,1,"聚聖廟

1. 聚聖廟
2. 集福宮
3. 華堂府
4. 龍泉岩",
526,812,Shunzhong Tan Wuluo,顺忠坛 勿洛,順忠壇,Shun Zhong Tan  Bedok,3011 Bedok Industrial Park E #01-2012 489977,489977,3011 BEDOK INDUSTRIAL PARK E,40950.06361,35372.12841,103.9496823,1.33616471,,,,NA,NA,,,0,NA,
355,537,Longzhen Gong ,龙镇宫,龍鎮宮,Leng Tian Keng,489 Serangoon North Avenue 1 555891,555891,489 SERANGOON NORTH AVENUE 1,32376.69125,38979.59009,103.8726462,1.36879176,,,"赵大天君, 黑虎大将 ",NA,NA,,,1,"镇山天福宫

1. 镇山天福宫
2. 安山廟
3. 萬福宮
4. 石竹廟
5. 吉龍山廟
6. 龍鎮宮",
754,1201,Huayan Fo Xue Hui,华严佛学会,華嚴佛學會,Hua Yan Buddhist Society,280A Sim's Avenue  387515,387515,280 SIMS AVENUE,33589.90695,33040.43813,103.8835467,1.31508,,,,NA,NA,,,0,NA,
473,731,Shandi Miao,上帝庙,上帝廟,Shandi Miao,10 Marsiling Industrial Estate Road 3 739254,739254,10 MARSILING INDUSTRIAL ESTATE ROAD 3,22378.53336,46788.27081,103.7828043,1.43941042,,6367 4001,"玄天上帝, 济公活佛 ",福建省,福建省 安溪县,Woodland Village,,1,"上帝廟濟公壇（聯合廟）

1. 上帝廟濟公壇（聯合廟）
2. 濟公壇
3. 上帝廟",
685,1073,Yufengjiushan Gong Liurenxianshifa Tan,玉封九山宫六壬仙师法坛,玉封九山宮六壬仙師法壇,Yufengjiushan Gong Liurenxianshifa Tan,48 Enterprise Hub Toh Guan East #09-149 608586,608586,48 TOH GUAN ROAD EAST,19212.98873,35439.3053,103.7543622,1.33677373,,,,NA,NA,,,0,NA,
636,976,Xin Jia Po Fo Jiao Qing Nian Hongfa Tuan Fen Tuan,新加坡佛教青年弘法团  分团,新加坡佛教青年弘法團  分團,Singapore Buddhist Youth Mission  Branch,18 Vaughan Road  358105,358105,18 VAUGHAN ROAD,32228.35388,36668.64345,103.871313,1.34789241,,6284 0633 ,释迦牟尼佛,福建省,福建省,,,0,NA,
571,882,Tonghuai Miao Nantianmen,通淮庙 南天门,通淮廟 南天門,Tong Whye Temple,212 Jurong East Street 32 609474,609474,212 JURONG EAST STREET 32,17010.70943,36442.94454,103.7345731,1.34584956,1932,"6560 4656 
6560 5990","关圣帝君, 观世音菩萨, 福德正神",福建省,福建省 安溪县,Jurong Road's 11th milestone,,0,NA,
496,776,Shiniu Dong,石牛洞,石牛洞,Shi Niu Dong Temple,33 Geylang Lorong 24 398633,398633,33 LORONG 24 GEYLANG,33593.58538,32675.48473,103.8835797,1.31177949,1988,6296 6930,张公圣君,福建省,福建省,"11 Syed Aiwi Road #02-04, S'pore 207629",,1,"賜正宮石牛洞（聯合宮）

1. 賜正宮石牛洞（聯合宮）
2. 賜正宮
3. 石牛洞",
391,606,Nanynag Dejiao Zonghui Lianhemiao,南洋德教总会紫新阁  联合庙,南洋德教總會紫新閣  聯合廟,Nanyang Moral Uplifting General Society Che Sen Khor Moral Uplifting Society   United Temple,90 Cuscaden Road 249725,249725,90 CUSCADEN ROAD,27431.14543,31951.27071,103.8282072,1.30523045,,6738 1972,"太上老君, 五教教主",广东省,广东省 潮州市,,,1,"南洋德教總會紫新閣（聯合廟）

1. 南洋德教總會紫新閣（聯合廟）
2. 南洋德教總會
3. 紫新閣（星洲德教會）",
755,1202,Lengyan Fo Xue Hui,楞严佛学会,楞嚴佛學會,Shurangama Buddhist Society,203-B Lavender St 338763,338763,203 LAVENDER STREET,30956.19809,32939.87064,103.8598815,1.31417087,,,,NA,NA,,,0,NA,
444,679,Qinglonggong  Yalong,青龙宫 芽笼,青龍宮,Chi Leng Keng Geylang,193 Lorong 23 Geylang 388407,388407,193 LORONG 23 GEYLANG,33264.68706,33334.49689,103.8806245,1.31773942,,,,NA,NA,,,0,NA,
455,694,Rilian Zong,日蓮宗,日蓮宗,Nichiren Shoushu Buddhist Association,177 Sims Avenue 387493,387493,177 SIMS AVENUE,33158.33505,33007.90565,103.8796688,1.31478586,,,,NA,NA,,,0,NA,
274,418,Jinshui Guan,金水馆,金水館,Jin Shui Guan,6 Ang Mo Kio St 63 569112,569112,4 ANG MO KIO STREET 63,29709.88356,40834.47575,103.8486832,1.38556696,,,,NA,NA,,,0,NA,
209,318,Guangjin Dian,广进殿,廣进殿,Guang Jin Dian,"Blk 860A, Tampines Ave 5 #01-623 521860",521860,860A TAMPINES AVENUE 5,39722.22248,37505.77019,103.9386503,1.35546108,,6787 7723,大二三哥爷,福建省,福建省,,,1,"樹頭伯公暨廣进殿（聯合殿）

1. 樹頭伯公暨廣进殿（聯合殿）
2. 樹頭伯公
3. 廣進殿",
320,491,Linggang Dian ,灵罡殿,靈罡殿,Linggang Dian ,BLK 37 Jalan Rumah Tinggi  #06-405 150037,150037,37 JALAN RUMAH TINGGI,25315.07394,30181.9566,103.8091934,1.28922929,,,,NA,NA,,,0,NA,
208,316,Guanghua Si  Fojiao,广化寺  佛教,廣化寺  佛教,Kwang hua Buddhist Monastery ,87 Tampines Link 528742,528742,87 TAMPINES LINK,38732.06869,38884.99044,103.9297537,1.36793461,,6582 4971,释迦牟尼佛,众多方言,众多方言,,,0,NA,
525,811,Shunxing Gumiao Shilonggang,顺兴古庙 实龙岗,順興古廟,Shun Xing Gu Miao Serangoon,485 Serangoon North Avenue 1 555890,555890,485 SERANGOON NORTH AVENUE 1,32407.06287,38988.58237,103.8729191,1.36887308,,"6280 8669 
6282 485*",洪仙大帝,福建省,福建省,,,1,"玄夫仙廟

1.玄夫仙廟
2. 順興古廟
3. 七寨庙（静山路 / 甘榜山亭）
4. 龍山廟",
276,420,Jingming Foxue She,净名佛学社,淨名佛學社,Cheng Beng Buddhist Societ,20 Lorong 27A Geylang 388112,388112,20 LORONG 27A GEYLANG,33767.48754,33014.10081,103.8851424,1.31484178,,,释迦牟尼佛,众多方言,众多方言,,http://web.singnet.com.sg/~chengbbs/,1,Nil,
665,1030,Xuanzhong Tan,玄中坛,玄中壇,Xuanzhong Tan,BLK 105 Pasir Ris St 12 #03-99 510105,510105,105 PASIR RIS STREET 12,41824.2242,38940.78614,103.9575388,1.36843792,,,,NA,NA,,,0,NA,
577,888,Tuota Yuan ,托塔院 ,托塔院 ,Tuo Tat Yuan Pte Ltd,6 Lor 35 Geylang #01-01 387938,387938,6 LORONG 35 GEYLANG,34164.67964,33036.02409,103.8887113,1.31503997,,,,NA,NA,,http://tuotayuan.multiply.com/,0,NA,
678,1054,Yinfu Dian ,阴福殿,陰福殿,Yinfu Dian ,BLK 55 Lengkok Bahru #07-429 151055,151055,55 LENGKOK BAHRU,25788.24479,29985.18774,103.8134451,1.28744982,,,,NA,NA,,,0,NA,
370,559,Mingguang Tan,明光坛,明光壇,Mingguang Tan,BLK 683A Choa Chu Kang Crescent #01-404 681683,681683,683A CHOA CHU KANG CRESCENT,18226.15733,42856.83105,103.7454925,1.4038548,,,,NA,NA,,,0,NA,
323,497,Lingshan Si ,灵山寺,靈山寺,Ling Shan Temple ,27 Lorong 12 Geylang 399004,399004,27 LORONG 12 GEYLANG,33051.37801,32546.29332,103.8787077,1.31061122,,,,NA,NA,Havelock Road,,0,NA,
175,264,Gongdelin Fosi,功德林佛寺,功德林佛寺,Sattha Puchaiyaram Buddhit Temple ,395 Bukit Batok West Avenue 8 658963,658963,395 BUKIT BATOK WEST AVENUE 8,17659.26793,36567.67282,103.7404007,1.34697778,,,释迦牟尼佛,柬埔寨,柬埔寨,,,0,NA,
322,495,Lingshangong shi ,灵山宫寺,靈山宮寺,Leang San King Temple ,55 Lorong Puntong 576442,576442,55 LORONG PUNTONG,27769.10517,38186.31835,103.8312438,1.36161802,,,,NA,NA,,,0,NA,
550,848,Tianjun Fu,天君府,天君府,Tian Jun Temple,"3 Tebing Lane, Punggol East  #01-02 828849",828849,3 TEBING LANE,37147.07258,41577.24233,103.9155122,1.39228288,1991,,关帝圣君,福建省,福建省,MacKenzie Road,,1,"榜鵝聯合廟

1. 榜鵝聯合廟
2. 聖家廟
3. 天君府
4. 天慈宮",
280,425,Jiufengyan Tonghuai Miao,九峰岩通淮庙  ,九峰岩通淮廟  ,Jiufengyan Tonghuai Miao,691 Geylang Rd #04-01 389684,389684,691 GEYLANG ROAD,34224.52532,33001.82778,103.8892491,1.3147307,,,三代祖师,NA,NA,,,0,NA,
664,1029,Xuanyuntan Dao Jiao Hui,玄云坛道教会,玄雲壇道教會,Xuanyuntan Dao Jiao Hui,61B Lorong 27 Geylang Rd 388186,388186,61 LORONG 27 GEYLANG,33605.92785,33137.02154,103.8836907,1.31595346,1970,"9781 8368
9147 3351",玄天上帝,福建省,福建省,51A Lorong Chuang,,0,NA,
347,527,Longshanting Hongshan,龙山亭 红山,龍山亭  紅山,Longshanting Red Hill,98T Redhill Close 158900,158900,98T REDHILL CLOSE,26111.97592,29852.18676,103.8163539,1.28624702,1894,,大伯公,福建省,福建省,Henderson Road,,1,"真龍宮（联合宫）

1 真龍宮（联合宫）
2. 介穀殿
3. 真人宮
4. 龍山亭
5. 萬仙廟",
601,920,Wujibadu Lianhegong,武吉巴督联合宫,武吉巴督聯合宮,Bukit Batok Joint Temple,8 Bukit Batok Street 21 659631,659631,8 BUKIT BATOK STREET 21,18834.17178,36492.36296,103.750958,1.34629709,,,,NA,NA,,,1,"武吉巴督聯合宮

1. 武吉巴督聯合宮
2. 五雷宮
3. 東天宮",
311,480,Lianyin Dian ,莲阴殿,蓮陰殿,Lianyin Dian ,BLK 22 Havelock Road #04-689 160022,160022,22 HAVELOCK ROAD,27499.81277,30128.50879,103.8288242,1.28874604,,,,NA,NA,,,0,NA,
297,448,Kongzhong Fu ,孔中府,孔中府,Kongzhong Fu ,BLK 916 Jurong West St 91 #06-172 640916,640916,916 JURONG WEST STREET 91,11807.06394,35873.04275,103.6878156,1.34069323,,,,NA,NA,,,0,NA,
647,993,Xinsheng Tan,新胜坛,新勝壇,Xinsheng Tan,17 Yishun Avenue 9 768890,768890,17 YISHUN AVENUE 9,28910.94179,46211.69841,103.8415043,1.43419666,1920,,关圣帝君,NA,NA,Yishun,,1,"義順鎮聯合廟

1. 義順鎮聯合廟
2. 鎮南廟廣壽堂
3. 鎮南廟
4. 廣壽堂
5. 元龍聖廟
6. 元壽堂
7. 新勝壇
8. 龍霞館
9. 順西宮水池林
10. 順西宮
11. 水池林",
410,634,Puping Si,普平寺,普平寺,Chin Pin Tze ,BLK 924 Tampines Street 91 #08-258 520925,520925,925 TAMPINES STREET 91,39980.40611,36506.4103,103.9409699,1.34642314,,,"泗洲文佛, 善才童子",NA,NA,,,1,"普平寺善聯山宮

1. 普平寺善聯山宮
2. 普平寺
3. 善聯山",
305,465,Lianguan Gong ,莲关宫,蓮關宮,Lianguan Gong ,BLK 242 Bukit Batok Ave 4 #10-194 650242,650242,242 BUKIT BATOK EAST AVENUE 5,19421.28582,37007.89062,103.7562334,1.35095951,,,包公,NA,NA,,,0,NA,
497,778,Shiwu Dong,石雾洞 ,石霧洞 ,Cheo Bu Tong Temple,"11 Bedok North Street 5, Ave 4 485876",485876,11 BEDOK NORTH STREET 5,40873.34699,35283.39661,103.948993,1.33536229,1800,6243 3187,"张公圣君, 章公圣君, 肖公圣君",福建省,福建省泉州市德化县 石牛山,"Old Upper Changi Road, Village Chai Chee",,1,"石林晉山聯合宮

1. 石林晉山聯合宮
2. 檺林宮
3. 石霧洞 
4. 晉平寺善蓮山宮
5.  晉平寺
6. 善蓮山宮",
314,483,Linjiang Dian Duishan Miao,临江殿对山庙,臨江殿對山廟,Linjiang Dian Duishan Miao,"397 Bukit Batok West Avenue 8, Singapore
Tel: 6561 4171, 6560 3651 658964",658964,397 BUKIT BATOK WEST AVENUE 8,17619.08358,36585.96803,103.7400397,1.34714322,1937,,,福建省,福建省 安溪县,Lorong Kapong (off Jalan Bahar),,1,"桂林聯合廟

1. 桂林聯合廟
2. 龍顯山宮
3. 石竹廟
4. 愛民宮
5. 金全法壇集聲宮
6. 金全法壇
7. 集聲宮
8. 臨江殿對山廟
9. 臨江殿
10. 對山廟",
312,481,Lianyin Tan,莲音坛,蓮音壇,Liam Yim Tham,Blk 178 Bukit Batok West Ave 8 650178,650178,178 BUKIT BATOK WEST AVENUE 8,17904.67121,36465.58327,103.7426059,1.34605461,,,,NA,NA,,,0,NA,
179,271,Guanji Ge,观济阁,觀濟閣,Kuan Ji Ke,"Blk 348, #11-1064 Ubi Avenue 1 400348",400348,348 UBI AVENUE 1,35479.67404,34264.57634,103.9005275,1.32615026,,6746 3297,"张天师, 六壬仙师, 太上老君",NA,NA,,,0,NA,
551,849,Tiankong Miao ,天空庙,天空廟,Tian Kong Temple ,7030 Ang Mo Kio Avenue 5 569880,569880,7030 ANG MO KIO AVENUE 5,32700.66915,39939.09365,103.8755575,1.37746912,1983,,玉皇上帝,福建省,福建省,Toa Payoh Lorong 8,,0,NA,
318,489,Lingci Xinggong,灵慈行宫,靈慈行宮,Lingci Xinggong,53 Truro Road 217590,217590,53 TRURO ROAD,29727.59445,32963.71309,103.8488419,1.31438658,,,"天上圣母, 张公圣君, 库司大王",福建省,福建省 莆田市 萩芦镇 洪度七境村,,,0,NA,
753,1200,,海印古寺,海印古寺,Hai Inn Temple,"No. 33 Bricklands Road
 (Off Choa Chu Kang Road Ave 3) 688254",688254,33 BRICKLAND ROAD,16996.90132,39786.30304,103.7344478,1.37608565,,,,NA,NA,,,0,NA,
182,276,Guanshan Dian,观山殿,觀山殿,Guanshan Dian,741 Jurong Wes Street 42 649369,649369,741 JURONG WEST STREET 42,15830.9311,37229.01943,103.7239718,1.35295807,1954,,"朱邢李三王府大人, 清水祖师, 董宫真人",NA,NA,Jurong Road 10th milestone,,1,"裕廊總宮

1. 裕廊總宮
2. 觀山殿
3. 龍鬚岩
4. 瓊瑤教邸
5. 靈晉宮
6. 水溝館",
275,419,Jinying Tang,金英堂,金英堂,Jin Ying Tang,791 Ang Mo Kio Ave 1 569974,569974,791 ANG MO KIO AVENUE 1,28604.47219,38704.97996,103.8387502,1.3663086,1983,,金英祖师,NA,NA,,,1,"宏茂橋聯合廟

1. 宏茂橋聯合廟
2. 龍山岩斗母宮
3. 檺林宮
4. 金英堂",
261,399,Jinfeng Miao Sanbao Foguang Si Lianhemiao,金凤庙三宝佛光寺  联合庙,金鳳廟三寶佛光寺 聯合廟,Kim Hong Temple Lord Buddha Temple   United temple,24 Arumugam Road 409963,409963,24 ARUMUGAM ROAD,34520.48043,34214.0173,103.8919086,1.32569324,,,,NA,NA,,,1,"金鳳廟三寶佛光寺（聯合廟）

1. 金鳳廟三寶佛光寺（聯合廟）
2. 三寶佛光寺
2. 金鳳廟",
531,821,Taiyang Gong ,太阳宫,太陽宮,Tai Yeong Kon Temple,85A Silat Road  168851,168851,85A SILAT ROAD,27503.33284,28892.39596,103.8288558,1.27756707,1947,,太阳公,众多方言,众多方言,,,0,NA,
397,613,Zangchuan  Ningmaba Gatuo Foxuehui,藏传  宁玛巴噶陀佛学会 ,藏傳  寧瑪巴噶陀佛學會 ,NYINGMA KATHOK BUDDHIST CENTRE ,397 Guillemard Road  399792,399792,397 GUILLEMARD ROAD,34130.54877,32693.79995,103.8884046,1.31194502,,6291 0330,,NA,NA,, http://www.kathok.org.sg,0,NA,
390,605,Nanynag Dejiao Zonghui,南洋德教总会,南洋德教總會,Nanyang Moral Uplifting General Society,90 Cuscaden Road 249725,249725,90 CUSCADEN ROAD,27431.14543,31951.27071,103.8282072,1.30523045,,6737 1972,"太上老君, 五教教主",广东省,广东省 潮州市,,,1,"南洋德教總會紫新閣（聯合廟）

1. 南洋德教總會紫新閣（聯合廟）
2. 南洋德教總會
3. 紫新閣（星洲德教會）",
568,879,Tiannan Tang Xianyuan Daotang,天南堂显源道堂,天南堂顯源道堂,Kong Leap Thiam Lim Tua Temple ,39 Lorong 34 Geylang  398233,398233,39 LORONG 34 GEYLANG,34095.25966,32772.77872,103.8880875,1.31265928,,,,NA,NA,,,0,NA,
371,562,Mushan Gong ,木山宫,木山宮,Mushan Gong ,21 Bangkit Road  679971,679971,21 BANGKIT ROAD,21365.9614,40018.4573,103.7737069,1.37818648,,,,NA,NA,,,1,"正華慈聖宮

1. 正華慈聖宮
2. 慈蓮堂
3. 木山聖母宮
4. 木山宮
5. 忠義殿",
486,754,Shengjun Miao ,圣君庙,聖君廟,Shengjun Miao ,BLK 525 Hougang  Ave 8 #01-169 530525,530525,525 HOUGANG AVENUE 6,34460.06623,39646.56717,103.8913669,1.37482328,,,,NA,NA,,,0,NA,
737,1175,Zhongyi Guan,忠义馆,忠義館,Zhongyi Guan,25 Serangoon North Avenue 3 555862,555862,21 SERANGOON NORTH AVENUE 3,32096.79969,39464.19785,103.8701313,1.37317442,1901,6481 9531,关帝圣君,福建省,福建省,De Ji Yuan (Hougang),,1,"忠義天明廟

1. 忠義天明廟
2. 廣明堂
3. 午峰岩/午峰岩宮
4. 忠義館",
368,555,Minwangshi Zongci,闽王氏宗祠,閩王氏宗祠,Seh Ong Charity ,560 Bukit Batok Street 23 658115,658115,560 BUKIT BATOK STREET 23,19084.65333,35920.29319,103.7532089,1.34112357,,,开漳圣王,NA,NA,,,0,NA,
743,1184,Zhumengjiayu Fo Jiao Zhong Xin,朱孟迦育佛教中心,朱孟迦育佛教中心,Zumang Kalyud Buddhist Ctr ,BLK 148 Silat  Ave #12-06 160148,160148,148 SILAT AVENUE,27729.04014,28816.7718,103.8308839,1.27688315,,,"竹林娘娘, 圣母娘娘, 皇母娘娘",NA,NA,,,0,NA,
204,310,Guanyinting Foshi,观音亭佛寺,觀音亭佛寺,Kwan Yam Theng Budh Tp ,245 Alexandra Road 159933,159933,245 ALEXANDRA ROAD,25650.44892,30473.25074,103.8122069,1.29186368,,,,NA,NA,,,0,NA,
174,263,Gean Guan,葛岸馆,葛岸館,Kueh Hua Kwan ,46 Ang Mo Kio Street 61 569161,569161,46 ANG MO KIO STREET 61,28925.01586,40303.93732,103.8416305,1.38076899,,,,福建省,福建省南安市 英都,,,1,"水溝館葛岸館（聯合館）

1. 水溝館葛岸館（聯合館）
2. 水溝館
3. 葛岸館",
362,544,Huiyan Foxuehui,慧严佛学会,慧嚴佛學會,Huiyan Foxuehui,11 Lorong 35 Geylang 387943,387943,11 LORONG 35 GEYLANG,34120.48194,33068.80305,103.8883142,1.31533642,,6748 6625,,NA,NA,,,0,NA,
361,543,Luoyang Tiangong Tan,洛阳天公坛,洛陽天公壇,Luoyang Tiangong Tan,25 Tampines Street 21 529394,529394,25 TAMPINES STREET 21,40970.459,37545.69215,103.9498665,1.3558216,1940,6783 0655,玉皇上帝,福建省,福建省,Tampines 9th milestone,,1,"淡濱尼聯合宮

1. 淡濱尼聯合宮
2. 地萬大伯公
3. 福安殿
4. 慈靈宮
5. 九哩大伯公 aka 九哩福德正神
6. 濟陽堂
7. 吉星亭
8. 洛陽天宮壇
9 後池廳aka普庵古佛
10. 順興古廟
11. 新芭大伯公
12. 洛陽大伯公
13. 漢陽大伯公",
262,400,Jinfo Sanbao Tan,金佛三宝坛,金佛三寶壇,Jinfo Sanbao Tan,Blk 472 Segar Road #08-258 670472,670472,472 SEGAR ROAD,21239.74436,41093.74519,103.7725725,1.38791096,,"6310 2115 
9651 6160",释迦牟尼佛,福建省,福建省,,,0,NA,
313,482,Linjiang Dian,临江殿,臨江殿,Linjiang Dian,399 Bt Batok West Ave 8 658964,658964,397 BUKIT BATOK WEST AVENUE 8,17619.08358,36585.96803,103.7400397,1.34714322,,,王爷：朱、邢、李三府大人,NA,NA,,,1,"桂林聯合廟

1. 桂林聯合廟
2. 龍顯山宮
3. 石竹廟
4. 愛民宮
5. 金全法壇集聲宮
6. 金全法壇
7. 集聲宮
8. 臨江殿對山廟
9. 臨江殿
10. 對山廟",
699,1103,Yuanlongsheng Miao,元龙圣庙,元龍聖廟,Guan Loong Sheng Temple,17 Yishun Avenue 9 768890,768890,17 YISHUN AVENUE 9,28910.94179,46211.69841,103.8415043,1.43419666,,6757 8000,,福建省,福建省,"Yuan Shou Tan：Yishun
Xin Sheng Tan：Yishun
Long Xi Guan：Yio Chu Kang",,1,"義順鎮聯合廟

1. 義順鎮聯合廟
2. 鎮南廟廣壽堂
3. 鎮南廟
4. 廣壽堂
5. 元龍聖廟
6. 元壽堂
7. 新勝壇
8. 龍霞館
9. 順西宮水池林
10. 順西宮
11. 水池林",
474,732,Shanfa Dian ,善法殿,善法殿,Shanfa Dian ,BLK 13 NO 682 Geylang Lorong 3  389042,389042,682 LORONG 3 GEYLANG,32448.07741,33389.53707,103.8732868,1.31823731,,,王爷：朱、邢、李大人,福建省,福建省,Sembawang Blk 3.,,0,NA,
687,1077,Yufengnanfuxuanshan Miao,玉封南府玄善庙,玉封南府玄善廟,Yufengnanfuxuanshan Miao,2 Third Lok Yang Rd  627997,627997,2 THIRD LOK YANG ROAD,12055.15695,34134.35469,103.6900457,1.32496933,,,,NA,NA,,,0,NA,
752,1199,Haiyn Gu Si,佛教曼荼罗学会,佛教曼荼羅學會,Buddha Dhamma Mandala Society,567-A Balestier Road 329884,329884,567 BALESTIER ROAD,29224.93644,34292.52546,103.8443253,1.32640392,,,,NA,NA,,,0,NA,
253,386,Jiyang Tang,济阳堂,濟陽堂,Jiyang Tang,25 Tampines Street 21 529394,529394,25 TAMPINES STREET 21,40970.459,37545.69215,103.9498665,1.3558216,1920,6784 0655,蔡府王爷,福建省,福建省 厦门市 同安区,Havelock Road,,1,"淡濱尼聯合宮

1. 淡濱尼聯合宮
2. 地萬大伯公
3. 福安殿
4. 慈靈宮
5. 九哩大伯公 aka 九哩福德正神
6. 濟陽堂
7. 吉星亭
8. 洛陽天宮壇
9 後池廳aka普庵古佛
10. 順興古廟
11. 新芭大伯公
12. 洛陽大伯公
13. 漢陽大伯公",
407,631,Puji Si ,普济寺,普濟寺,Poh Jay Buddhist Research Institue,66 Lorong G Telok Kurau 426248,426248,66 LORONG G TELOK KURAU,36659.39531,33271.89886,103.9111277,1.31717253,,6447 2387 ,释迦牟尼佛,福建省,福建省,,,0,NA,
151,235,Fude Ci Haichun,福德祠 海唇,福德祠 海唇,Hock Teck See Temple Fuk Tak Chi,76 Telok Ayer Street 048464,48464,76 TELOK AYER STREET,29708.08428,29496.8268,103.8486664,1.28303328,,,大伯公,广东省,广东省 广州市 惠州市 肇庆市,,,0,NA,
384,583,Nanyin Tan ,南音坛,南音壇,Nam Im Tuan Temple ,BLK 547 Serangoon North Ave 3 #12-152 550547,550547,547 SERANGOON NORTH AVENUE 3,32153.94779,39528.07906,103.8706448,1.37375213,,,,NA,NA,,,0,NA,
451,690,Quansheng Gong,全盛宫,全盛宮,Feng Shan Tang Jin Fa Dian Quan Sheng Gong,"4 \ 6 \ 8 Ang Mo Kio St 63 Avenue 9, Singapore 569112",569112,4 ANG MO KIO STREET 63,29709.88356,40834.47575,103.8486832,1.38556696,,6482 0040,余府大人,福建省,福建省,Yio Chu Kang's Lak Xun (Liuxun) Village,,0,NA,
257,394,Jiegu Dian,介谷殿,介穀殿,Kai Kok Tian,98T Redhill Close 158900,158900,98T REDHILL CLOSE,26111.97592,29852.18676,103.8163539,1.28624702,1900,,五谷仙帝,福建省,福建省 泉州市 同安区 新玗金丙村,Jalan Membina,,1,"真龍宮（联合宫）

1 真龍宮（联合宫）
2. 介穀殿
3. 真人宮
4. 龍山亭
5. 萬仙廟",
200,304,Guanyin Tang Danmeiling Lu,观音堂 淡美岭路,觀音堂 淡美嶺路,Kuan Im Kuan Ti Kong Temple,205 Joo Chiat Road 427476,427476,205 JOO CHIAT ROAD,35548.1362,32677.24691,103.9011423,1.31179501,,,观世音菩萨,NA,NA,,,0,NA,
631,969,Xinba Dabogong,新芭大伯公,新芭大伯公,Xinba Dabogong,25 Tampines Street 21 529394,529394,25 TAMPINES STREET 21,40970.459,37545.69215,103.9498665,1.3558216,,6783 0655 ,大伯公,福建省,福建省,,,1,"淡濱尼聯合宮

1. 淡濱尼聯合宮
2. 地萬大伯公
3. 福安殿
4. 慈靈宮
5. 九哩大伯公 aka 九哩福德正神
6. 濟陽堂
7. 吉星亭
8. 洛陽天宮壇
9 後池廳aka普庵古佛
10. 順興古廟
11. 新芭大伯公
12. 洛陽大伯公
13. 漢陽大伯公",
356,538,Longxuyan Jinshuiguan,龙须岩金水馆,龍須岩金水館,Longxuyan Jinshuiguan,4 Ang Mo Kio Street 63 Avenue 9 569112,569112,4 ANG MO KIO STREET 63,29709.88356,40834.47575,103.8486832,1.38556696,,,"大德禅师, 普庵佛祖",NA,NA,,,0,NA,
153,237,Fude Ci Lvye Ting Gonghui,福德祠緑野亭公会,福德祠緑野亭公會,Fudeci Lvyeting Gonghui,17 Geylang Lorong 11 388709,388709,17 LORONG 11 GEYLANG,32842.85661,32810.00389,103.8768341,1.31299616,,,,NA,NA,,,0,NA,
708,1123,Zang Mi Fo Xue Yan Jiu Hui,藏密佛学研究会 ,藏密佛學研究會,Tibetan Buddhist Studies Society,"38-B Lorong 23, Geylang  388372",388372,38 LORONG 23 GEYLANG,33360.86996,32959.67879,103.8814887,1.31434968,,6742 4438,释迦牟尼佛,众多方言,众多方言,,,0,NA,
233,355,Hualian Gong,花莲宫,花蓮宮,Huay Lian Keng,15 Lorong 25A Geylang 388227,388227,15 LORONG 25A GEYLANG,33520.12623,32921.58073,103.8829197,1.31400511,1993,,哪吒,NA,NA,,,0,NA,
547,843,Tianhou Hui  Jinbangshan Ting,金榜山亭天后会,金榜山亭天后會,Kampong San Teng Tien How Assn,99 Sin Ming Industrial Estate Sector B  575660,575660,99 SECTOR B SIN MING INDUSTRIAL ESTATE,28783.25906,37773.98031,103.8403567,1.35788897,1940,,妈祖,NA,NA,former Cantonese cemetery of Kwong Wai Siew Peck San Theng,,1,"湯申廟（聯合廟）

1. 湯申廟（聯合廟）
2. 華光大帝廟
3. 蓮花壇
4. 金榜山亭天后會",
379,573,Nanfu Xuanshan Miao,南府玄善庙,南府玄善廟,Nanfu Xuanshan Miao,BLK 853 Jurong West St 81 #08-323 640853,640853,853 JURONG WEST STREET 81,12393.82073,36589.12516,103.6930875,1.34716951,,,,NA,NA,,,0,NA,
405,627,Puguan Tang,普觀堂,普觀堂,Pu Guan Tang Buddhist Society,5 Geylang Lor 9 388753,388753,5 LORONG 9 GEYLANG,32784.17731,32759.8456,103.8763068,1.31254255,,,,NA,NA,,,0,NA,
168,256,Fuzhi Xiehui,福智协会,福智協會,Bliss and Wisdom Society,23 Lorong 29 Geylang # 04-02 388072,388072,23 LORONG 29 GEYLANG,33814.95482,33027.0325,103.8855689,1.31495872,,,,NA,NA,,,0,NA,
556,857,Tianlong Tan,天龙坛,天龍壇,Tien Loong Thong,448 Race Course Road 218692,218692,448 RACE COURSE ROAD,30763.53411,33142.77631,103.8581503,1.31600589,,,黑面大圣,NA,NA,,,0,NA,
292,442,Jutian Gong,聚天宫,聚天宫,Chee Tian Keng Temple ,177P Lorong 7 Toa Payoh 319318,319318,177L LORONG 7 TOA PAYOH,30577.16948,35642.10469,103.856476,1.33860895,1900,6256 0554,大伯公,众多方言,众多方言,Boon Teck Road,,1,"大巴窑五合廟

1. 大巴窑五合廟
2. 通興港亞佛律甘榜神會  
3. 聚天宮（飛天宮/潮閩人）
4. 山竹圓福德祠（粵人）
5. 昭應祠（瓊人）
6 華德善堂（合租昭應祠）
7. 李娘娘無極宮（瓊，退出）
   聚天宮接收，用為太歲殿）",
237,359,Huayanfo Xuehui,华严佛学会 ,華嚴佛學會,Hua Yan Buddhist Society,280A Sim's Avenue  387515,387515,280 SIMS AVENUE,33589.90695,33040.43813,103.8835467,1.31508,,6844 2800 ,,NA,NA,,,0,NA,
364,548,Miandian Yufo Si,緬甸玉佛寺,緬甸玉佛寺,Burmese Buddhist Temple,14 Tai Gin Road 327873,327873,14 TAI GIN ROAD,29515.83655,34517.20095,103.8469392,1.32843579,,6251 1717,,緬甸,緬甸,,http://www.bbt.org.sg ,0,NA,
487,758,Shengfang Lianhemiao,盛港联合庙,盛港聯合廟,Sengkang Joint Temple,"80 Rivervale Crescent, Sengkang New Town 545087",545087,80 RIVERVALE CRESCENT,36206.30472,41229.58551,103.9070586,1.38913908,,,,NA,NA,,,1,"盛港聯合廟

1. 盛港聯合廟
2. 天后宮（半港）
3. 崇義廟（萬興山）",
500,782,Shutou Bogong,树头伯公,樹頭伯公,Shutou Bogong,"Blk 860A, Tampines Ave 5 #01-623 521860",521860,860A TAMPINES AVENUE 5,39722.22248,37505.77019,103.9386503,1.35546108,,6787 7723,"大伯公, 观世音菩萨",福建省,福建省,,,1,"樹頭伯公暨廣进殿（聯合殿）

1. 樹頭伯公暨廣进殿（聯合殿）
2. 樹頭伯公
3. 廣進殿",
196,299,Guanyinshan Miao ,观音山庙,觀音山廟,Kuan Yin Shan Temple ,396 / 398 Dunearn Road 289606,289606,398 DUNEARN ROAD,25552.25465,34109.19725,103.8113243,1.32474589,,6466 0217 ,,NA,NA,,,0,NA,
218,333,Haiyin Jingshe,海印精舍,海印精舍,Sagaramudra Buddhist Hermitage,574 Changi Road 419944,419944,574 CHANGI ROAD,37537.11968,33686.29455,103.9190146,1.32091992,,6243 9559,释迦牟尼佛,众多方言,众多方言,,,0,NA,
748,1192,Zijing Ge  Dejiao Hui,紫经阁  德教会,紫經閣  德教會,"Zi Jing Ge Moral Uplifting Society, Singapore",5 Bukit Pasoh Road 089819,89819,5 BUKIT PASOH ROAD,28822.26035,29012.55883,103.8407069,1.27865377,1990,,太上老君,NA,NA,,,0,NA,
376,569,Nandao Tianxin Dong,南岛天心洞,南島天心洞,Nandao Tianxin Dong,399A Guillemard Rd 399793,399793,399 GUILLEMARD ROAD,34137.14798,32695.0584,103.8884639,1.3119564,,,,NA,NA,,,0,NA,
226,344,Hongmao Qiao Lianhemiao,宏茂桥联合庙,宏茂橋聯合廟,Ang Mo Kio United Temple,791 Ang Mo Kio Avenue 1 569974,569974,791 ANG MO KIO AVENUE 1,28604.47219,38704.97996,103.8387502,1.3663086,,,,NA,NA,,,1,"宏茂橋聯合廟

1. 宏茂橋聯合廟
2. 龍山岩斗母宮
3. 檺林宮
4. 金英堂",
749,1193,Zixuan Ge  Dejiao Hui,紫玄阁  德教会,紫玄閣  德教會,Che Hian Khor Moral Uplifting Society,39 Jurong West Avenue 1 649518,649518,39 JURONG WEST AVENUE 1,15569.86175,36986.42269,103.721626,1.35076401,1980,,太上老君,NA,NA,5th floor of a shophouse at 44-46 South Bridge Road,,0,NA,
515,799,Shungong Dian ,顺宫殿,順宮殿,Shungong Dian ,BLK 163 Ang Mo Kio Ave 4 #01-450 560163,560163,163 ANG MO KIO AVENUE 4,28540.62379,39505.53499,103.8381765,1.37354854,,,,NA,NA,,,0,NA,
349,529,Longshanyan Doumugong,龙山岩斗母宫,龍山岩斗母宮,Leng San Giam Dou Mu Gong,791 Ang Mo Kio Ave 1 569974,569974,791 ANG MO KIO AVENUE 1,28604.47219,38704.97996,103.8387502,1.3663086,1960,6452 1825,"张公圣君, 九皇五帝",NA,NA,Cheng San Village (aka Cheng Sua Lai),,1,"宏茂橋聯合廟

1. 宏茂橋聯合廟
2. 龍山岩斗母宮
3. 檺林宮
4. 金英堂",
363,546,Maoshan Tianyin Fatan Hengfo Si,茅山天音法坛恒佛寺,茅山天音法壇恆佛寺,Maoshan Tianyin Fatan Hengfo Si,370 Race Course Road 218640,218640,370 RACE COURSE ROAD,30628.49387,33014.15333,103.8569369,1.31484268,,6298 1030,"观世音菩萨, 释迦牟尼佛, 太上老君, 张法雄祖师",NA,NA,,,0,NA,
309,473,Liansheng Gong,莲圣宫,蓮圣宮,Liansheng Gong,Blk 4 Toa Payoh Lorong 7 #11-129 310004,310004,4 LORONG 7 TOA PAYOH,30473.12467,35690.29795,103.8555411,1.3390448,,,,NA,NA,,,0,NA,
572,883,Tongjing Shantang Chengshan She,同敬善堂诚善社,同敬善堂誠善社,Thong Kheng Charitable Institution,14 Lorong 29 Geylang 388068,388068,14 LORONG 29 GEYLANG,33877.82242,33007.54358,103.8861338,1.31478246,1943,,宋大峰祖师,NA,NA,Kallang Road ,,0,NA,
373,564,Nadutan Baoan Tiande Gong,拿督坛保安宫天德宫   ,拿督壇保安天德宮,Nadutan Baoan Tiande Gong,95 Tampines Link 528745,528745,95 TAMPINES LINK,38599.06968,38808.29128,103.9285585,1.36724102,2004,,,NA,NA,,,1,"拿督壇保安天德宮

1. 拿督壇保安天德宮
2. 保安宮
3. 九條橋新芭拿督壇
4. 天德宮",
575,886,Tongshan Tang  Dongling,同善堂  东陵,同善堂  東陵,Tanglin Tong Sian Tng,31 Devonshire Road 239851,239851,31 DEVONSHIRE ROAD,28464.98473,31177.23171,103.8374967,1.29823032,1892,,观世音菩萨,NA,NA,,,0,NA,
333,512,Longheshan Gong Wanlilu,龙合山宫 万礼路,龍合山宮 萬禮路,Leng Hup San Mandai Road,4 Teck Whye Lane 688800,688800,4 TECK WHYE LANE,19129.52946,40290.90929,103.7536108,1.38064984,,6765 1286,关圣帝君,NA,NA,,,1,"龍合山七寨廟（聯合廟）

1. 龍合山七寨廟（聯合廟）
1. 七寨廟（林厝港阿媽宮路）
2. 龍合山宮（萬禮路）",
544,840,Tiangong Tan  Zhenyuan Yuan,天公坛 振源园,天公壇 振源園,Tien Kong Thun Temple,68 Jalan Pemimpin 576132,576132,168 PEMIMPIN PLACE,28963.66114,37371.77825,103.8419777,1.35425159,,, 玉皇上帝,NA,NA,,,0,NA,
439,674,Qingde Gong ,清德宫,清德宮,Qing De Gong Temple,52 Truro Road 217589,217589,52 TRURO ROAD,29821.21932,32957.61754,103.8496832,1.31433145,,,,NA,NA,,,0,NA,
677,1052,Yizhong Fu,义忠府,儀忠府,Yizhong Fu,BLK 138 Jalan Bukit Merah #06-1398 160138,160138,138 JALAN BUKIT MERAH,27211.94287,28987.10439,103.8262376,1.27842357,,,,NA,NA,,,0,NA,
468,714,Sanqing Gong,三清宫,叁清宮,Sanqing Gong, 21 Bedok North Ave 4 489948,489948,21 BEDOK NORTH AVENUE 4,40938.68769,35240.72992,103.9495801,1.3349764,,,三清道祖 ,NA,NA,,,0,NA,
484,752,Shengfo Shan ,圣佛山,聖佛山,Shengfo Shan ,No. 51 Bukit Batok Crescent #06-16 658077,658077,51 BUKIT BATOK CRESCENT,19539.05104,35510.85246,103.757292,1.33742087,,,,NA,NA,,,0,NA,
666,1031,Ya Long Balushanshi Tan,芽笼芭鲁善世坛,芽籠芭魯善世壇,Ya Long Balushanshi Tan,BLK 57 Geylang Bahru #14-3485 330057,330057,57 GEYLANG BAHRU,31987.42905,33975.63193,103.8691478,1.32353781,,,,NA,NA,,,0,NA,
359,541,Luoyang Dabogong,洛阳大伯公,洛陽大伯公,Luoyang Dabogong,25 Tampines Street 21 529394,529394,25 TAMPINES STREET 21,40970.459,37545.69215,103.9498665,1.3558216,,6783 0655,,NA,NA,,,1,"淡濱尼聯合宮

1. 淡濱尼聯合宮
2. 地萬大伯公
3. 福安殿
4. 慈靈宮
5. 九哩大伯公 aka 九哩福德正神
6. 濟陽堂
7. 吉星亭
8. 洛陽天宮壇
9 後池廳aka普庵古佛
10. 順興古廟
11. 新芭大伯公
12. 洛陽大伯公
13. 漢陽大伯公",
712,1129,Zhaoling Miao Pu Tian Jiang Dou,昭灵庙  莆田江兜,昭靈廟  莆田江兜,Cheow Leng Beo   Xin Hua Temple,525 Yishun Industrial Park A 768769,768769,525 YISHUN INDUSTRIAL PARK A,28280.3197,47240.77293,103.8358375,1.44350325,1853,6752 6752,"柳金圣侯, 宣赞元帅, 达地圣侯",福建省,福建省 福清市 新厝镇 江兜村,Rochor Road,,1,"慈靈聯合廟

1. 慈靈聯合廟
2. 慈雲山宮
3. 昭靈廟（莆田江兜）",
569,880,Tongde Fotang,同德佛堂,同德佛堂,Tong Tek Buddhist Temple,1055 Serangoon Road 328172,328172,1055 SERANGOON ROAD,31434.90302,33982.40905,103.864183,1.32359916,,6298 7394,,NA,NA,,,0,NA,
560,864,Tiansheng Tan Paya Leba,天圣坛,天聖壇,Tien Sen Tua Temple Paya Leba,146C Paya Lebar Road 409040,409040,146C PAYA LEBAR ROAD,34414.24413,34480.80322,103.8909541,1.32810598,1940,"6749 3029 
6746 4464",包公 ,福建省,福建省,Hougang 4th milestone,,1,"天聖賜福聯合廟

1. 天聖賜福聯合廟
2. 天聖壇
3. 賜福宮",
669,1036,Yangfa Tan,杨法坛,楊法壇,Yangfa Tan,1G Yio Chu Kang Rd 545513,545513,1G YIO CHU KANG ROAD,32913.09101,37361.31479,103.8774659,1.35415658,,,,NA,NA,,,0,NA,
213,325,Guangshou Tang ,广寿堂,廣壽堂,Kong Siew Temple,15 Yishun Avenue 9  768889,768889,15 YISHUN AVENUE 9,28910.94179,46211.69841,103.8415043,1.43419666,1931,,保生大帝,NA,NA,Thomson Road's 5th milestone,,1,"義順鎮聯合廟

1. 義順鎮聯合廟
2. 鎮南廟廣壽堂
3. 鎮南廟
4. 廣壽堂
5. 元龍聖廟
6. 元壽堂
7. 新勝壇
8. 龍霞館
9. 順西宮水池林
10. 順西宮
11. 水池林",
675,1049,Yixing Ju,,,Yixing Ju Temple,4 Parkstone Road 437651,437651,4 PARKSTONE ROAD,34868.35148,32127.19568,103.895034,1.3068207,,,,NA,NA,,,0,NA,
189,285,Guanshi Tan,观世坛,觀世壇,Guanshi Tan,"30, Petain Road 208099",208099,30 PETAIN ROAD,30798.66159,32727.56147,103.8584659,1.31225083,,,,NA,NA,,,0,NA,
709,1125,Zhanpu yuan,薝卜院,薝蔔院,Chian Pok Temple,8 Geylang East Avenue 1 389780,389780,8 GEYLANG EAST AVENUE 1,33781.85227,33126.20652,103.8852714,1.31585562,1928,6846 7491,释迦牟尼佛,福建省,福建省,,,0,NA,
596,913,Wudangshan Miao Wulan,武当山庙 兀兰,武當山廟 兀蘭,Boo Tong San Temple,"11 Woodlands Industrial Park E8, # 01 - 02 757701",757701,11 WOODLANDS INDUSTRIAL PARK E8,24350.95575,48222.04144,103.8005282,1.45237725,1950,,玄天上帝,福建省,福建省,Choa Chu Kang,,1,"兀蘭聯聖廟

1. 兀蘭聯聖廟
2. 清水廟東聖殿
3. 天祖廟
4. 武當山廟（兀蘭）",
404,626,Pude Shantang ,普德善堂,普德善堂,Phoh Teck Siang Tng Temple ,106 Pasir Panjang Road 118534,118534,106 PASIR PANJANG ROAD,23653.82867,28684.40173,103.7942667,1.27568574,1942,,宋大峰祖师,广东省,广东省 潮州市,Ord Road,,1,"中華善堂藍十字總會

1. 中華善堂藍十字總會
2. 普德善堂
3. 崇峰善堂",
507,789,Yu Lang Shuigou Guan ,裕廊水沟馆,裕廊水溝館,Jurong Shui Gou Guan,741 Jurong West Street 42 649369,649369,741 JURONG WEST STREET 42,15830.9311,37229.01943,103.7239718,1.35295807,1949,,金府大人,福建省,福建省 南安市 英都乡,Jurong Road 10th milestone,,1,"裕廊總宮

1. 裕廊總宮
2. 觀山殿
3. 龍鬚岩
4. 瓊瑤教邸
5. 靈晉宮
6. 水溝館",
691,1089,Yu Huang Dian  Hei Qiao Tou Tian Gong Tan,玉皇殿  黑桥头  天公坛,玉皇殿 黑橋頭  天公壇,Or Kio Tow Geok Hong Tian,495 Havelock Road 169635,169635,495 HAVELOCK ROAD,27988.84301,30178.5947,103.8332183,1.289199,,,玉皇上帝,福建省,福建省,,,0,NA,
287,437,Jiuxuan Gong,九玄宫,九玄宮,Jiu Xuan Gong Society,"15 Geylang Lor 29, #04-01 PTH Bldg 388069",388069,15 LORONG 29 GEYLANG,33818.62527,32998.31385,103.8856018,1.314699,,,九天玄女娘娘,NA,NA,,,0,NA,
618,945,Xitiandao Miao ,西天道庙,西天道廟,See Thian Tao Temple ,557 Bukit Batok Street 23 659523,659523,557 BUKIT BATOK STREET 23,19533.67533,35809.82447,103.7572436,1.34012467,1970,6665 0336 ,玄天上帝,客家,客家,Bukit Timah,,1,"西天佛廟（聯合廟）

1. 西天佛廟（聯合廟）
2. 西天佛廟
3. 西天道廟",
354,536,Longyun Gong ,龙云宫,龍雲宮,Longyun Gong ,BLK 525 Hougang Ave 6 #04-181 530525,530525,525 HOUGANG AVENUE 6,34460.06623,39646.56717,103.8913669,1.37482328,,,,NA,NA,,,0,NA,
488,759,Shengjia Miao,圣家庙,聖家廟,Sheng Jia Temple Association,"3 Tebing Lane, Punggol East #01-01 828849",828849,3 TEBING LANE,37147.07258,41577.24233,103.9155122,1.39228288,1960,6425 8792 ,齐天大圣,福建省,福建省,Xie Jing Yuan (an old village in Yio Chu Kang),,1,"榜鵝聯合廟

1. 榜鵝聯合廟
2. 聖家廟
3. 天君府
4. 天慈宮",
327,503,Lingyun Dian,凌云殿,凌雲殿,Lin Hoon Dian,526A Geylang Road 389482,389482,526 GEYLANG ROAD,33861.91466,32886.71346,103.8859908,1.31368971,1947,,,福建省,福建省 莆田市,58 Duxton Road,,1,"凌雲殿北辰宫（莆田）

1. 凌雲殿北辰宫
2. 凌雲殿
3. 北辰宫",
646,990,Xin Jia Po Fojiaoqingnianhongfa Tuan,新加坡佛教青年弘法团,新加坡佛教青年弘法團,Singapore Buddhist Youth Mission,3306 Commonwealth Avenue West 129583,129583,3306 COMMONWEALTH AVENUE WEST,20048.29255,33917.21932,103.7618683,1.32300877,,,释迦牟尼佛,福建省,福建省,,,0,NA,
624,955,Xiangu Dian,仙姑殿,仙姑殿,Xiangu Dian,1 Tampines Ave 1 529783,529783,1 TAMPINES AVENUE,38571.12023,38790.62246,103.9283074,1.36708124,1992,"6582 6612
6582 7734",何仙姑,众多方言,众多方言,Geylang Lorong 25,www.xiangutian.com,0,NA,
641,982,Xin Jia Po Sanqing Dao Jiao Hui,新加坡三清道教会,新加坡三清道教會,Singapore San Ching Taoist Association,399-A Guillemard 399793,399793,399 GUILLEMARD ROAD,34137.14798,32695.0584,103.8884639,1.3119564,1979,6744 5092 ,三清道祖,NA,NA,,,0,NA,
335,514,Longhushan Xuanlingtan,龙虎山玄灵坛,龍虎山玄靈壇,Leng Hok San Hian Leng Temple Temple,"Blk 7, #01-518 Lorong 3 Geylang 388960",388960,518 LORONG 3 GEYLANG,32462.99184,33315.42643,103.8734209,1.31756708,,6744 6090,张天师,NA,NA,,,0,NA,
216,330,Haidong Tan ,海洞坛,海洞壇,Hai Tong Tan ,BLK 446 Tampines St 42 #10-36 520446,520446,446 TAMPINES STREET 42,41096.4871,37780.45384,103.9509991,1.35794464,,,,NA,NA,,,0,NA,
469,718,Santan Bailong Gong,三坛白龙宫,叁壇白龍宮,Santan Bailong Gong,Blk 321 Woodlands Street 32 #02-235 730321,730321,321 WOODLANDS STREET 32,21991.12624,45956.21535,103.7793232,1.43188554,,6367 2235,,NA,NA,,,0,NA,
516,800,Shunli Tan,顺利坛,順利壇,Shunli Tan,"1076A, Serangoon Road 328180",328180,1076 SERANGOON ROAD,31502.26963,33958.72805,103.8647883,1.32338499,1988,9092 8685,善才童子,NA,NA,,,0,NA,
759,1206,Zang Chuan Ningma Bage Fo Xue Hui,藏传宁玛巴噶陀佛学会,藏傳寧瑪巴噶陀佛學會,Nyingma Kathok Buddhist Centre,397 Guillemard Road 399792,399792,397 GUILLEMARD ROAD,34130.54877,32693.79995,103.8884046,1.31194502,,,,NA,NA,,,0,NA,
461,700,Sanbawang Lianhegong,三巴旺联合宫  ,叁巴旺聯合宮 ,Sembawang United Temple,24/26/28 Admiralty Stree 757611,757611,28 ADMIRALTY STREET,25527.90587,49153.72872,103.8111042,1.46080322,,,,NA,NA,,,1,"三巴旺聯合宮 

1. 三巴旺聯合宮 
2. 蓬萊殿（清水祖師）
3. 三巴旺天后宮
4. 三巴旺天雲殿財神廟",
425,652,Qinan Tan,齐南坛,齊南壇,Chay Lam Dua,Blk 827 Jurong West Street #08-282 640827,640827,827 JURONG WEST STREET 81,12401.21844,36419.76508,103.6931541,1.34563789,,,,NA,NA,,,0,NA,
580,891,Wanfo Kong ,万福宫,萬福宮,Ban Hock Temple,485 Serangoon North Avenue 1 555891,555891,489 SERANGOON NORTH AVENUE 1,32376.69125,38979.59009,103.8726462,1.36879176,,,大伯公,NA,NA,,,1,"镇山天福宫

1. 镇山天福宫
2. 安山廟
3. 萬福宮
4. 石竹廟
5. 吉龍山廟
6. 龍鎮宮",
561,868,Tianwen Tan,天文坛,天文壇,Tianwen Tan,15 Fajar Road 679003,679003,15 FAJAR ROAD,20887.57353,40587.66196,103.7694081,1.38333405,1956,6769 1314,七星大帝,众多方言,众多方言,Lim Chu Kang Road,,1,"七福宮（聯合宮）

1. 七福宮（聯合宮）
2. 七福宮
3. 天文壇",
639,979,Xin Jia Po Fo Jiao Zong Hui,新加坡佛教总会,新加坡佛教總會,Singapore Buddhist Federation,12 Ubi Ave 1  408932,408932,12 UBI AVENUE 1,35565.49791,34521.17959,103.9012987,1.32847087,,"6744 4635
6744 4159",,NA,NA,,,0,NA,
615,941,Xilian Gong,西莲宫,西蓮宮,Xilian Gong,"Blk 417 Ang Mo Kio Ave 10, #02-1021 560417",560417,417 ANG MO KIO AVENUE 10,30434.81918,38555.81688,103.8551971,1.36495953,,,,NA,NA,,,0,NA,
301,457,Leiyin Shi ,雷音寺,雷音寺,Lei Yin Temple ,195E Bukit Merah View  159681,159681,195E BUKIT MERAH VIEW,26725.85942,29537.80554,103.8218699,1.2834039,1957,,"西天娘娘, 九天玄女",广东省,广东省 潮州市,,,0,NA,
695,1093,Yuhuangzhizhun Miao ,玉皇至尊庙,玉皇至尊廟,Yu Huang Zhi Zun Tp ,26 Lorong 27a Geylang 388115,388115,26 LORONG 27A GEYLANG,33764.90702,33036.50181,103.8851192,1.31504437,,,玉皇上帝,NA,NA,,,0,NA,
478,736,Shanlian Tang,善莲堂,善蓮堂,Shanlian Tang,18 Admiralty Street 757439,757439,18 ADMIRALTY STREET,25494.66521,49251.13569,103.8108055,1.46168413,,6757 5261 ,"观世音菩萨, 释迦牟尼佛, 济公活佛",福建省,福建省,,,0,NA,
238,360,Huantu Miao,环图庙,環圖廟,Huantu Miao,31 Marsiling Industrial Estate Road 3 739255,739255,31 MARSILING INDUSTRIAL ESTATE ROAD 3,22369.94824,46822.91903,103.7827271,1.43972377,,,,NA,NA,,,1,"風圖廟聯合廟

1. 風圖廟聯合廟
2. 鳳圖廟
3. 觀音廟
4. 環圖廟
5. 花果山平安明德宮
6. 義星堂",
494,774,Shilin Jinshan Lianhegong,石林晋山联合宫,石林晉山聯合宮,Cheo Lim Chin Sun Lian Hup Keng,7 Bedok North Street 5 485874,485874,7 BEDOK NORTH STREET 5,40873.87674,35283.11696,103.9489977,1.33535976,,,,NA,NA,,,1,"石林晉山聯合宮

1. 石林晉山聯合宮
2. 檺林宮
3. 石霧洞 
4. 晉平寺善蓮山宮
5.  晉平寺
6. 善蓮山宮",
535,828,Tiande Gong Yalong,天德宫 芽垅,天德宮 芽垅,Tian Teck Keng Temple,606 Lorong 3 Geylang 389004,389004,606 LORONG 3 GEYLANG,32428.72124,33337.44427,103.8731129,1.3177662,,,,NA,NA,,,0,NA,
401,620,Pilitan Yalong,霹靂坛  芽笼,霹靂壇  芽籠,Pili Tan  Geylang,Geylang East Ave 3 Blk 1016 389731,389731,1016 GEYLANG EAST AVENUE 3,34467.07717,33454.51565,103.8914286,1.31882459,,,,NA,NA,,,0,NA,
616,942,Xilongdao Tan ,西龙道坛,西龍道壇,Xilongdao Tan ,BLK 25 Telok Blangah Crescent #02-75 090025,90025,25 TELOK BLANGAH CRESCENT,26428.08584,28756.37425,103.8191944,1.2763369,,,,NA,NA,,,0,NA,
447,686,Qiongshan Tashi Guansheng Dijun Tan,琼山塔市关圣帝君坛,瓊山塔市關聖帝君壇,Qiongshan Tashi Guansheng Dijun Tan,BLK 205 Toa PayohNorth #05-1147 310205,310205,205 TOA PAYOH NORTH,29639.47724,36047.45547,103.8480503,1.34227486,,,,NA,NA,,,0,NA,
187,281,Guansheng Tan ,观圣坛,觀圣壇,Guansheng Tan ,BLK 536 Ang Mo Kio Ave 10#02-2553 560536,560536,536 ANG MO KIO AVENUE 10,30312.77352,39607.85348,103.8541005,1.37447379,,,,NA,NA,,,0,NA,
245,371,Jigong Tang,济公堂,濟公堂,Chee Kong Tong,2 Beatty Lane 209945,209945,2 BEATTY LANE,31015.47128,32708.61562,103.8604141,1.31207947,,,,NA,NA,,,0,NA,
499,781,Shizhumiao Shilonggang,石竹庙 实龙岗,石竹廟  實龍崗,Cheo Teik Temple  Serangoon,486 Serangoon North Avenue 1 555892,555892,7 SERANGOON NORTH AVENUE 1,32323.41539,38506.36306,103.8721674,1.36451207,,,武德英侯 ,NA,NA,,,1,"镇山天福宫

1. 镇山天福宫
2. 安山廟
3. 萬福宮
4. 石竹廟
5. 吉龍山廟
6. 龍鎮宮",
181,274,Guanlongdian Shantang,关龙殿善堂  ,関龍殿善堂  ,Guanlongdian Shantang,78 Lorong 6 Geylang    399230,399230,78 LORONG 6 GEYLANG,32821.32753,32379.25074,103.8766405,1.30910058,,,,NA,NA,,,0,NA,
230,351,Huade Shantang,华德善堂,華德善堂,Hua Teck Siang Tng,177L Lorong 7 Toa Payoh 319318,319318,177L LORONG 7 TOA PAYOH,30577.16948,35642.10469,103.856476,1.33860895,,,宋大峰祖师,NA,NA,,,1,"大巴窑五合廟 

1. 大巴窑五合廟
2. 通興港亞佛律甘榜神會  
3. 聚天宮（飛天宮/潮閩人）
4. 山竹圓福德祠（潮人）
5. 昭應祠（瓊人）
6 華德善堂（合租昭應祠）
7. 李娘娘無極宮（瓊，退出）
   聚天宮接收，用為太歲殿）",
244,370,Jigong Tan ,济公坛,濟公壇,Chai Kong Temple ,10 Marsiling Industrial Estate Road 3 739254,739254,10 MARSILING INDUSTRIAL ESTATE ROAD 3,22378.53336,46788.27081,103.7828043,1.43941042,,6367 4001,"玄天上帝, 济公活佛 ",福建省,福建省 安溪县,,,1,"上帝廟濟公壇（聯合廟）

1. 上帝廟濟公壇（聯合廟）
2. 濟公壇
3. 上帝廟",
756,1203,Sinianchu Chan Xiu Zhong Xin,四念处禅修中心,四念處禪修中心,Satipatthana Meditation Centre,735A & 735B Havelock Road  169652,169652,735 HAVELOCK ROAD,27357.24981,30195.71424,103.8275432,1.28935382,,,,NA,NA,,,0,NA,
751,1197,Zufohainanshan Miao ,祖佛海南山庙 ,祖佛海南山廟 ,Beo San Hood Chor Temple,443 Race Course Road 218687,218687,443 RACE COURSE ROAD,30728.47392,33157.83027,103.8578353,1.31614204,,,,NA,NA,,,0,NA,
387,599,Nanxian Tan ,南仙坛,南仙壇,Nanxian Tan ,119 Bukit Merah View #12-63 152119,152119,119 BUKIT MERAH VIEW,26610.12561,29551.47858,103.82083,1.28352755,,,,NA,NA,,,0,NA,
248,377,Jishan Tang,济善堂,濟善堂,Chay Sian Tong ,7 Hamilton Road 209178,209178,7 HAMILTON ROAD,31045.78806,32630.79342,103.8606865,1.31137567,,,"濟世大王, 玄天上帝, 顺平圣侯",福建省,福建省,,,0,NA,
446,685,Qingyun Miao,青云庙,青雲廟,Qing Yun Temple,20 Hougang Street 11  538748,538748,20 HOUGANG STREET 11,33246.27752,37232.90366,103.8804597,1.35299522,1951,,"纠察大神九使爷, 十使爷, 十一使爷, 刘氏太夫人, 庆寿坛邱公圣侯",福建省,福建省 莆田市 江口镇 阪梁十三乡 山兜村,1951，Rangoon road，Door number 91C,,1,"青雲聯合廟

1. 青雲聯合廟
2. 安仁宮
3. 青雲廟
4. 錦福廟",
155,239,Fude Gong Yuxia Tang,福德宫 芋峡塘,福德宮 芋峽塘,Fu Hup Thong Fook Tak Kung,15 Kim Keat Lane 328873,328873,15 KIM KEAT LANE,30292.02564,34051.40205,103.8539137,1.32422322,,,"土地公, 土地婆",广东省,广东省,,,0,NA,
611,934,Wuxian Tang,五显堂,五顯堂,Wuxian Tang,74 Koon Seng Rd 427012,427012,74 KOON SENG ROAD,35914.48922,32643.4254,103.9044341,1.31148905,,,华光大帝,广东省,广东省,,,0,NA,
272,415,Jinquanfa Tan Jisheng Gong,金全法坛集声宫,金全法壇集聲宮,Jinquanfa Tan Jisheng Gong,397 Bt Batok West Ave 8 658964,658964,397 BUKIT BATOK WEST AVENUE 8,17619.08358,36585.96803,103.7400397,1.34714322,,,,NA,NA,,,1,"桂林聯合廟

1. 桂林聯合廟
2. 龍顯山宮
3. 石竹廟
4. 愛民宮
5. 金全法壇集聲宮
6. 金全法壇
7. 集聲宮
8. 臨江殿對山廟
9. 臨江殿
10. 對山廟",
582,893,Wanli lianhe Dian,万礼莲合殿,萬禮蓮合殿,Wanli lianhe Dian,19 Woodlands Industrial Park E7 757721,757721,19 WOODLANDS INDUSTRIAL PARK E4,23782.59385,48062.50147,103.7954209,1.45093435,1970,,"观世音菩萨  , 哪吒",福建省,福建省 安溪县,Mandai Village,,1,"天顯廟

1. 天顯廟
2. 萬禮蓮合殿
3. 玄山廟救世壇
4. 玄山廟
5. 救世壇",
495,775,Shilonggang Bexie Lingtan,实龙岗北协灵坛,實龍崗北協靈壇,Serangoon North Hiep Leng Tuan,7030 Ang Mo Kio Avenue 5 #B1-05 569880,569880,7030 ANG MO KIO AVENUE 5,32700.66915,39939.09365,103.8755575,1.37746912,1980,"6286 1120 
9447 1095",张公圣君,福建省,福建省,,,0,NA,
414,639,Puti Lanruo,菩提兰若,菩提蘭若,Puti Lanruo, 37 Saint Patrick's Road.  424161,424161,37 SAINT PATRICK'S ROAD,36870.4632,32307.3282,103.9130239,1.30844924,,,释迦牟尼佛,福建省,福建省,,,0,NA,
736,1174,Zhongyi Dian ,忠义殿,忠義殿,Zhongyi Guan,21 Bangkit Road  679971,679971,21 BANGKIT ROAD,21365.9614,40018.4573,103.7737069,1.37818648,,,,NA,NA,,,1,"正華慈聖宮

1. 正華慈聖宮
2. 慈蓮堂
3. 木山聖母宮
4. 木山宮
5. 忠義殿",
745,1189,Zhunti Ge,准提阁,凖提閣,Zhunti Ge,13 Keong Saik Road 089120,89120,13 KEONG SAIK ROAD,28893.46999,29109.42282,103.8413468,1.27952977,,,準提观音,NA,NA,,,0,NA,
365,550,Miaowei Tan ,妙威坛,妙威壇,Miao Wei Tan ,BLK 115 Jurong East St 13 #10-384 600115,600115,115 JURONG EAST STREET 13,17114.14509,35773.0693,103.7355028,1.33979149,,,,NA,NA,,,0,NA,
717,1135,Zhenlong Gong Lian He Gong,真龙宫  联合宫,真龍宮  聯合宮,Chin Leng Keng  United Temple,98T Redhill Close 158900,158900,98T REDHILL CLOSE,26111.97592,29852.18676,103.8163539,1.28624702,,,,NA,NA,,,1,"真龍宮（联合宫）

1. 真龍宮（联合宫）
2. 介穀殿
3. 真人宮
4. 龍山亭
5. 萬仙廟",
418,643,Puyin Tang ,普音堂,普音堂,Puyin Tang ,BLK 131 Bishan St 21 #02-211 570131,570131,131 BISHAN STREET 12,29961.64185,36412.45288,103.8509451,1.34557575,,,,NA,NA,,,0,NA,
587,900,Wangfu Gong,王府宫,王府宮,Wang Fu Gong Taoism Association,30 Defu Lane 10 #02-104 539211,539211,30 DEFU LANE 10,34564.5468,37158.75666,103.8923052,1.3523244,,,,NA,NA,,,0,NA,
548,844,Tianhou Miao  Shantou She,汕头社天后庙,汕頭社天后廟,Swatow Sia Mazu Temple,5 Lorong 40 Geylang  398051,398051,5 LORONG 40 GEYLANG,34291.37873,32934.96153,103.8898498,1.31412597,1944,,妈祖,NA,NA,Whampoa Garden,,0,NA,
163,250,Fushan An,福善庵 ,福善庵 ,Fushan An,28 Lorong 27A Geylang  388117,388117,28 LORONG 27A GEYLANG,33768.04269,33050.96476,103.8851473,1.31517516,,6741 6857 ,,NA,NA,,www.fushanan.per.sg,0,NA,
417,642,Puxian Jiangtang,普贤讲堂 ,普賢講堂,Pu Xian Buddhist Society,217-A Lorong 7 Geylang Road  389277,389277,217 GEYLANG ROAD,32760.91621,32706.14644,103.8760978,1.31205692,,6742 3977,,NA,NA,,,0,NA,
434,664,Qizhai Miao,七寨庙,七寨廟,Chek Chai Temple,33 Kranji Loop 739565,739565,33 KRANJI LOOP,19144.12114,46409.73002,103.7537401,1.43598621,,6269 3315,山西夫子,福建省,福建省 安溪县,,,1,"七寨龍泉廟（聯合廟）

1. 七寨龍泉廟
2. 龍泉廟
3. 七寨廟",
198,302,Guanyin Tang Maiboshen Lu,观音堂 麦波申路,觀音堂 麥波申路,Kuan Yin Temple,560 Macpherson Road 368233,368233,560 MACPHERSON ROAD,33776.15865,34965.83927,103.8852206,1.3324926,,,,NA,NA,,,0,NA,
519,804,Shunshan Ting ,顺山亭,順山亭,Chia Hung Boo Temple ,42 Senang Crescent 416610,416610,42 SENANG CRESCENT,37474.73985,34442.27474,103.9184543,1.32775674,1800,,大伯公,福建省,福建省,,,0,NA,
432,662,Qiyin Tan,柒阴坛,柒陰壇,Qiyin Tan,"Blk 1 Hougang Ave 3, #02-300 530001",530001,1 HOUGANG AVENUE 3,34641.98365,38464.27028,103.8930013,1.36413097,,,,NA,NA,,,0,NA,
522,808,Shunxi Gong,顺西宫,順西宮,Soon Say Keng,19 Yishun Avenue 9 768891,768891,19 YISHUN AVENUE 9,28910.94176,46211.69838,103.8415043,1.43419666,,,西天娘娘,NA,NA,,,1,"義順鎮聯合廟

1. 義順鎮聯合廟
2. 鎮南廟廣壽堂
3. 鎮南廟
4. 廣壽堂
5. 元龍聖廟
6. 元壽堂
7. 新勝壇
8. 龍霞館
9. 順西宮水池林
10. 順西宮
11. 水池林",
316,485,Linshi Dazongci Jiulong Tang Jiazu Zizhi Hui,林氏大宗祠九龙堂家族自治会,林氏大宗祠九龍堂家族自治會,Lim See Tai Chong Soo Kiu Leong Tong,"239 & 241, Cantonment Road 089768
",89768,239 CANTONMENT ROAD,28901.89545,28601.7415,103.8414224,1.27493848,,,妈祖,NA,NA,,,0,NA,
429,657,Qitian Tan,齐天坛,齊天壇,Qi Tian Tan Temple,98 Depot Road 109669,109669,98 DEPOT ROAD,25877.24986,29299.30775,103.8142449,1.28124697,1949,,玄天上帝,福建省,福建省 安溪县,,,0,NA,
537,831,Tiande Miao ,天德庙,天德廟,Tian De Temple ,109 / a / b / c Hougang Avenue 5 538817,538817,109 HOUGANG AVENUE 5,34926.51314,38625.60114,103.8955581,1.36558993,,,,NA,NA,,,0,NA,
506,788,Shuigou Guan ,水沟馆,水溝館,Swee Kow Kuan,46 Ang Mo Kio Street 61 569161,569161,46 ANG MO KIO STREET 61,28925.01586,40303.93732,103.8416305,1.38076899,,,"清水祖师, 五府大人 ",NA,NA,,,1,"水溝館葛岸館（聯合館）

1. 水溝館葛岸館（聯合館）
2. 水溝館
3. 葛岸館",
718,1136,Zhennan Miao,镇南庙,鎮南廟,Chern Nam  Temple,15 Yishun Avenue 9  768889,768889,15 YISHUN AVENUE 9,28910.94179,46211.69841,103.8415043,1.43419666,1931,,关帝圣君,NA,NA,,,1,"義順鎮聯合廟

1. 義順鎮聯合廟
2. 鎮南廟廣壽堂
3. 鎮南廟
4. 廣壽堂
5. 元龍聖廟
6. 元壽堂
7. 新勝壇
8. 龍霞館
9. 順西宮水池林
10. 順西宮
11. 水池林",
489,763,Shenglong Miao ,圣龙庙,聖龍廟,Sheng Leng Temple ,60 Jurong West Street 41 649407,649407,60 JURONG WEST STREET 41,15421.25128,36824.93591,103.7202907,1.34930352,,,,NA,NA,,,0,NA,
201,306,Guanyin Tang  Malishita Lu,观音堂  马里士他路,觀音堂  馬里士他路,Kwang Im Tng Temple (Balestier Road),525 Balestier Road 329854,329854,525 BALESTIER ROAD,29454.06265,34244.88617,103.8463841,1.32597307,,,准提观音,广东省,广东省,,,0,NA,
369,557,Mingfeng Tan ,鸣凤坛,鳴鳳壇,Meng Hong Thua ,BLK 30 #08-35 Jalan Klinik 160030,160030,30 JALAN KLINIK,27430.67349,30009.50074,103.828203,1.28766977,,,,NA,NA,,,0,NA,
457,696,Ruwan Foxueshe,如望佛學社,如望佛學社,Ruwan Buddhist Society,87 Aida Street  459988,459988,87 AIDA STREET,38392.5193,33706.94924,103.9267008,1.32110643,,6445 6393,,NA,NA,,,0,NA,
388,603,Nanyang Shengjiao Zonghui,南洋圣教总会,南洋聖教總會,Nanyang Sacred Union,253 River Valley Road 238304,238304,253 RIVER VALLEY ROAD,28915.1225,30762.82705,103.8415414,1.29448258,,,孔夫子,NA,NA,Peking Street,,0,NA,
694,1092,Yu Huang Miao ,玉皇庙,玉皇廟,Gek Hong Temple ,14 Lorong 26 Geylang 398487,398487,14 LORONG 26 GEYLANG,33699.16368,32700.76183,103.8845284,1.31200807,,,玉皇上帝,NA,NA,,,0,NA,
581,892,Wanguo Shan Zhongyi Miao,万国山忠义庙,萬國山忠義廟,Man Kok Sua Chong Yee Temple,72 Sengkang West Avenue 797651,797651,70 SENGKANG WEST AVENUE,32352.07078,41516.74904,103.8724254,1.39173692,1950,,,福建省,福建省 东山县,Jalan Kayu Man Kok Sua (known currently as Seletar West Farmway 6),,1,"惹蘭加由聯合廟

1. 惹蘭加由聯合廟
2. 萬國山忠義廟
3. 包公廟
4. 龍南殿
5. 烏敏泰佛寺",
340,519,Longquan Miao,龙泉庙,龍泉廟,Long Chuen Temple,33 Kranji Loop 739565,739565,33 KRANJI LOOP,19144.12114,46409.73002,103.7537401,1.43598621,,6269 3315,大伯公,福建省,福建省 安溪县,,,1,"七寨龍泉廟（聯合廟）

1. 七寨龍泉廟
2. 龍泉廟
3. 七寨廟",
554,855,Tianling Zhongdaotang ,天灵总道堂,天靈總道堂,Thian Ling Chong Toh Tong Temple ,472 Changi Road 419890,419890,472 CHANGI ROAD,36914.0105,33440.04132,103.9134155,1.31869308,,,,NA,NA,,,0,NA,
593,909,Wenwou Shantang ,文友善堂,文友善堂,Boon Yew Siang Theon,7 Sturdee Road 207839,207839,7 STURDEE ROAD,30857.34098,32729.69784,103.8589932,1.31227015,1941,,宋大峰祖师,NA,NA,,,0,NA,
558,860,Tianshan Tang,天善堂,天善堂,Then Shen Temple,24 Lorong 16 Geylang 398866,398866,24 LORONG 16 GEYLANG,33151.07645,32657.71912,103.8796035,1.3116189,1930,,释迦牟尼佛,NA,NA,Geylang,,0,NA,
661,1020,Xuanshi Tan,玄世坛,玄世壇,Xuanshi Tan,BLK 58 Strathmore  Ave #04-107 142058,142058,58 STRATHMORE AVENUE,25492.64234,30608.29522,103.8107889,1.29308496,,,,NA,NA,,,0,NA,
367,552,Miaoyin Tan,妙音坛,妙音壇,Miaoyin Tan,BLK 157 #07-70 Mei Ling Street 140157,140157,157 MEI LING STREET,24707.07444,30611.28573,103.8037302,1.29311193,,,,NA,NA,,,0,NA,
573,884,Tongmiaozhi Lingtan,通妙旨灵坛,通妙旨靈壇,Tongmiaozhi Lingtan,Blk 12 Upper Boon Keng Road 380012,380012,12 UPPER BOON KENG ROAD,32089.09555,32946.49706,103.8700612,1.31423066,,,,NA,NA,,,0,NA,
386,596,Nantian Gong ,南天宫,南天宮,Nantian Gong ,Blk 916 Tampines Street 91 #01-77 520916,520916,916 TAMPINES STREET 91,39904.7801,36750.54962,103.9402904,1.34863107,,,,NA,NA,,,0,NA,
259,397,Jinfa Dian,进法殿,進法殿,Jinfa Dian,6 Ang Mo Kio St 63 Avenue 9 569112,569112,4 ANG MO KIO STREET 63,29709.88356,40834.47575,103.8486832,1.38556696,,6482 0040,杨府大人,福建省,福建省,Lorong Hablor in Yio Chu Kang's Lak Xun (Liuxun) Village,,0,NA,
740,1178,Zhu'an Tan,主唵坛,主唵壇,Zhu'an Tan,"49 Ceylon Road,  429367",429367,26 CRANE ROAD,35235.94198,32733.81123,103.8983371,1.31230663,,6348 0185 ,,NA,NA,,,0,NA,
194,297,Guanyin Jiuku Hui  Hegujing,观音救苦会 河谷径,觀音救苦會 河谷徑,Guanyin Jiuku Hui Relanyounuoshi,Blk 111 Rivervale Walk #01-11  540111,540111,111 RIVERVALE WALK,35511.10955,40705.22738,103.9008116,1.38439717,,,观世音菩萨,福建省,福建省,,,0,NA,
534,826,Tianci Gong,天慈宫,天慈宮,Society of Love and Compassion,"3 Tebing Lane, Punggol East #01-03 828849",828849,3 TEBING LANE,37147.07258,41577.24233,103.9155122,1.39228288,1987,6886 0232,哪吒,福建省,福建省,Tampinese HDB,,1,"榜鵝聯合廟

1. 榜鵝聯合廟
2. 聖家廟
3. 天君府
4. 天慈宮",
169,257,Gaju jingangcheng Fojiao Zhongxin,噶举金刚乘佛教中心 ,噶舉金剛乘佛教中心,Karma Choying Kukyab Ling,"2 Telok Blangah Street 31
2nd Floor Yeo's Building  108942",108942,2 TELOK BLANGAH STREET 31,24985.96446,28298.34952,103.8062364,1.27219458,,6274 7800 ,,NA,NA,,http://www.karmachoying.org ,0,NA,
511,793,Shuimei Gong,水美宫,水美宫,Hock Chuan Temple,1 Bedok North Street 5 486115,486115,1 BEDOK NORTH STREET 5,40895.77568,35302.16745,103.9491945,1.33553204,,6446 0155,大伯公,福建省,福建省,"Started as a shrine, situated near a drain in Ghim Moh Village",,1,"水美宮福泉寺（聯合廟）
1. 水美宮福泉寺（聯合廟）
2. 水美宮
3. 福泉寺",
228,347,Hougang Doumu Gong,斗母宫 后港,斗母宮  後港,Hougang Tao Mu Temple   Jiu Huang Da Di Temple,779A Upper Serangoon Rd 534648,534648,779A UPPER SERANGOON ROAD,33059.33698,37484.79839,103.87878,1.35527329,,6288 0779 ,"九皇大帝, 斗拇元君  ",福建省,福建省,,,0,NA,
430,659,Qixing Gong,七星宫,七星宮,Zeh Shing Keong Temple,20 Jalan Keli 577905,577905,20 JALAN KELI,28127.12024,37399.73978,103.8344608,1.35450448,1800,,"林府太師, 齊天大聖",福建省,福建省,Upper Thomson Road,,0,NA,
258,396,Jindong Fu,金洞府,金洞府,Kim Tong Hu,"4, Lorong 40, Geylang Road 398050",398050,4 LORONG 40 GEYLANG,34257.62157,32927.9288,103.8895464,1.31406237,1970,6746 2838,"金面大人, 善财童子   ",福建省,福建省,Geylang Lorong 3,,0,NA,
633,973,Xin Jia Po Fo Jiao Fu Li Xie Hui,新加坡佛教福利协会,新加坡佛教福利協會,Singapore Buddhist Welfare Services,105 Punggol Road 546636,546636,105 PUNGGOL ROAD,34987.15214,40249.54097,103.8961033,1.38027623,,6489 8161,释迦牟尼佛,众多方言,众多方言,,,0,NA,
210,320,Guangmingfang Chanxiu Zhongxin,光明坊禅修中心 ,光明坊禪修中心,Awareness Place Meditation Centre,Blk 231 Bain Street Bras Basah Complex #03-39  180231,180231,231 BAIN STREET,30259.31127,31020.77036,103.8536195,1.29681526,,6336 5067 ,释迦牟尼佛,众多方言,众多方言,,http://www.awarenessplace.com,0,NA,
738,1176,Zhongyi Miao Nv Huang Zhen,忠义庙  女皇镇,忠義廟  女皇鎮,Tiong Ghee Temple,"1085 Stirling Road, Queenstown 148953",148953,1085 STIRLING ROAD,24748.99294,30370.13856,103.8041069,1.29093109,1931,6474 6673,关圣帝君,福建省,福建省,Wu Wei Gang (a village at Stirling Road),,0,NA,
154,238,Fude Gong Younuoshi,福德宫 友诺士,福德宮 友諾士,Fude Gong Younuoshi,103 Eunos Road 5 409352,409352,103 EUNOS ROAD 5,34984.2926,33542.62136,103.8960761,1.31962128,,6747 2720,玄天上帝,福建省,福建省,,,1,"芽籠聯合宮

1.芽籠聯合宮
2. 乾坤廟
3. 福德宮
4. 龍山亭",
442,677,Qinglian Si ,清莲寺,清蓮寺,Cheng Lim See Temple,8/10 Jalan Soo Bee 488112,488112,8 JALAN SOO BEE,41205.30998,35372.72972,103.9519759,1.33617004,,,观世音菩萨,福建省,福建省,,,0,NA,
643,985,Xin Jia Po Shanyou Chan Zhong Xin,新加坡善友禅中心,新加坡友禪中心,Kalyanamitta Centre  Singapore,83 Pheng Geck Avenue 348270,348270,83 PHENG GECK AVENUE,32077.75671,34962.61776,103.8699595,1.33246374,,6383 5183,,NA,NA,,,0,NA,
406,629,Puji Fotang ,普济佛堂 ,普濟佛堂 ,Puat Jit Buddhist Temple ,61 Anchorvale Link 545073,545073,61 ANCHORVALE LINK,34319.18556,41697.70197,103.8901015,1.39337303,1955,"64817157
64899531
6*",释迦牟尼佛,福建省,福建省,Jalan Woodbridge,,0,NA,
524,810,Shunxing Gumiao Danbingni,顺兴古庙 淡宾尼,順興古廟,Soon Hin Ko Beo Tampines,25 Tampines Street 21 529394,529394,25 TAMPINES STREET 21,40970.459,37545.69215,103.9498665,1.3558216,1850,6783 0655 ,洪仙大帝,广东省,广东省 潮州市 饶平县,,,1,"淡濱尼聯合宮

1. 淡濱尼聯合宮
2. 地萬大伯公
3. 福安殿
4. 慈靈宮
5. 九哩大伯公 aka 九哩福德正神
6. 濟陽堂
7. 吉星亭
8. 洛陽天宮壇
9 後池廳aka普庵古佛
10. 順興古廟
11. 新芭大伯公
12. 洛陽大伯公
13. 漢陽大伯公",
460,699,Sanbawang Chengbang Lianhemiao,三巴旺成邦联合庙,叁巴旺成邦聯合廟,Sanbawang Chengbang Lianhemiao,475 Yishun Ring Road 768678,768678,475 YISHUN RING ROAD,27412.92613,46167.37219,103.8280432,1.4337958,,,,NA,NA,,,1,"三巴旺成邦聯合廟

1. 三巴旺成邦聯合廟
2. 成邦大伯公
3. 何碧山宮
4. 南鳳善堂",
317,487,Lingbaohuang Tan,灵宝皇坛,靈寶皇壇,Lingbaohuang Tan,Blk 160 Toa Payoh Lor 1 #01-1584 310160,310160,160 LORONG 1 TOA PAYOH,29302.29284,34794.57327,103.8450204,1.33094425,,6250 0706,三清道祖,NA,NA,,,0,NA,
241,366,Jide Tang ,济德堂,濟德堂,Ji De Tang Temple ,10 Rangoon Lane 218506,218506,10 RANGOON LANE,30309.90155,33182.33883,103.8540742,1.31636372,,,,NA,NA,,,0,NA,
298,451,Kuanji Tang ,宽济堂,寬濟堂,Kuang Chee Tng Buddhist Ass,125 Moulmein Road 308081,308081,125 MOULMEIN ROAD,29738.24772,33433.55208,103.8489376,1.31863564,1953,"6251 3765
6250 1796 ",释迦牟尼佛,NA,NA,,,0,NA,
609,931,Wutaishan Fogong Si,五台山佛公寺,五臺山佛公寺,Wu Tai Shan Buddhist Temple,151 West Coast Road 127369,127369,151 WEST COAST ROAD,20364.98008,31720.65343,103.7647144,1.3031439,,6775 1866 ,佛公杨五郎,福建省,福建省,,,0,NA,
239,362,Huiming Jiangtang,慧明讲堂,慧明講堂,Hui Ming Buddhist Society,64 Lorong 24A Geylang  398588,398588,64 LORONG 24A GEYLANG,33629.92043,32634.2848,103.8839062,1.31140688,,6743 7193,,NA,NA,,,0,NA,
644,988,Xin Jia Po Zhongshan Haizhou Hui Guan,新加坡中山海洲会馆,新加坡中山海洲會館,Chung Shan Hoizou Association,27 Ann Siang Road  069707,69707,27 ANN SIANG ROAD,29410.81464,29267.4625,103.8459953,1.28095901,1934,,妈祖,NA,NA,,,0,NA,
657,1010,Xuanjiang Dian Daojiao Hui,玄江殿道教会,玄江殿道教會,Heng Kang Tian Taoist Association,30 Jln Rama Rama 329110,329110,30 JALAN RAMA RAMA,29812.76698,34402.61342,103.8496073,1.32739948,1953,6258 0131,玄天上帝,福建省,福建省,Amoy Street,,0,NA,
344,524,Longshan Miao,龙山庙,龍山廟,Longshan Miao,485 Serangoon North Avenue 1 555890,555890,485 SERANGOON NORTH AVENUE 1,32407.06287,38988.58237,103.8729191,1.36887308,,,玄天上帝,福建省,福建省,,,1,"玄夫仙廟

1.玄夫仙廟
2 順興古廟
3. 七寨庙（静山路 / 甘榜山亭）
4. 龍山廟",
476,734,Shanlian Shan,善联山,善聯山,San Lian Sun,BLK 924 Tampines Street 91 #08-259 520926,520926,926 TAMPINES STREET 91,39982.12064,36461.19774,103.9409853,1.34601425,,,,NA,NA,,,1,"普平寺善聯山宮

1. 普平寺善聯山宮
2. 普平寺
3. 善聯山",
679,1056,Yinlv Fu ,阴吕府,陰呂府,Yinlv Fu ,BLK 863B Tampines St 83 #01-468 522863,522863,863B TAMPINES STREET 83,39331.40049,37506.07091,103.9351385,1.35546395,,,,NA,NA,,,0,NA,
352,533,Longxianshan Gong,龙显山宫,龍顯山宮,Longxianshan Gong,397 Bt Batok West Ave 8 658964,658964,397 BUKIT BATOK WEST AVENUE 8,17619.08358,36585.96803,103.7400397,1.34714322,,6560 3651,刘、李、三、罗、金府大人,福建省,福建省,,,1,"桂林聯合廟

1. 桂林聯合廟
2. 龍顯山宮
3. 石竹廟
4. 愛民宮
5. 金全法壇集聲宮
6. 金全法壇
7. 集聲宮
8. 臨江殿對山廟
9. 臨江殿
10. 對山廟",
465,704,Sanbao Fojiao Hui,三宝佛教会,叁寶佛教會,Tisarana Buddhist Association,90 Duku Road 429254,429254,90 DUKU ROAD,36159.1394,32523.4795,103.9066324,1.31040423,,6345 6741,,NA,NA,,,0,NA,
396,612,Ningmaba Baiyu Fojiao Zhongxin,宁玛巴白玉佛教中心,寧瑪巴白玉佛教中心,PALYUL NYINGMA BUDDHIST ASSOCIATION ,17 H Geylang Lorong 15 T 388608,388608,17C LORONG 15 GEYLANG,32969.71569,32844.22669,103.8779739,1.31330564,,6742 9261 ,,NA,NA,,http://www.palyulsg.org,0,NA,
255,390,Jiamajiayu Fojiao Zhongxin,迦马佳育佛教中心,迦馬佳育佛教中心,Karma Kagyud Budh Ctr ,38 Lorong 22 Geylang 398695,398695,38 LORONG 22 GEYLANG,33399.96488,32564.85852,103.8818399,1.31077906,,"6749 1103
6741 0935 ",,NA,NA,,http://www.karma-kagyud.org.sg,0,NA,
600,919,Wuhe Miao  Daba Yao ,伍合庙  大芭窑,五合廟  大巴窑,United Five Temples of Toa Payoh,177 Lorong 7 Toa Payoh 319318,319318,177L LORONG 7 TOA PAYOH,30577.16948,35642.10469,103.856476,1.33860895,,,,NA,NA,,,1,"大巴窑五合廟 

1. 大巴窑五合廟
2. 通興港亞佛律甘榜神會  
3. 聚天宮（飛天宮/潮閩人）
4. 山竹圓福德祠（粵人）
5. 昭應祠（瓊人）
6 華德善堂（合租昭應祠）
7. 李娘娘無極宮（瓊，退出）
   聚天宮接收，用為太歲殿）",
319,490,Lingfeng Banruo Jiangtang,灵峰般若讲堂,靈峰般若講堂,Leng Foong Prajna Temple,28 Lengkong Dua 417705,417705,28 LENGKONG DUA,36802.25741,34186.36971,103.9124116,1.32544263,,6445 2597 ,释迦牟尼佛,福建省,福建省,,,0,NA,
472,730,Shande Tang,善德堂,善德堂,Sian Teck Tng Vegetarian Convent,57 Cuppage Road 229468,229468,57 CUPPAGE ROAD,28768.62627,31728.93381,103.840225,1.30321971,,,观世音菩萨,众多方言,众多方言,,,0,NA,
758,1205,Xin Jia Po Mian Dian Yufo Si,新加坡缅甸玉佛寺,新加坡緬甸玉佛寺,Burmese Buddhist Centre,14 Tai Gin Road  327873,327873,14 TAI GIN ROAD,29515.83655,34517.20095,103.8469392,1.32843579,,,,緬甸,緬甸,,,0,NA,
693,1091,Yuhuang Gong,玉皇宫,玉皇宮,Yuhuang Gong,150 Telok Ayer Street 068608,68608,150 TELOK AYER STREET,29599.26646,29299.88708,103.8476886,1.28125224,1831,,玉皇上帝,NA,NA,,,0,NA,
688,1086,Yufengzhifucaibao Xing Jun Miao,玉封至富财帛星君庙,玉封至富財帛星君廟,Yufengzhifucaibao Xing Jun Miao,332A Changi Rd 419807,419807,332 CHANGI ROAD,36416.87061,33383.0139,103.9089485,1.31817748,,,"谭公爷, 玉封至富財帛星君",NA,NA,,,0,NA,
498,780,Shizhumiao Wujibadu,石竹庙 武吉巴督,石竹廟  武吉巴督,Shi Zhu Miao Bukit Batok,397 Bt Batok West Ave 8 658964,658964,397 BUKIT BATOK WEST AVENUE 8,17619.08358,36585.96803,103.7400397,1.34714322,,,武德英侯章三相公,福建省,福建省,Jurong 16th milestone,,1,"桂林聯合廟

1. 桂林聯合廟
2. 龍顯山宮
3. 石竹廟
4. 愛民宮
5. 金全法壇集聲宮
6. 金全法壇
7. 集聲宮
8. 臨江殿對山廟
9. 臨江殿
10. 對山廟",
191,291,Guanyin Citang,观音慈堂,觀音慈堂,Guanyin Citang,BLK 124 Toa Payoh Lor 1 #03-465 310124,310124,124 LORONG 1 TOA PAYOH,29258.54004,35646.49861,103.8446273,1.33864877,,,,NA,NA,,,0,NA,
249,379,Jisheng Tan ,济圣坛,濟圣壇,Jisheng Tan ,BLK 122 Sengkang East Way #03-11 540122,540122,122 SENGKANG EAST WAY,36171.02578,40943.46099,103.9067415,1.38655149,,,,NA,NA,,,0,NA,
325,501,Lingyin Si,灵隐寺,靈隱寺,Leng Ern Jee temple ,15 Jalan Rajah 329136,329136,15 JALAN RAJAH,29600.00337,34384.59767,103.8476955,1.32723657,,,"济公活佛, 吕祖",NA,NA,,,1,"靈隱寺新加坡德教聯合總會

1. 靈隱寺新加坡德教聯合總會
2. 新加坡德教聯合總會
3. 靈隱寺",
395,611,Neiguan Chanxiu Zhongxin Xinjiapo,内观禅修中心   新加坡,內觀禪修中心  新加坡,VIPASSANA MEDITATION CENTRE   SINGAPORE,1 Paya Lebar Walk  535926,535926,1 PAYA LEBAR WALK,33257.28233,36759.89931,103.8805585,1.34871753,,6445 3984 ,,NA,NA,,http://vmc128.8m.com,0,NA,
686,1074,Yufenglianxian Gong ,玉封莲显宫,玉封蓮顯宮,Yufenglianxian Gong ,7 Soon Lee Street #05-38  627608,627608,7 SOON LEE STREET,13167.67615,35123.42938,103.7000418,1.33391471,,,,NA,NA,,,0,NA,
235,357,Huatang Fu,华堂府,華堂府,Huatang Fu,48 Ang Mo Kio Street 61 569162,569162,48 ANG MO KIO STREET 61,28916.55254,40324.89027,103.8415545,1.38095849,,6457 7757,施府王爷,福建省,福建省,,,1,"聚聖廟

1. 聚聖廟
2. 集福宮
3. 華堂府
4. 龍泉岩",
642,984,Xin Jia Po Shanlingtan Dao Jiao Hui,新加坡善灵坛道教会,新加坡善靈壇道教會,Shan Ling Tuah Society,"Blk 310A,Anchorvale Road, #01-31 541310",541310,310A ANCHORVALE ROAD,33754.24418,41424.82154,103.885025,1.39090531,,6315 1013,善才童子,NA,NA,,,0,NA,
199,303,Guanyin Tang  Ruqie,观音堂  如切,觀音堂  如切,Kuan Im Tng Temple  Joo Chiat,62 Tembeling Rd 423586,423586,62 TEMBELING ROAD,35541.78155,32748.01527,103.9010852,1.31243501,,6348 0967,准提观音,广东省,广东省,,,0,NA,
394,610,Nezha Xinggong Daojiao Xiehui ,哪吒行宫道教协会,哪吒行宮道教協會,Ne Zha Taoist Association,"399-B, Guillemard Road 399793",399793,399 GUILLEMARD ROAD,34137.14798,32695.0584,103.8884639,1.3119564,,9455 3950,哪吒,NA,NA,,,0,NA,
635,975,Xin Jia Po Fo Jiao Jushi Lin,新加坡佛教居士林,新加坡佛教居士林,Singapore Buddhist Lodge,17 Kim Yam Road 239329,239329,17 KIM YAM ROAD,28635.50247,30767.68676,103.8390288,1.29452654,1933,6737 2630 ,释迦牟尼佛,福建省,福建省,,http://www.sbl.org.sg,0,NA,
703,1108,Yun De  Tang Tong Xin She,云徳堂同心社  ,雲德堂同心社  ,Yun Teck Sian Tng Thong Sin Sia,15B Geylang Lor 13 388655,388655,15B LORONG 13 GEYLANG,32903.80228,32833.12599,103.8773817,1.31320526,1993,,宋大峰祖师,NA,NA,Lavender Street,,0,NA,
221,336,Hanshi Ci,韩氏祠,韓氏祠,Singapore  Han Clan Temple,2 Derbyshire Road 309458,309458,2 DERBYSHIRE ROAD,29367.95532,33063.37609,103.8456104,1.31528792,,,,NA,NA,,,0,NA,
477,735,Shanlianshan Gong,善莲山宫,善蓮山宮,Shanlianshan Gong,"7 Bedok North Street 5, Ave 4 485874",485874,7 BEDOK NORTH STREET 5,40873.87674,35283.11696,103.9489977,1.33535976,,,善才童子,NA,NA,,,1,"石林晉山聯合宮

1. 石林晉山聯合宮
2. 檺林宮
3. 石霧洞 
4. 晉平寺善蓮山宮
5.  晉平寺
6. 善蓮山宮",
479,737,Shanlingtan Daojiaohui,善灵坛道教会,善靈壇道教會,Shan Ling Tuah Society,Blk 310A Anchorvale Rd #01-31 541310,541310,310A ANCHORVALE ROAD,33754.24418,41424.82154,103.885025,1.39090531,,6315 1013,善才童子,NA,NA,,,0,NA,
147,230,Foyou Hui,佛友會,佛友會,Buddhist Fellowship Centre,9 Lorong 29 Geylang #04-02 388065,388065,9 LORONG 29 GEYLANG,33807.7324,32984.89048,103.885504,1.3145776,,6842 6422  ,,NA,NA,, http://www.buddhistfellowship.org,0,NA,
160,245,Fujian Tan ,福建坛,福建壇,Fujian Tan ,BLK 601 Hougang Ave 4 #01-123 530601,530601,601 HOUGANG AVENUE 4,33989.29224,39188.29392,103.8871366,1.37067892,,,,NA,NA,,,0,NA,
435,665,Qizhai Miao  Jingshan Lu  Ganbangshan Ting,七寨庙  静山路  甘榜山亭,七寨庙  静山路  甘榜山亭,Qizhai Miao  Jingshan Lu  Ganbangshan Ting,485 Serangoon North Avenue 1 555890,555890,485 SERANGOON NORTH AVENUE 1,32407.06287,38988.58237,103.8729191,1.36887308,,,山西夫子,福建省,福建省,,,1,"玄夫仙廟

1.玄夫仙廟
2 順興古廟
3. 七寨庙（静山路 / 甘榜山亭）
4. 龍山廟",
734,1168,Zhonglong Gong,忠龙宫,忠龍宮,Zhonglong Gong,BLK 504 Jelapang Road #19-358 670504,670504,504 JELAPANG ROAD,20612.11687,40742.27457,103.7669329,1.38473224,,,,NA,NA,,,0,NA,
730,1161,Zhongdefo Tang,忠德佛堂 ,忠德佛堂,Chong Tuck Tong Chinese Temple,477 Geylang Road 389436,389436,477 GEYLANG ROAD,33573.11929,32876.49172,103.8833958,1.31359733,1902,6748 2971,,NA,NA,,,0,NA,
438,673,Qietuo Jingshe,伽陀精舍,伽陀精舍,Katho Chengsia Temple,18 Lorong 31 Geylang 388026,388026,18 LORONG 31 GEYLANG,34006.64617,33016.21343,103.8872913,1.31486084,,6748 2266,释迦牟尼佛,福建省,福建省,,,0,NA,
265,406,Jinhua Miao,金花庙,金花廟,Jin Hua Temple,799 Mountbatten Road 437799,437799,799 MOUNTBATTEN ROAD,34985.94372,31593.69389,103.8960905,1.30199587,1918,,金花娘娘,广东省,广东省 （香港）,,,0,NA,
185,279,Guanshan Tan ,关善坛,關善壇,Guanshan Tan ,BLK571 Hougang  St 51 #02-117 530571,530571,571 HOUGANG STREET 51,34087.9352,40045.7516,103.8880232,1.37843344,,,,NA,NA,,,0,NA,
619,946,Xitianfo Miao,西天佛庙,西天佛廟,See Thian Foh Temple ,557 Bukit Batok Street 23 659523,659523,557 BUKIT BATOK STREET 23,19533.67533,35809.82447,103.7572436,1.34012467,1975,6666 0336,弥勒佛,客家,客家,Jalan Bahar ,,1,"西天佛廟（聯合廟）

1. 西天佛廟（聯合廟）
2. 西天佛廟
3. 西天道廟",
733,1165,Zhonghuashantang Lan Shi Zi Zong Hui,中华善堂蓝十字总会,中華善堂藍十字總會,"Blue Gross Charitable Institution,Singapore", 118534,118534,106 PASIR PANJANG ROAD,23653.82867,28684.40173,103.7942667,1.27568574,,,,NA,NA,,,1,"中華善堂藍十字總會

1. 中華善堂藍十字總會
2. 普德善堂
3. 崇峰善堂",
640,980,Xin Jia Po Jingzong Xue Hui,新加坡净宗学会,新加坡凈宗學會,Amitabha Buddhist Society  Singapore,2 Lorong 35 Geylang 387934,387934,2 LORONG 35 GEYLANG,34168.2631,33018.73499,103.8887435,1.31488361,1992,6744 7444,,NA,NA,,http://www.amtb.org.sg,0,NA,
757,1204,Xin Jia Po Fo Xue Yan Jiu Hui,新加坡佛学研究会,新加坡佛學研究會,Singapore Buddha Sasana Society  Sakya Tenphel Ling,"5, Pasir Ris Drive 4 519455",519455,5 PASIR RIS DRIVE 4,42006.48977,39007.55689,103.9591766,1.36904168,,,,NA,NA,,,0,NA,
530,819,Taishanglaojun Miao,太上老君庙,太上老君廟,Tai Shang Lao Jun Temple,Block 50 Joo Avenue #01-50  219347,219347,50 JOO AVENUE,30331.20909,33102.73673,103.8542657,1.31564382,1956,,太上老君,NA,NA,,,0,NA,
567,878,Tianzhushan Pilu Si,天竺山毗卢寺,天竺山毗盧寺,Beeh Low See Buddhist Temple,71B Jalan Jurong Kechil 598588,598588,71B JALAN JURONG KECHIL,21340.42367,35701.40736,103.7734784,1.33914463,1935,, 毗卢遮那佛,NA,NA,,,0,NA,
563,871,Tianxing Gong,天性宮,天性宮,Thian Sing Keong Temple,58C Upper Weld Road 207412,207412,58 UPPER WELD ROAD,30241.31635,32094.95325,103.8534579,1.30652979,,,,NA,NA,,,0,NA,
224,339,Hebishan Gong,何碧山宫,何碧山宮,Hebishan Gong,475 Yishun Ring Road 768678,768678,475 YISHUN RING ROAD,27412.92613,46167.37219,103.8280432,1.4337958,,6257 5811,三官大帝 ,福建省,福建省,,,1,"三巴旺成邦聯合廟

1. 三巴旺成邦聯合廟
2. 成邦大伯公
3. 何碧山宮
4. 南鳳善堂",
512,794,Shuimeigong Fuquansi Lianhemiao,水美宫福泉寺  联合庙,水美宮福泉寺  聯合廟,Hock Chuan Chwee Bee Temple  United Temple, Bedok North Street 5 486115,486115,1 BEDOK NORTH STREET 5,40895.77568,35302.16745,103.9491945,1.33553204,,,,NA,NA,,,1,"水美宮福泉寺（聯合廟）
1. 水美宮福泉寺（聯合廟）
2. 水美宮
3. 福泉寺",
658,1011,Xuanling Gong,玄灵宫,玄靈宮,Hiang Leng Gong Temple,10 Geylang Lorong 24 398622,398622,10 LORONG 24 GEYLANG,33545.5816,32776.53612,103.8831484,1.31269337,,,玄天上帝,NA,NA,,,0,NA,
284,433,Jiutianxuannv Gong Honghao Qiao,九天玄女宫 宏茂桥,九天玄女宮 宏茂橋,Kiew Thian Hian Keng,"772, Lorong 3, Geylang Road 389087",389087,772 LORONG 3 GEYLANG,32430.55639,33438.17445,103.8731294,1.31867717,,,九天玄女娘娘,NA,NA,,,0,NA,
504,786,Shuichi Lin,水池林,水池林,Shuichi Lin,19 Yishun Avenue 9 768891,768891,19 YISHUN AVENUE 9,28910.94176,46211.69838,103.8415043,1.43419666,,,,NA,NA,,,1,"義順鎮聯合廟

1. 義順鎮聯合廟
2. 鎮南廟廣壽堂
3. 鎮南廟
4. 廣壽堂
5. 元龍聖廟
6. 元壽堂
7. 新勝壇
8. 龍霞館
9. 順西宮水池林
10. 順西宮
11. 水池林",
634,974,Xin Jia Po Fo Jiao Hui,新加坡佛教会,新加坡佛教會,Singapore Buddhist Mission,9 Ruby Lane 328284,328284,9 RUBY LANE,31743.08706,34383.43708,103.8669523,1.32722588,,6299 7216,,NA,NA,,,0,NA,
637,977,Xin Jia Po Fo Jiao Yana Xie Hui,新加坡佛教亚纳协会,新加坡佛教亞納協會,Singapore Buddha Yana Organisation,15 Jalan Belibas  578666,578666,15 JALAN BELIBAS,28070.50277,37532.71657,103.8339521,1.35570708,,6455 5117 ,,NA,NA,,,0,NA,
193,296,Guanyin Jiuku Hui Relanyounuoshi,观音救苦会 惹兰友诺士,觀音救苦會 惹兰友诺士,Guanyin Jiuku Hui Relanyounuoshi,34 Jalan Eunos  419496,419496,34 JALAN EUNOS,36027.32684,33614.97413,103.9054483,1.32027535,,6743 4228 ,观世音菩萨,福建省,福建省,,,0,NA,
289,439,Jushan Huashan Gong,聚善华山宫,聚善華山宮,Chu Siang Wah Sua Temple,569 Yishun Ring Road 768691,768691,569 YISHUN RING ROAD,28042.01009,46296.93599,103.8336961,1.43496753,,,,NA,NA,,,1,"聚善华山宫

1. 聚善華山宮
2. 華山宮（華山芭）
3. 聚善堂",
381,576,Nanhai Gong,南海宫,南海宮,Nam Hai Kieng,9 Lor 35 Geylang #02-01 387941,387941,9 LORONG 35 GEYLANG,34129.69025,33044.98169,103.8883969,1.31512098,,6747 3916 ,观世音菩萨,福建省,福建省,,,0,NA,
436,666,Qizhai Miao  Lincuogang AMagonglu,七寨庙  林厝港阿妈宫路,七寨廟  林厝港阿媽宮路,Chee Chea Temple   Lim Chu Gang Ah Ma Keng Road,4 Teck Whye Lane 688800,688800,4 TECK WHYE LANE,19129.52946,40290.90929,103.7536108,1.38064984,,"6765 1286 
6766 3624",关圣帝君,福建省,福建省 安溪县,,,1,"龍合山七寨廟（聯合廟）

1. 龍合山七寨廟（聯合廟）
1. 七寨廟（林厝港阿媽宮路）
2. 龍合山宮（萬禮路）",
279,424,Jiucaiba Chenghuang Miao Sanqing Gong ,韭菜芭城隍庙三清宫,韭菜芭城隍廟三清宮,Koo Chye Ba Seng Hong Temple San Qing Gong,21 Bedok North Avenue 4 489948,489948,21 BEDOK NORTH AVENUE 4,40938.68769,35240.72992,103.9495801,1.3349764,,6244 9595,三清道祖,众多方言,众多方言,,,0,NA,
271,414,Jinquanfa Tan,金全法坛,金全法壇,Jinquanfa Tan,397 Bt Batok West Ave 8 658964,658964,397 BUKIT BATOK WEST AVENUE 8,17619.08358,36585.96803,103.7400397,1.34714322,,,卓府大人,福建省,福建省,,,1,"桂林聯合廟

1. 桂林聯合廟
2. 龍顯山宮
3. 石竹廟
4. 愛民宮
5. 金全法壇集聲宮
6. 金全法壇
7. 集聲宮
8. 臨江殿對山廟
9. 臨江殿
10. 對山廟",
732,1164,Zhonghongshan Tang Jiu Huang Gong  Lianhe Gong,众弘善堂九皇宫  联合宫,眾弘善堂九皇宮,Cheng Hong Siang Tng Kew Huang Keng  United Temple,30 Arumugam Road 409966,409966,30 ARUMUGAM ROAD,34548.38687,34220.72769,103.8921594,1.32575392,,,,NA,NA,,,1,"眾弘善堂九皇宮（聯合宮）

1. 眾弘善堂九皇宮（聯合宮）
2. 眾弘善堂
3. 蔥茅園九皇宮",
424,650,Qifugong Lianhegong,七福宫  联合宫,七福宮  聯合宮,Chi Hock Keng United Temple,15 Fajar Road 679003,679003,15 FAJAR ROAD,20887.57353,40587.66196,103.7694081,1.38333405,,,,NA,NA,,,1,"七福宮（聯合宮）

1. 七福宮（聯合宮）
2. 七福宮
3. 天文壇",
490,764,Shengwang Gong,圣王宫,聖王宮,Shengwang Gong,66 Geylang Lor 24A 398590,398590,66 LORONG 24A GEYLANG,33629.3714,32627.88306,103.8839012,1.31134899,,,开漳圣王,福建省,福建省,,,0,NA,
638,978,Xin Jia Po Fo Jiao Zuochan Zhong Xin,新加坡佛教坐禅中心,新加坡佛教坐禪中心,Singapore Buddhist Meditation Centre,1 Jalan Mas Puteh  128607,128607,1 JALAN MAS PUTEH,20004.36345,32319.97349,103.761474,1.30856384,,6778 3330,,NA,NA,,,0,NA,
492,771,Shijia Mouni Puti Jiaya Shi ,释迦牟尼菩提迦耶寺,釋迦牟尼菩提迦耶寺,Sakya Muni Buddha Gaya Temple ,366 Race Course Road 218638,218638,366 RACE COURSE ROAD,30626.23158,32999.9106,103.8569166,1.31471388,,,,NA,NA,,,0,NA,
150,234,Fude Ci Wanghai ,福德祠 望海,福德祠 望海,Fook Tek Chinese Temple,50H Palmer Road (off Shenton Way) 079426,79426,50H PALMER ROAD,29483.36139,28439.72389,103.8466471,1.27347323,,6221 9787,大伯公,客家,客家,,,0,NA,
655,1006,Xiude Shantang Yangxin She,修德善堂养心社,修德善堂養心社,Seu Teck Sean Tong Yiang Sin Sia,335 Bedok North Ave 3  469718,469718,335 BEDOK NORTH AVENUE 3,39183.35158,35025.53385,103.9338073,1.33303095,1916,,宋大峰祖师,广东省,广东省 潮州市,River Valley Road,,0,NA,
420,645,Puzhongdian Zhushantang,普忠殿助善堂,普忠殿助善堂,Poh Chung Tian Chor Sian Tong,201 Toa Payoh Lorong 6 319385,319385,201 LORONG 6 TOA PAYOH,30540.88216,34905.43137,103.8561498,1.33194674,,6356 1207,"邱府王爷, 普庵佛祖, 大宋三忠王：文天祥、 張世傑、 陸秀夫",福建省,福建省 厦门市 同安区,,,0,NA,
250,380,Jisheng Tan ,吉圣坛,吉圣壇,Jisheng Tan ,BLK 561 Ang Mo Kio Ave 10 #06-1830 560561,560561,561 ANG MO KIO AVENUE 10,30730.55887,39177.04346,103.8578546,1.37057766,,,,NA,NA,,,0,NA,
617,944,Xishan Gong,西山宫,西山宮,Xishan Gong,741 Jurong West St 42 649369,649369,741 JURONG WEST STREET 42,15830.9311,37229.01943,103.7239718,1.35295807,1800,,"玄天上帝, 廣澤尊王",福建省,福建省,Jurong 10th milestone,,0,NA,
331,509,Longfeng Dong,龙凤洞,龍鳳洞,Ling Hong Tong Temple,10 Bukit Batok Street 21 659632,659632,10 BUKIT BATOK STREET 21,18831.53598,36469.11249,103.7509343,1.34608682,,6567 7382,保生大帝,福建省,福建省 安溪县,,,1,"龍鳳洞及雲南大伯公廟（聯合廟）

1. 龍鳳洞及雲南大伯公廟（聯合廟）
2. 龍鳳洞
3. 雲南大伯公廟",
674,1047,Yiwujiujizheng Gong  Hong Mao Qiao ,壹伍玖济正宫  宏茂桥,壹伍玖濟正宮  宏茂橋,Ji Zheng Gong   Main temple at 159 AMK,Blk 159 Ang Mo Kio Ave 4 #01-528  560159,560159,159 ANG MO KIO AVENUE 4,28727.77134,39643.7975,103.8398581,1.37479893,1990,6387 9230,"石狮城隍爷（请自泉州石狮城隍庙）, ",福建省,福建省,"Paya Lebar   Address: 15 Lorong 21A Geylang, Singapore
Tel: 6747 8547, 6747 8409",,0,NA,
427,655,Wujibadu Qitiangong,武吉巴督齐天宫,武吉巴督齊天宮,Wujibadu Qitiangong,BLK 116 Bukit Batok West Ave 6 #04-224 650116,650116,116 BUKIT BATOK WEST AVENUE 6,18324.82424,36860.76957,103.7463811,1.34962866,,,,NA,NA,,,0,NA,
711,1128,Zhaohui Miao,昭惠庙,昭惠廟,Zhaohui Miao,416 Race Course Road 218663,218663,416 RACE COURSE ROAD,30710.10307,33084.21508,103.8576702,1.31547629,1949,,"吴圣天妃, 朱公元帅, 白公大人",福建省,福建省 莆田市 涵江区 哆头十五社,,,0,NA,
750,1194,Ziyunkaiji Gong,紫云开吉宫,紫雲開吉宮,Ziyunkaiji Gong,58 Hougang Ave 3 538842,538842,58 HOUGANG AVENUE 3,34580.58489,37875.8749,103.8924495,1.35880975,,,观世音菩萨,福建省,福建省,,,1,"紫雲開吉宮 

1. 紫雲開吉宮 
2. 朝雲宮
3. 吉山廟
4. 開福堂",1194
184,278,Guanshanmiao Daertan,关善庙大贰坛,關善廟大貳壇,Guan Shan Temple, 25 Lorong 25 Geylang 388302,388302,25 LORONG 25 GEYLANG,33453.83359,32969.66814,103.882324,1.31444,1970,,黄老仙师,NA,NA,old village Charn Mao Hern (near today's Defu Lane),,0,NA,
260,398,Jinfeng Miao,金凤庙,金鳳廟,Kim Hong Temple,26 Arumugam Road 409964,409964,26 ARUMUGAM ROAD,34520.01742,34211.97776,103.8919045,1.3256748,,67484795,青面大帝,福建省,福建省,Kim Hong Village (Geylang Lorong 3),,1,"金鳳廟三寶佛光寺（聯合廟）

1. 金鳳廟/三寶佛光寺（聯合廟）
2. 三寶佛光寺
2. 金鳳廟",
411,635,Pupingsi Shanlianshan Gong,普平寺善联山宫,普平寺善聯山宮,Chin Pin Tze San Lian Sun,BLK 924 Tampines Street 91 #08-257 520924,520924,924 TAMPINES STREET 91,39958.93749,36547.08632,103.940777,1.34679101,,,,NA,NA,,,1,"普平寺善聯山宮

1. 普平寺善聯山宮
2. 普平寺
3. 善聯山",
350,531,Longtianmen Cishenggong,龙天门慈圣宮,龍天門慈聖宮,Longtianmen Cishenggong,Blk 122 8th flr Eunos Ave 7 409575,409575,122 EUNOS AVENUE 7,35004.03359,33951.87598,103.8962535,1.32332242,,,"观世音菩萨, 感天大帝, 善财爷公, 包公大人, 五嶽城隍, 大二三爷伯 ",NA,NA,,,0,NA,
172,261,Gaolin Gong Wuluobei,檺林宫  勿洛北,檺林宮 勿洛北,Kuah Na Keng,"9  Bedok North Street 5, Ave 4. 485875",485875,9 BEDOK NORTH STREET 5,40873.34699,35283.39661,103.948993,1.33536229,1890,,朱、邢、李大人,福建省,福建省 南安市 玉湖村,,,1,"石林晉山聯合宮

1. 石林晉山聯合宮
2. 檺林宮
3. 石霧洞 
4. 晉平寺善蓮山宮
5.  晉平寺
6. 善蓮山宮",
377,571,Nanfeng Shantang,南风善堂,南風善堂,Nam Hong Siang Theon,475 Yishun Ring Road 768678,768678,475 YISHUN RING ROAD,27412.92613,46167.37219,103.8280432,1.4337958,,6257 0991,宋大峰祖師,广东省,广东省 潮州市,,"Re: 王亚音先生身兼南凤善堂、成邦大伯公宫董事
蔡棣行小姐是善堂职员",1,"三巴旺成邦聯合廟

1. 三巴旺成邦聯合廟
2. 成邦大伯公
3. 何碧山宮
4. 南鳳善堂",
650,998,Xingdu Miao,兴都庙,興都廟,Veeramuthu Muneeswarar,523 Yishun Industrial Park A  768770,768770,523 YISHUN INDUSTRIAL PARK A,28296.62043,47222.27744,103.835984,1.44333598,1994,,,NA,NA,,,1,"福發宮

1. 福發宮
2. 天福殿
3. 朝雲殿
4. 興都廟",
649,997,Xing'antianhou Gong,兴安天后宫,興安天后宮,Xing'antianhou Gong,25 Lorong 33 Geylang 387985,387985,25 LORONG 33 GEYLANG,34034.78117,33066.65233,103.8875441,1.31531698,1920,6744 1438,"天上圣母, 谢大爷伯",福建省,福建省 莆田市 ,,,0,NA,
557,858,Tianmingshun Gong,天明顺宫,天明順宮,Tian Ming Shun Gong,No 14A Rochdale Road  535828,535828,14A ROCHDALE ROAD,33614.92259,36154.91719,103.8837721,1.34324623,,,,NA,NA,,,0,NA,
393,609,Nezha Tan,哪吒坛,哪吒壇,Nezha Tan,12 Ruby Lane  328287,328287,12 RUBY LANE,31716.26488,34400.76983,103.8667113,1.32738264,2000,,哪吒,NA,NA,Eunos,,0,NA,
552,850,Tiankong Tang,天公坛,天公壇,Tien Kong Thun Temple,68 Jalan Pemimpin 577220,577220,68 JALAN PEMIMPIN,29182.26188,37088.00849,103.843942,1.35168527,,,,NA,NA,,,0,NA,
591,906,Weituofa Gong ,韦陀法宫,韋陀法宮,Wei Tuo Fa Gong Temple ,224J Pulau Ubin  508346,508346,224J PULAU UBIN,42166.46614,43365.7813,103.9606162,1.40845573,,,,NA,NA,,,0,NA,
428,656,Qitiangong Zhongbalu,齐天宫中峇鲁,齊天宮中峇魯.,Qui Tian Gong Temple Tiong Bahru ,44 Eng Hoon Street  169786,169786,44 ENG HOON STREET,28112.69782,29585.21573,103.8343312,1.28383269,1920,,齐天大圣,福建省,福建省,near to Tiong Poh Road in Tiong Bahru,,0,NA,
321,492,Lingjing Gong,灵晋宫, 靈晉宮,Ling Jing Gong  Jurong Temple,"741 Jurong West Street 42, #01-01 649369",649369,741 JURONG WEST STREET 42,15830.9311,37229.01943,103.7239718,1.35295807,1949,6873 2722          *,"广泽尊王, 玄天上帝, 九天玄女, 关帝圣君, 康元帅, 孙府大人",福建省,"福建省 南安市
",Jurong 10th milestone,,1,"裕廊總宮

1. 裕廊總宮
2. 觀山殿
3. 龍鬚岩
4. 瓊瑤教邸
5. 靈晉宮
6. 水溝館",
296,446,Kanganlama Fosi,坎甘拉马佛寺,坎甘拉馬佛寺,Kancanrama Budh Temple,2 Lorong Ong Lye 536358,536358,2 LORONG ONG LYE,33147.72445,36759.15783,103.8795741,1.34871085,,,,NA,NA,,,0,NA,
375,568,Nanda Qixuan Tan,南大齐玄坛,南大齊玄壇,Nanda Qixuan Tan,BLK 737 Jurong West St 75 #05-55 640737,640737,737 JURONG WEST STREET 75,13292.18453,36542.24581,103.7011599,1.34674601,,,,NA,NA,,,0,NA,
188,282,Guansheng Tan ,关圣坛,關圣壇,Guansheng Tan ,BLK 832 Yishun St 81 #02-440 760832,760832,832 YISHUN STREET 81,28154.14785,44059.76402,103.8347037,1.41473536,,8463 3264,关圣帝君,福建省,福建省,,,0,NA,
546,842,Tiangongxing Wuleiwantian Zhushuai Daxuantan,天公兴五雷万天主帅大玄坛,天公兴五雷万天主帥大玄坛,Tian Kong Heng Woo Looi Ban Tin To Suay Temple,36S Paya Lebar Cres 536075,536075,36S PAYA LEBAR CRESCENT,33482.34836,36653.37595,103.8825809,1.34775413,,,,NA,NA,,,0,NA,
592,908,Wenshu Tushuguan,文殊图书馆,文殊圖書館,Manjusri Library,40 Lorong 27 Geylang Road  388174,388174,40 LORONG 27 GEYLANG,33619.98645,33010.38209,103.883817,1.31480817,,6749 2080 ,释迦牟尼佛,众多方言,众多方言,,,0,NA,
326,502,Lingyinsi Xinjiapo Dejiao Lianhe Zonghui Lianhemiao,灵隐寺新加坡德教联合总会  联合庙,靈隱寺新加坡德教聯合總會  聯合廟,Leng Ern Jee temple The Singapore Federation of Moral Missions   United temple,16 Jalan Rajah 329137,329137,17 JALAN RAJAH,29590.02737,34425.91877,103.8476059,1.32761026,,,,NA,NA,,,1,"靈隱寺新加坡德教聯合總會

1. 靈隱寺新加坡德教聯合總會
2. 新加坡德教聯合總會
3. 靈隱寺",
704,1115,Yunlong Yuan ,云龙寺,雲龍寺,Hong Leng Yien Temple ,116 Keng Lee Road 308402,308402,116 KENG LEE ROAD,29274.12167,32922.67252,103.8447672,1.31401545,1900,,,NA,NA,Keng Lee Road,,0,NA,
651,1000,Xingsheng Gong   Ya Long,兴胜宫  芽笼,興勝宮  芽籠,Xing Sheng Gong,67-A Lorong 14 Gelang 398956,398956,67 LORONG 14 GEYLANG,33144.54686,32521.97033,103.8795448,1.31039124,,,"张公圣君, 玄天上帝",福建省,福建省 莆田市 仙游县,,,0,NA,
652,1001,Xingsheng Gong   Zhang Yi,兴胜宫  樟宜,興勝宮  樟宜,Xingsheng Gong  ,280-A Changi Road 419760,419760,280 CHANGI ROAD,36130.13677,33320.57534,103.906372,1.31761289,,,"三一教主, 田公元帅, 齐天大圣",福建省,福建省 莆田市 仙游县,,,0,NA,
653,1003,Xiuben Tang,修本堂,修本堂,Xiuben Tang,50A Joo Chiat Place  427774,427774,50 JOO CHIAT PLACE,35585.10778,32850.12779,103.9014745,1.31335847,,,,NA,NA,,,0,NA,
324,499,Lingxiao Dian,凌霄殿,凌霄殿,Lingxiao Dian,37 Kim Chuan Drive 537089,537089,37 KIM CHUAN DRIVE,34443.69739,35904.64601,103.891219,1.3409827,,6744 6969,"玉皇上帝, 温公元帅",福建省,福建省 莆田市 江口镇 西刘村,,,0,NA,
701,1105,Yuanshou Tang,元寿堂,元壽堂,Yuanshou Tang,17 Yishun Avenue 9 768890,768890,17 YISHUN AVENUE 9,28910.94179,46211.69841,103.8415043,1.43419666,,,五谷仙帝,NA,NA,,,1,"義順鎮聯合廟

1. 義順鎮聯合廟
2. 鎮南廟廣壽堂
3. 鎮南廟
4. 廣壽堂
5. 元龍聖廟
6. 元壽堂
7. 新勝壇
8. 龍霞館
9. 順西宮水池林
10. 順西宮
11. 水池林",
491,767,Shengzhi Gong,圣旨宫,聖旨宫,Shengzhi Gong,Blk 116 Pending Rd #04-218 670116,670116,116 PENDING ROAD,20799.492,39906.30597,103.7686168,1.37717209,,,金财童子,NA,NA,,,0,NA,
192,293,Guanyinfofa Tan ,观音佛法坛,觀音佛法壇,Guanyinfofa Tan ,BLK 57 Geylang Bahru #01-3513 330057,330057,57 GEYLANG BAHRU,31987.42905,33975.63193,103.8691478,1.32353781,,,,NA,NA,,,0,NA,
527,813,Shunzhong Tan Shilonggang,顺忠坛 实龙岗,順忠壇,Shun Zhong Tan Serangoon,BLK 30 Defu Lane 10 #04-100 539211,539211,30 DEFU LANE 10,34564.5468,37158.75666,103.8923052,1.3523244,,,,NA,NA,,,0,NA,
614,940,Xijian Tan ,西建坛,西建壇,Xijian Tan ,BLK 78 Indus Road #08-495 161078,161078,78 INDUS ROAD,27349.81971,30410.22151,103.8274764,1.29129375,,,,NA,NA,,,0,NA,
306,467,Lianhua Gong,莲花宫,蓮花宮,Lian Hua Gong Association,"Blk 8, 552 Geylang Lor 3  388977",388977,552 LORONG 3 GEYLANG,32531.37668,33326.79602,103.8740353,1.31766989,,6743 4663,哪吒,NA,NA,,,0,NA,
353,535,Longxu Yan,龙须岩,龍須岩,Longxu Yan,741 Jurong West Street 42 649369,649369,741 JURONG WEST STREET 42,15830.9311,37229.01943,103.7239718,1.35295807,,,清水祖师,福建省,福建省 南安市 翔云镇,Jurong Road 10th milestone,,1,"裕廊總宮

1. 裕廊總宮
2. 觀山殿
3. 龍鬚岩
4. 瓊瑤教邸
5. 靈晉宮
6. 水溝館",
463,702,Sanbawang Tianyundian Caishenmiao,三巴旺天云殿财神庙,叁巴旺天雲殿財神廟,Sembawang Tian Hoon Tien   God of Wealth Temple,28 Admiralty Street 757611,757611,28 ADMIRALTY STREET,25527.90587,49153.72872,103.8111042,1.46080322,,"9005 6219 
9145 091*","正财神, 文财神, 五路财神",福建省,福建省,28 Admiralty Street,,1,"三巴旺聯合宮 

1. 三巴旺聯合宮 
2. 蓬萊殿（清水祖師）
3. 三巴旺天后宮
4. 三巴旺天雲殿財神廟",
533,825,Tianbao Tang,天保堂,天保堂,Tianbao Tang,"88a Shrewsbury Road, 307845",307845,88A SHREWSBURY ROAD,29749.4299,33389.62028,103.8490381,1.31823833,1975,,观世音菩萨,NA,NA,,,0,NA,
328,504,Lingyundian Beichengong Putian,凌云殿北辰宫  莆田,凌雲殿北辰宫  莆田,Lin Hoon Dian,526A Geylang Road 389482,389482,526 GEYLANG ROAD,33861.91466,32886.71346,103.8859908,1.31368971,1947,,"玉皇上帝, 玄天上帝",NA,NA,59 Duxton Road,,1,"凌雲殿北辰宫（莆田）

1. 凌雲殿北辰宫
2. 凌雲殿
3. 北辰宫",
246,374,Jilongshan Miao,吉龙山庙,吉龍山廟,Kiat Leng San Temple,487 Serangoon North Avenue 1 555893,555893,9 SERANGOON NORTH AVENUE 1,32307.97872,38516.21653,103.8720287,1.36460119,,,包府大人 ,NA,NA,,,1,"镇山天福宫

1. 镇山天福宫
2. 安山廟
3. 萬福宮
4. 石竹廟
5. 吉龍山廟
6. 龍鎮宮",
509,791,Shuijiangmiao  Xiangyouhui,水江庙  香友会,水江廟  香友會,Chwee Kang Beo Association,801 Upper Boon Keng Road 387310,387310,801 UPPER BOON KENG ROAD,32081.48336,33064.78867,103.8699928,1.31530045,1950,6748 9782,"石狮城隍爷, 七王爷, 大晋公",福建省,福建省,"Bank of Kallang River, in a village known as village Soopoo",,0,NA,
